{"type":"FeatureCollection", "features": [
{"type":"Feature","geometry":{"type":"Polygon","coordinates":[[[-58.4267,-34.627],[-58.4292,-34.6151],[-58.43,-34.6155],[-58.4306,-34.606],[-58.4333,-34.6027],[-58.4392,-34.6056],[-58.4462,-34.6076],[-58.4584,-34.6045],[-58.4627,-34.6074],[-58.4594,-34.6139],[-58.4515,-34.6307],[-58.4267,-34.627]]]},"properties":{"id":502,"departamento":"COMUNA 6","cabecera":"","provincia":"CIUDAD AUTONOMA DE BUENOS AIRES"}},
{"type":"Feature","geometry":{"type":"Polygon","coordinates":[[[-58.3739,-34.5787],[-58.3761,-34.58],[-58.3798,-34.5802],[-58.3828,-34.5785],[-58.3898,-34.5782],[-58.3916,-34.5808],[-58.3866,-34.5839],[-58.3837,-34.5875],[-58.3879,-34.5917],[-58.3868,-34.5993],[-58.3929,-34.5997],[-58.3918,-34.6113],[-58.3917,-34.6182],[-58.3911,-34.6273],[-58.3903,-34.6341],[-58.3834,-34.6322],[-58.3745,-34.6268],[-58.3709,-34.6267],[-58.3706,-34.6295],[-58.3679,-34.6271],[-58.3679,-34.6252],[-58.3631,-34.6252],[-58.356,-34.6177],[-58.3551,-34.6196],[-58.3516,-34.6193],[-58.349,-34.6166],[-58.3438,-34.6174],[-58.3398,-34.616],[-58.3415,-34.61],[-58.3465,-34.6066],[-58.3474,-34.6016],[-58.3517,-34.5991],[-58.3535,-34.5966],[-58.3564,-34.5949],[-58.3603,-34.595],[-58.3642,-34.5972],[-58.368,-34.5974],[-58.3692,-34.5941],[-58.3665,-34.5929],[-58.3679,-34.5899],[-58.3601,-34.5884],[-58.3634,-34.5875],[-58.3636,-34.5863],[-58.3596,-34.5859],[-58.3615,-34.583],[-58.3615,-34.5813],[-58.3653,-34.5801],[-58.3682,-34.5782],[-58.3739,-34.5787]]]},"properties":{"id":497,"departamento":"COMUNA 1","cabecera":"","provincia":"CIUDAD AUTONOMA DE BUENOS AIRES"}},
{"type":"Feature","geometry":{"type":"Polygon","coordinates":[[[-58.3739,-34.5787],[-58.3705,-34.577],[-58.3807,-34.571],[-58.3815,-34.5683],[-58.3905,-34.5693],[-58.3908,-34.5709],[-58.3827,-34.5755],[-58.3855,-34.5764],[-58.3921,-34.5722],[-58.3952,-34.5722],[-58.3993,-34.5699],[-58.4026,-34.5742],[-58.4016,-34.5753],[-58.3965,-34.5785],[-58.4005,-34.5845],[-58.4019,-34.5834],[-58.4061,-34.5835],[-58.41,-34.5891],[-58.4144,-34.5941],[-58.416,-34.5979],[-58.4119,-34.598],[-58.4045,-34.5981],[-58.402,-34.5994],[-58.3987,-34.5998],[-58.3929,-34.5997],[-58.3868,-34.5993],[-58.3879,-34.5917],[-58.3837,-34.5875],[-58.3866,-34.5839],[-58.3916,-34.5808],[-58.3898,-34.5782],[-58.3828,-34.5785],[-58.3798,-34.5802],[-58.3761,-34.58],[-58.3739,-34.5787]]]},"properties":{"id":498,"departamento":"COMUNA 2","cabecera":"","provincia":"CIUDAD AUTONOMA DE BUENOS AIRES"}},
{"type":"Feature","geometry":{"type":"Polygon","coordinates":[[[-58.3929,-34.5997],[-58.3987,-34.5998],[-58.402,-34.5994],[-58.4045,-34.5981],[-58.4119,-34.598],[-58.4141,-34.6079],[-58.4144,-34.6108],[-58.4128,-34.6141],[-58.4117,-34.6304],[-58.4083,-34.6295],[-58.3986,-34.6284],[-58.3911,-34.6273],[-58.3917,-34.6182],[-58.3918,-34.6113],[-58.3929,-34.5997]]]},"properties":{"id":499,"departamento":"COMUNA 3","cabecera":"","provincia":"CIUDAD AUTONOMA DE BUENOS AIRES"}},
{"type":"Feature","geometry":{"type":"Polygon","coordinates":[[[-58.3911,-34.6273],[-58.3986,-34.6284],[-58.4083,-34.6295],[-58.4117,-34.6304],[-58.4105,-34.6353],[-58.4112,-34.6381],[-58.4235,-34.6402],[-58.4323,-34.6418],[-58.4321,-34.6452],[-58.4349,-34.6463],[-58.4304,-34.6499],[-58.4344,-34.6531],[-58.4267,-34.6587],[-58.4238,-34.6623],[-58.4214,-34.6611],[-58.4151,-34.6591],[-58.4123,-34.6587],[-58.4084,-34.6602],[-58.4034,-34.6598],[-58.3977,-34.6618],[-58.3917,-34.6626],[-58.3899,-34.6611],[-58.3874,-34.6603],[-58.3852,-34.6582],[-58.3741,-34.6572],[-58.3697,-34.654],[-58.3684,-34.6511],[-58.3641,-34.6487],[-58.3616,-34.6482],[-58.3566,-34.6445],[-58.3575,-34.6418],[-58.3571,-34.6394],[-58.3521,-34.6355],[-58.3452,-34.6323],[-58.3402,-34.6275],[-58.3385,-34.6287],[-58.3354,-34.627],[-58.3352,-34.6256],[-58.3393,-34.6235],[-58.3364,-34.6216],[-58.3393,-34.6181],[-58.3432,-34.6185],[-58.3442,-34.6214],[-58.3472,-34.6187],[-58.3496,-34.6197],[-58.3516,-34.6193],[-58.3551,-34.6196],[-58.356,-34.6177],[-58.3631,-34.6252],[-58.3679,-34.6252],[-58.3679,-34.6271],[-58.3706,-34.6295],[-58.3709,-34.6267],[-58.3745,-34.6268],[-58.3834,-34.6322],[-58.3903,-34.6341],[-58.3911,-34.6273]]]},"properties":{"id":500,"departamento":"COMUNA 4","cabecera":"","provincia":"CIUDAD AUTONOMA DE BUENOS AIRES"}},
{"type":"Feature","geometry":{"type":"Polygon","coordinates":[[[-58.4267,-34.627],[-58.4235,-34.6402],[-58.4112,-34.6381],[-58.4105,-34.6353],[-58.4117,-34.6304],[-58.4128,-34.6141],[-58.4144,-34.6108],[-58.4141,-34.6079],[-58.4119,-34.598],[-58.416,-34.5979],[-58.4233,-34.5978],[-58.4268,-34.598],[-58.4291,-34.599],[-58.4333,-34.6027],[-58.4306,-34.606],[-58.43,-34.6155],[-58.4292,-34.6151],[-58.4267,-34.627]]]},"properties":{"id":501,"departamento":"COMUNA 5","cabecera":"","provincia":"CIUDAD AUTONOMA DE BUENOS AIRES"}},
{"type":"Feature","geometry":{"type":"Polygon","coordinates":[[[-58.4594,-34.6139],[-58.4686,-34.6176],[-58.4778,-34.6224],[-58.4713,-34.6367],[-58.4692,-34.6414],[-58.463,-34.6462],[-58.467,-34.6515],[-58.4604,-34.6568],[-58.4549,-34.6522],[-58.4546,-34.6508],[-58.4433,-34.6512],[-58.438,-34.6558],[-58.4344,-34.6531],[-58.4304,-34.6499],[-58.4349,-34.6463],[-58.4321,-34.6452],[-58.4323,-34.6418],[-58.4235,-34.6402],[-58.4267,-34.627],[-58.4515,-34.6307],[-58.4594,-34.6139]]]},"properties":{"id":503,"departamento":"COMUNA 7","cabecera":"","provincia":"CIUDAD AUTONOMA DE BUENOS AIRES"}},
{"type":"Feature","geometry":{"type":"Polygon","coordinates":[[[-58.4344,-34.6531],[-58.438,-34.6558],[-58.4433,-34.6512],[-58.4546,-34.6508],[-58.4549,-34.6522],[-58.4604,-34.6568],[-58.4644,-34.6601],[-58.4676,-34.6575],[-58.4705,-34.6584],[-58.4725,-34.6628],[-58.4788,-34.6579],[-58.4859,-34.6625],[-58.4889,-34.6634],[-58.4958,-34.6702],[-58.5026,-34.6746],[-58.4614,-34.7053],[-58.4503,-34.6928],[-58.4274,-34.6656],[-58.4238,-34.6623],[-58.4267,-34.6587],[-58.4344,-34.6531]]]},"properties":{"id":504,"departamento":"COMUNA 8","cabecera":"","provincia":"CIUDAD AUTONOMA DE BUENOS AIRES"}},
{"type":"Feature","geometry":{"type":"Polygon","coordinates":[[[-58.4713,-34.6367],[-58.476,-34.639],[-58.4785,-34.637],[-58.4953,-34.6449],[-58.4971,-34.6434],[-58.5023,-34.6458],[-58.5098,-34.6401],[-58.5105,-34.6374],[-58.5056,-34.6367],[-58.5148,-34.6332],[-58.5205,-34.633],[-58.5243,-34.6345],[-58.5304,-34.6348],[-58.5292,-34.6548],[-58.5026,-34.6746],[-58.4958,-34.6702],[-58.4889,-34.6634],[-58.4859,-34.6625],[-58.4788,-34.6579],[-58.4725,-34.6628],[-58.4705,-34.6584],[-58.4676,-34.6575],[-58.4644,-34.6601],[-58.4604,-34.6568],[-58.467,-34.6515],[-58.463,-34.6462],[-58.4692,-34.6414],[-58.4713,-34.6367]]]},"properties":{"id":505,"departamento":"COMUNA 9","cabecera":"","provincia":"CIUDAD AUTONOMA DE BUENOS AIRES"}},
{"type":"Feature","geometry":{"type":"Polygon","coordinates":[[[-58.4778,-34.6224],[-58.4827,-34.6246],[-58.4955,-34.6144],[-58.5002,-34.6091],[-58.513,-34.6168],[-58.5169,-34.6202],[-58.5292,-34.6111],[-58.5315,-34.616],[-58.5304,-34.6348],[-58.5243,-34.6345],[-58.5205,-34.633],[-58.5148,-34.6332],[-58.5056,-34.6367],[-58.5105,-34.6374],[-58.5098,-34.6401],[-58.5023,-34.6458],[-58.4971,-34.6434],[-58.4953,-34.6449],[-58.4785,-34.637],[-58.476,-34.639],[-58.4713,-34.6367],[-58.4778,-34.6224]]]},"properties":{"id":506,"departamento":"COMUNA 10","cabecera":"","provincia":"CIUDAD AUTONOMA DE BUENOS AIRES"}},
{"type":"Feature","geometry":{"type":"Polygon","coordinates":[[[-58.4584,-34.6045],[-58.4689,-34.6019],[-58.474,-34.6053],[-58.4788,-34.5997],[-58.4834,-34.5978],[-58.4971,-34.5968],[-58.5034,-34.594],[-58.5145,-34.5818],[-58.5155,-34.5813],[-58.5292,-34.6111],[-58.5169,-34.6202],[-58.513,-34.6168],[-58.5002,-34.6091],[-58.4955,-34.6144],[-58.4827,-34.6246],[-58.4778,-34.6224],[-58.4686,-34.6176],[-58.4594,-34.6139],[-58.4627,-34.6074],[-58.4584,-34.6045]]]},"properties":{"id":507,"departamento":"COMUNA 11","cabecera":"","provincia":"CIUDAD AUTONOMA DE BUENOS AIRES"}},
{"type":"Feature","geometry":{"type":"Polygon","coordinates":[[[-58.5034,-34.594],[-58.4888,-34.5848],[-58.468,-34.5729],[-58.4733,-34.5667],[-58.4665,-34.5622],[-58.4744,-34.5524],[-58.4682,-34.549],[-58.4759,-34.5387],[-58.5008,-34.5495],[-58.5155,-34.5813],[-58.5145,-34.5818],[-58.5034,-34.594]]]},"properties":{"id":508,"departamento":"COMUNA 12","cabecera":"","provincia":"CIUDAD AUTONOMA DE BUENOS AIRES"}},
{"type":"Feature","geometry":{"type":"Polygon","coordinates":[[[-58.468,-34.5729],[-58.4673,-34.5725],[-58.4632,-34.5751],[-58.4602,-34.5783],[-58.4577,-34.5785],[-58.451,-34.5805],[-58.4444,-34.5832],[-58.4399,-34.5786],[-58.4439,-34.5754],[-58.4407,-34.5721],[-58.449,-34.5679],[-58.4426,-34.5636],[-58.4411,-34.5622],[-58.4384,-34.5625],[-58.4414,-34.5588],[-58.4401,-34.5571],[-58.4341,-34.554],[-58.4316,-34.5514],[-58.4294,-34.551],[-58.4247,-34.5522],[-58.4244,-34.5489],[-58.4305,-34.5476],[-58.4321,-34.544],[-58.4349,-34.5424],[-58.4366,-34.5402],[-58.4409,-34.54],[-58.4415,-34.5377],[-58.4463,-34.5357],[-58.4519,-34.5389],[-58.4542,-34.539],[-58.4549,-34.5374],[-58.4527,-34.5355],[-58.4502,-34.5354],[-58.4513,-34.5319],[-58.4542,-34.5352],[-58.4556,-34.5333],[-58.4535,-34.5319],[-58.4533,-34.5303],[-58.4553,-34.5277],[-58.459,-34.527],[-58.4635,-34.5334],[-58.4759,-34.5387],[-58.4682,-34.549],[-58.4744,-34.5524],[-58.4665,-34.5622],[-58.4733,-34.5667],[-58.468,-34.5729]]]},"properties":{"id":509,"departamento":"COMUNA 13","cabecera":"","provincia":"CIUDAD AUTONOMA DE BUENOS AIRES"}},
{"type":"Feature","geometry":{"type":"Polygon","coordinates":[[[-58.3921,-34.5722],[-58.3976,-34.5661],[-58.3971,-34.5652],[-58.4006,-34.5634],[-58.4025,-34.5637],[-58.4104,-34.5578],[-58.4138,-34.5556],[-58.4247,-34.5522],[-58.4294,-34.551],[-58.4316,-34.5514],[-58.4341,-34.554],[-58.4401,-34.5571],[-58.4414,-34.5588],[-58.4384,-34.5625],[-58.4411,-34.5622],[-58.4426,-34.5636],[-58.449,-34.5679],[-58.4407,-34.5721],[-58.4439,-34.5754],[-58.4399,-34.5786],[-58.4444,-34.5832],[-58.4448,-34.5845],[-58.4302,-34.5942],[-58.4233,-34.5978],[-58.416,-34.5979],[-58.4144,-34.5941],[-58.41,-34.5891],[-58.4061,-34.5835],[-58.4019,-34.5834],[-58.4005,-34.5845],[-58.3965,-34.5785],[-58.4016,-34.5753],[-58.4026,-34.5742],[-58.3993,-34.5699],[-58.3952,-34.5722],[-58.3921,-34.5722]]]},"properties":{"id":510,"departamento":"COMUNA 14","cabecera":"","provincia":"CIUDAD AUTONOMA DE BUENOS AIRES"}},
{"type":"Feature","geometry":{"type":"Polygon","coordinates":[[[-58.4333,-34.6027],[-58.4291,-34.599],[-58.4268,-34.598],[-58.4233,-34.5978],[-58.4302,-34.5942],[-58.4448,-34.5845],[-58.4444,-34.5832],[-58.451,-34.5805],[-58.4577,-34.5785],[-58.4602,-34.5783],[-58.4632,-34.5751],[-58.4673,-34.5725],[-58.468,-34.5729],[-58.4888,-34.5848],[-58.5034,-34.594],[-58.4971,-34.5968],[-58.4834,-34.5978],[-58.4788,-34.5997],[-58.474,-34.6053],[-58.4689,-34.6019],[-58.4584,-34.6045],[-58.4462,-34.6076],[-58.4392,-34.6056],[-58.4333,-34.6027]]]},"properties":{"id":511,"departamento":"COMUNA 15","cabecera":"","provincia":"CIUDAD AUTONOMA DE BUENOS AIRES"}}
]}