{"type":"FeatureCollection", "features": [
{"type":"Feature","geometry":{"type":"Polygon","coordinates":[[[-65.7913,-28.5563],[-65.8082,-28.5498],[-65.8159,-28.5448],[-65.8171,-28.5372],[-65.897,-28.4809],[-65.9008,-28.4787],[-65.8997,-28.4682],[-65.9048,-28.4637],[-65.9055,-28.4566],[-65.91,-28.4541],[-65.9182,-28.4365],[-65.9354,-28.4382],[-65.9388,-28.4321],[-65.9405,-28.4225],[-65.9478,-28.4119],[-65.9467,-28.3916],[-65.9489,-28.3829],[-65.949,-28.3616],[-65.9522,-28.3569],[-65.9488,-28.3524],[-65.9512,-28.3356],[-65.9585,-28.3366],[-65.9643,-28.341],[-65.9842,-28.3496],[-66.0099,-28.3463],[-66.0157,-28.3482],[-66.0426,-28.3515],[-66.0527,-28.3617],[-66.0573,-28.3629],[-66.0578,-28.3698],[-66.0515,-28.3806],[-66.0578,-28.3912],[-66.0579,-28.3979],[-66.0478,-28.4133],[-66.0471,-28.4239],[-66.0419,-28.4378],[-66.0478,-28.4482],[-66.0534,-28.453],[-66.0665,-28.4557],[-66.0835,-28.4517],[-66.0852,-28.4603],[-66.0815,-28.4637],[-66.0832,-28.47],[-66.0803,-28.4779],[-66.0835,-28.4822],[-66.0936,-28.4847],[-66.1052,-28.4951],[-66.1122,-28.496],[-66.1128,-28.4966],[-66.1265,-28.4959],[-66.1346,-28.5055],[-66.1351,-28.5245],[-66.1458,-28.5373],[-66.149,-28.5461],[-66.1561,-28.5498],[-66.1626,-28.5494],[-66.1704,-28.5554],[-66.1765,-28.5556],[-66.1837,-28.564],[-66.1779,-28.5796],[-66.1855,-28.5848],[-66.1987,-28.6196],[-66.2103,-28.6305],[-66.218,-28.629],[-66.2203,-28.6236],[-66.2336,-28.6219],[-66.2383,-28.6306],[-66.2502,-28.6351],[-66.2569,-28.6283],[-66.2642,-28.629],[-66.2709,-28.6468],[-66.274,-28.6658],[-66.2816,-28.6742],[-66.2873,-28.6742],[-66.2972,-28.6792],[-66.3012,-28.6931],[-66.3007,-28.7042],[-66.304,-28.7121],[-66.3029,-28.724],[-66.3095,-28.7248],[-66.3098,-28.7331],[-66.3193,-28.7305],[-66.3235,-28.7323],[-66.3209,-28.7494],[-66.3222,-28.7565],[-66.3269,-28.7612],[-66.3281,-28.7832],[-66.3333,-28.7897],[-66.3375,-28.801],[-66.3663,-28.7955],[-66.3767,-28.8087],[-66.3847,-28.8132],[-66.387,-28.823],[-66.3959,-28.825],[-66.4099,-28.8142],[-66.4114,-28.8209],[-66.4055,-28.8225],[-66.4001,-28.8394],[-66.4043,-28.8498],[-66.4031,-28.857],[-66.3963,-28.866],[-66.3916,-28.868],[-66.368,-28.8664],[-66.3598,-28.8696],[-66.3282,-28.876],[-66.312,-28.8867],[-66.2891,-28.8879],[-66.282,-28.8903],[-66.0995,-28.9441],[-66.0104,-29.0221],[-66.0025,-29.0296],[-65.9478,-29.0774],[-65.926,-29.0822],[-65.8147,-29.1809],[-65.8144,-29.2698],[-65.7482,-29.2697],[-65.7173,-29.3286],[-65.7195,-29.41],[-65.6223,-29.6425],[-65.5898,-29.7204],[-65.581,-29.7104],[-65.582,-29.7023],[-65.5412,-29.6377],[-65.5352,-29.6354],[-65.5201,-29.6055],[-65.5318,-29.5983],[-65.5286,-29.5886],[-65.5301,-29.5812],[-65.5422,-29.5711],[-65.5406,-29.5632],[-65.5459,-29.5587],[-65.5482,-29.5475],[-65.5522,-29.543],[-65.5567,-29.5219],[-65.5606,-29.5181],[-65.5607,-29.4955],[-65.5571,-29.4911],[-65.5623,-29.4757],[-65.5517,-29.461],[-65.5483,-29.4456],[-65.5522,-29.4423],[-65.5488,-29.4295],[-65.5502,-29.4191],[-65.5471,-29.4129],[-65.5525,-29.3984],[-65.5581,-29.3907],[-65.5623,-29.3732],[-65.5625,-29.3626],[-65.5683,-29.349],[-65.5752,-29.346],[-65.5785,-29.3351],[-65.584,-29.3237],[-65.5896,-29.3224],[-65.5896,-29.3137],[-65.5938,-29.3031],[-65.5999,-29.3003],[-65.6034,-29.2934],[-65.5955,-29.2761],[-65.6009,-29.2732],[-65.6072,-29.2634],[-65.6064,-29.2422],[-65.61,-29.2303],[-65.6087,-29.2192],[-65.6125,-29.2116],[-65.606,-29.206],[-65.607,-29.2003],[-65.5998,-29.1831],[-65.6041,-29.1768],[-65.6006,-29.1723],[-65.6031,-29.1673],[-65.5997,-29.1592],[-65.602,-29.1528],[-65.598,-29.1442],[-65.5972,-29.1307],[-65.5931,-29.1259],[-65.5967,-29.1195],[-65.5972,-29.1055],[-65.5877,-29.099],[-65.6078,-29.0685],[-65.6049,-29.0642],[-65.6081,-29.0584],[-65.6101,-29.0423],[-65.6064,-29.0355],[-65.6052,-29.0231],[-65.6142,-28.9998],[-65.6239,-28.9878],[-65.6378,-28.9397],[-65.6498,-28.9306],[-65.6514,-28.9204],[-65.6458,-28.917],[-65.6467,-28.9081],[-65.6434,-28.9028],[-65.6445,-28.8953],[-65.6558,-28.8791],[-65.668,-28.8569],[-65.672,-28.8446],[-65.6726,-28.8365],[-65.681,-28.8305],[-65.6854,-28.8251],[-65.6893,-28.8037],[-65.6887,-28.7876],[-65.6926,-28.7829],[-65.7034,-28.7829],[-65.7097,-28.7771],[-65.7139,-28.7655],[-65.719,-28.7614],[-65.7347,-28.7567],[-65.8095,-28.7561],[-65.845,-28.7488],[-65.8518,-28.745],[-65.8469,-28.736],[-65.8359,-28.7254],[-65.8347,-28.7169],[-65.8281,-28.7029],[-65.8137,-28.6989],[-65.8095,-28.6946],[-65.8101,-28.6889],[-65.8052,-28.6861],[-65.7943,-28.6691],[-65.7983,-28.6618],[-65.7973,-28.6565],[-65.8055,-28.647],[-65.8092,-28.6345],[-65.807,-28.6217],[-65.8001,-28.6128],[-65.7991,-28.6042],[-65.8013,-28.5926],[-65.7905,-28.5864],[-65.7893,-28.5669],[-65.7853,-28.5615],[-65.7913,-28.5563]]]},"properties":{"id":394,"departamento":"CAPAYAN","cabecera":"HUILLAPIMA","provincia":"CATAMARCA"}},
{"type":"Feature","geometry":{"type":"Polygon","coordinates":[[[-65.7913,-28.5563],[-65.7834,-28.5505],[-65.7836,-28.5439],[-65.7775,-28.5401],[-65.7813,-28.5302],[-65.7764,-28.5178],[-65.7747,-28.501],[-65.7695,-28.4858],[-65.7603,-28.4747],[-65.7433,-28.4618],[-65.7302,-28.4538],[-65.7298,-28.4399],[-65.7258,-28.4385],[-65.7272,-28.4281],[-65.7297,-28.4237],[-65.7281,-28.4077],[-65.7303,-28.4005],[-65.7282,-28.386],[-65.7389,-28.3831],[-65.7402,-28.3791],[-65.758,-28.3845],[-65.7624,-28.3755],[-65.7598,-28.3695],[-65.7689,-28.3603],[-65.7756,-28.3444],[-65.7757,-28.3335],[-65.782,-28.3322],[-65.7882,-28.3166],[-65.8031,-28.2963],[-65.8077,-28.282],[-65.8092,-28.2685],[-65.8143,-28.2623],[-65.827,-28.2695],[-65.8316,-28.282],[-65.8357,-28.2848],[-65.8371,-28.296],[-65.8501,-28.3031],[-65.8495,-28.3068],[-65.8645,-28.3164],[-65.8693,-28.3235],[-65.8751,-28.3232],[-65.8782,-28.331],[-65.8878,-28.3186],[-65.8955,-28.3286],[-65.9052,-28.3275],[-65.9342,-28.3329],[-65.9372,-28.3357],[-65.9512,-28.3356],[-65.9488,-28.3524],[-65.9522,-28.3569],[-65.949,-28.3616],[-65.9489,-28.3829],[-65.9467,-28.3916],[-65.9478,-28.4119],[-65.9405,-28.4225],[-65.9388,-28.4321],[-65.9354,-28.4382],[-65.9182,-28.4365],[-65.91,-28.4541],[-65.9055,-28.4566],[-65.9048,-28.4637],[-65.8997,-28.4682],[-65.9008,-28.4787],[-65.897,-28.4809],[-65.8171,-28.5372],[-65.8159,-28.5448],[-65.8082,-28.5498],[-65.7913,-28.5563]]]},"properties":{"id":276,"departamento":"CAPITAL","cabecera":"SAN FERNANDO DEL VALLE DE CATAMARCA","provincia":"CATAMARCA"}},
{"type":"Feature","geometry":{"type":"Polygon","coordinates":[[[-65.5201,-29.6055],[-65.5208,-29.6001],[-65.5175,-29.5897],[-65.5231,-29.5649],[-65.527,-29.559],[-65.5354,-29.5157],[-65.5213,-29.4852],[-65.5314,-29.4717],[-65.5266,-29.4556],[-65.516,-29.4302],[-65.5201,-29.4204],[-65.5194,-29.4106],[-65.5148,-29.4019],[-65.5057,-29.3963],[-65.5086,-29.3757],[-65.512,-29.3706],[-65.5124,-29.3584],[-65.5166,-29.3428],[-65.5167,-29.3357],[-65.5106,-29.3226],[-65.5133,-29.3169],[-65.5068,-29.302],[-65.5045,-29.3013],[-65.5102,-29.2851],[-65.5023,-29.2773],[-65.4938,-29.2639],[-65.5001,-29.2571],[-65.5057,-29.2465],[-65.5001,-29.2279],[-65.4924,-29.2206],[-65.4844,-29.2184],[-65.4775,-29.2128],[-65.4736,-29.1988],[-65.4668,-29.1859],[-65.4619,-29.1729],[-65.461,-29.1642],[-65.4488,-29.1487],[-65.4234,-29.1469],[-65.4172,-29.1446],[-65.412,-29.1313],[-65.398,-29.1182],[-65.3949,-29.109],[-65.3838,-29.1024],[-65.3798,-29.0872],[-65.3769,-29.0683],[-65.3705,-29.0154],[-65.3731,-29.0075],[-65.3685,-28.966],[-65.3662,-28.964],[-65.3674,-28.9491],[-65.3668,-28.9337],[-65.3638,-28.9314],[-65.3628,-28.9218],[-65.3557,-28.9133],[-65.3577,-28.9088],[-65.3451,-28.8954],[-65.3413,-28.8943],[-65.3326,-28.8813],[-65.3143,-28.8567],[-65.3102,-28.8343],[-65.3055,-28.8259],[-65.3104,-28.8147],[-65.3802,-28.7969],[-65.3399,-28.6953],[-65.3108,-28.7025],[-65.3095,-28.6869],[-65.313,-28.6744],[-65.3112,-28.6688],[-65.315,-28.6436],[-65.3146,-28.6307],[-65.281,-28.639],[-65.2715,-28.601],[-65.285,-28.6026],[-65.2898,-28.5971],[-65.2882,-28.5893],[-65.297,-28.5919],[-65.3092,-28.5918],[-65.3177,-28.5872],[-65.332,-28.5915],[-65.3443,-28.5935],[-65.3424,-28.5971],[-65.3594,-28.6122],[-65.3605,-28.6209],[-65.3689,-28.6267],[-65.39,-28.6308],[-65.3877,-28.639],[-65.4035,-28.6463],[-65.4156,-28.6609],[-65.4288,-28.6641],[-65.4549,-28.6583],[-65.4551,-28.6352],[-65.4644,-28.6386],[-65.4768,-28.6313],[-65.4888,-28.63],[-65.5024,-28.6174],[-65.5081,-28.6187],[-65.5203,-28.6169],[-65.5336,-28.6175],[-65.5448,-28.6142],[-65.5543,-28.6169],[-65.5565,-28.6128],[-65.5517,-28.6048],[-65.5619,-28.6053],[-65.5828,-28.6039],[-65.5854,-28.5977],[-65.5907,-28.5946],[-65.5995,-28.5971],[-65.6095,-28.5962],[-65.6129,-28.5836],[-65.6116,-28.5784],[-65.62,-28.5696],[-65.6224,-28.5761],[-65.6295,-28.5799],[-65.6292,-28.5901],[-65.6228,-28.5935],[-65.6236,-28.6026],[-65.6294,-28.6096],[-65.6296,-28.6144],[-65.6362,-28.6228],[-65.6433,-28.6274],[-65.647,-28.6366],[-65.6625,-28.6642],[-65.6648,-28.6771],[-65.6616,-28.6849],[-65.6739,-28.6882],[-65.6734,-28.6974],[-65.6675,-28.7163],[-65.6688,-28.7231],[-65.6652,-28.7382],[-65.6567,-28.7494],[-65.657,-28.7587],[-65.6505,-28.7697],[-65.6513,-28.7879],[-65.6633,-28.801],[-65.6712,-28.8018],[-65.6771,-28.8113],[-65.6825,-28.8158],[-65.6837,-28.823],[-65.681,-28.8305],[-65.6726,-28.8365],[-65.672,-28.8446],[-65.668,-28.8569],[-65.6558,-28.8791],[-65.6445,-28.8953],[-65.6434,-28.9028],[-65.6467,-28.9081],[-65.6458,-28.917],[-65.6514,-28.9204],[-65.6498,-28.9306],[-65.6378,-28.9397],[-65.6239,-28.9878],[-65.6142,-28.9998],[-65.6052,-29.0231],[-65.6064,-29.0355],[-65.6101,-29.0423],[-65.6081,-29.0584],[-65.6049,-29.0642],[-65.6078,-29.0685],[-65.5877,-29.099],[-65.5972,-29.1055],[-65.5967,-29.1195],[-65.5931,-29.1259],[-65.5972,-29.1307],[-65.598,-29.1442],[-65.602,-29.1528],[-65.5997,-29.1592],[-65.6031,-29.1673],[-65.6006,-29.1723],[-65.6041,-29.1768],[-65.5998,-29.1831],[-65.607,-29.2003],[-65.606,-29.206],[-65.6125,-29.2116],[-65.6087,-29.2192],[-65.61,-29.2303],[-65.6064,-29.2422],[-65.6072,-29.2634],[-65.6009,-29.2732],[-65.5955,-29.2761],[-65.6034,-29.2934],[-65.5999,-29.3003],[-65.5938,-29.3031],[-65.5896,-29.3137],[-65.5896,-29.3224],[-65.584,-29.3237],[-65.5785,-29.3351],[-65.5752,-29.346],[-65.5683,-29.349],[-65.5625,-29.3626],[-65.5623,-29.3732],[-65.5581,-29.3907],[-65.5525,-29.3984],[-65.5471,-29.4129],[-65.5502,-29.4191],[-65.5488,-29.4295],[-65.5522,-29.4423],[-65.5483,-29.4456],[-65.5517,-29.461],[-65.5623,-29.4757],[-65.5571,-29.4911],[-65.5607,-29.4955],[-65.5606,-29.5181],[-65.5567,-29.5219],[-65.5522,-29.543],[-65.5482,-29.5475],[-65.5459,-29.5587],[-65.5406,-29.5632],[-65.5422,-29.5711],[-65.5301,-29.5812],[-65.5286,-29.5886],[-65.5318,-29.5983],[-65.5201,-29.6055]]]},"properties":{"id":277,"departamento":"ANCASTI","cabecera":"ANCASTI","provincia":"CATAMARCA"}},
{"type":"Feature","geometry":{"type":"Polygon","coordinates":[[[-66.74,-27.866],[-66.7395,-27.7878],[-66.7709,-27.7671],[-66.7713,-27.7587],[-66.7613,-27.7456],[-66.749,-27.7434],[-66.743,-27.7204],[-66.7361,-27.7198],[-66.7346,-27.7106],[-66.7243,-27.7125],[-66.7235,-27.7066],[-66.7173,-27.7067],[-66.7154,-27.7015],[-66.7239,-27.6837],[-66.7172,-27.6724],[-66.7225,-27.6621],[-66.7341,-27.6559],[-66.7435,-27.6425],[-66.7418,-27.6294],[-66.7383,-27.6215],[-66.7327,-27.6199],[-66.7285,-27.6085],[-66.7113,-27.595],[-66.7121,-27.5854],[-66.7053,-27.5713],[-66.7095,-27.5665],[-66.7322,-27.5605],[-66.7361,-27.549],[-66.7261,-27.5429],[-66.7151,-27.5321],[-66.7128,-27.527],[-66.7044,-27.5262],[-66.6953,-27.522],[-66.6845,-27.5144],[-66.684,-27.5046],[-66.6786,-27.5022],[-66.6727,-27.5047],[-66.6642,-27.5018],[-66.6594,-27.4928],[-66.6518,-27.4934],[-66.6472,-27.4883],[-66.6428,-27.4655],[-66.6361,-27.4631],[-66.639,-27.4481],[-66.6276,-27.4299],[-66.6159,-27.4208],[-66.6117,-27.4219],[-66.6064,-27.403],[-66.6218,-27.3996],[-66.6243,-27.389],[-66.6304,-27.3845],[-66.6284,-27.3761],[-66.6316,-27.3675],[-66.6204,-27.3661],[-66.6218,-27.3608],[-66.6151,-27.3544],[-66.6171,-27.3463],[-66.6289,-27.335],[-66.6278,-27.324],[-66.6174,-27.3166],[-66.6145,-27.3123],[-66.6273,-27.3023],[-66.6297,-27.2933],[-66.6208,-27.2889],[-66.6241,-27.279],[-66.6003,-27.269],[-66.5928,-27.2646],[-66.5897,-27.2584],[-66.5797,-27.2599],[-66.573,-27.2556],[-66.5632,-27.2531],[-66.5559,-27.246],[-66.5485,-27.2454],[-66.5374,-27.2517],[-66.5501,-27.2211],[-66.5588,-27.1831],[-66.5755,-27.1566],[-66.5876,-27.0948],[-66.5919,-27.0962],[-66.5985,-27.0872],[-66.6,-27.0735],[-66.5978,-27.06],[-66.6003,-27.0532],[-66.611,-27.0455],[-66.6145,-27.0374],[-66.6127,-27.0339],[-66.6195,-27.0287],[-66.6131,-27.0202],[-66.6015,-27.0156],[-66.5987,-27.006],[-66.5915,-27.0031],[-66.5903,-26.9903],[-66.5792,-26.9776],[-66.5778,-26.9558],[-66.5825,-26.9403],[-66.5893,-26.9276],[-66.5797,-26.9077],[-66.5812,-26.9029],[-66.5766,-26.8961],[-66.5954,-26.8847],[-66.6019,-26.8743],[-66.608,-26.873],[-66.6116,-26.8682],[-66.613,-26.8555],[-66.6173,-26.8438],[-66.602,-26.8312],[-66.6136,-26.8266],[-66.6172,-26.8187],[-66.625,-26.8168],[-66.6372,-26.7981],[-66.6443,-26.7934],[-66.6496,-26.7805],[-66.6489,-26.7719],[-66.6606,-26.7712],[-66.6615,-26.7651],[-66.668,-26.759],[-66.6661,-26.7529],[-66.6702,-26.7445],[-66.6532,-26.737],[-66.66,-26.7308],[-66.6574,-26.7236],[-66.6485,-26.7163],[-66.6382,-26.7163],[-66.6238,-26.72],[-66.6167,-26.7257],[-66.6117,-26.7171],[-66.6048,-26.7094],[-66.6111,-26.6992],[-66.6171,-26.6948],[-66.6104,-26.6791],[-66.6015,-26.6786],[-66.5989,-26.6817],[-66.5891,-26.6819],[-66.5868,-26.679],[-66.5948,-26.6693],[-66.5887,-26.6544],[-66.5822,-26.63],[-66.5872,-26.6265],[-66.5833,-26.6206],[-66.582,-26.6109],[-66.5772,-26.6064],[-66.5746,-26.5964],[-66.5794,-26.5804],[-66.5757,-26.5772],[-66.5769,-26.5689],[-66.5727,-26.5593],[-66.5604,-26.5553],[-66.5536,-26.5549],[-66.5523,-26.5471],[-66.554,-26.5375],[-66.5482,-26.5314],[-66.5411,-26.5281],[-66.511,-26.53],[-66.5003,-26.5392],[-66.4855,-26.5365],[-66.4776,-26.5484],[-66.4726,-26.5413],[-66.4626,-26.5327],[-66.4593,-26.5168],[-66.4678,-26.5144],[-66.4706,-26.508],[-66.4781,-26.5028],[-66.483,-26.4949],[-66.4789,-26.4858],[-66.4723,-26.4833],[-66.464,-26.4645],[-66.4634,-26.4572],[-66.4581,-26.4483],[-66.4559,-26.4401],[-66.4617,-26.4312],[-66.4611,-26.419],[-66.4528,-26.4139],[-66.4527,-26.397],[-66.4502,-26.3873],[-66.4494,-26.373],[-66.461,-26.3641],[-66.4775,-26.3593],[-66.4892,-26.3663],[-66.5082,-26.3648],[-66.5125,-26.3615],[-66.5252,-26.3588],[-66.54,-26.3522],[-66.5407,-26.344],[-66.5483,-26.3329],[-66.5504,-26.32],[-66.5577,-26.3086],[-66.5605,-26.2964],[-66.558,-26.2867],[-66.5504,-26.2805],[-66.5272,-26.2822],[-66.5212,-26.276],[-66.5312,-26.2726],[-66.5384,-26.2664],[-66.5417,-26.2595],[-66.5626,-26.2536],[-66.5674,-26.2487],[-66.5668,-26.2397],[-66.5687,-26.2252],[-66.5754,-26.2128],[-66.5774,-26.1968],[-66.5734,-26.1846],[-66.5789,-26.1703],[-66.5843,-26.161],[-66.5999,-26.1468],[-66.6113,-26.148],[-66.6205,-26.1439],[-66.6209,-26.1346],[-66.6259,-26.1271],[-66.6413,-26.1133],[-66.6477,-26.1098],[-66.6605,-26.1071],[-66.6548,-26.0968],[-66.6609,-26.0767],[-66.668,-26.0754],[-66.6792,-26.0798],[-66.6885,-26.0773],[-66.6934,-26.0812],[-66.7044,-26.081],[-66.7162,-26.0763],[-66.7246,-26.0755],[-66.7292,-26.0719],[-66.7307,-26.0649],[-66.7455,-26.0633],[-66.7546,-26.0585],[-66.7597,-26.0491],[-66.7772,-26.0488],[-66.7816,-26.0418],[-66.7799,-26.0353],[-66.7884,-26.0265],[-66.8069,-26.0168],[-66.8187,-26.0003],[-66.8288,-25.993],[-66.8367,-25.9845],[-66.8438,-25.9719],[-66.8436,-25.96],[-66.8476,-25.9443],[-66.8469,-25.9326],[-66.8493,-25.9305],[-66.8527,-25.917],[-66.8666,-25.9243],[-66.8818,-25.9289],[-66.8929,-25.9296],[-66.9137,-25.9377],[-66.921,-25.943],[-66.9189,-25.9519],[-66.9152,-25.9569],[-66.9152,-25.9651],[-66.9106,-25.9848],[-66.9001,-25.9966],[-66.8925,-25.9974],[-66.8815,-25.9955],[-66.8729,-26.0012],[-66.8677,-26.0122],[-66.856,-26.0231],[-66.8551,-26.031],[-66.8463,-26.0412],[-66.8464,-26.049],[-66.834,-26.0549],[-66.8291,-26.0602],[-66.8215,-26.0748],[-66.8267,-26.0837],[-66.8384,-26.0893],[-66.8429,-26.1009],[-66.8478,-26.1068],[-66.8726,-26.1079],[-66.8791,-26.1061],[-66.9068,-26.1154],[-66.9168,-26.1083],[-66.922,-26.0981],[-66.934,-26.1127],[-66.9475,-26.1214],[-66.9556,-26.1241],[-66.9587,-26.1311],[-66.9643,-26.1342],[-66.9675,-26.152],[-66.9661,-26.1632],[-66.9717,-26.1721],[-66.9825,-26.1821],[-66.9894,-26.1921],[-66.9873,-26.2053],[-66.9916,-26.2184],[-67.0012,-26.2285],[-66.9949,-26.2493],[-67.0025,-26.2644],[-67.0076,-26.2828],[-67.0057,-26.2884],[-67.0103,-26.2944],[-67.0098,-26.3057],[-67.0151,-26.3123],[-67.0174,-26.3224],[-67.0333,-26.3247],[-67.0334,-26.3487],[-67.0302,-26.354],[-67.03,-26.3784],[-67.0316,-26.3912],[-67.0387,-26.3926],[-67.0464,-26.3889],[-67.0556,-26.3887],[-67.0579,-26.405],[-67.048,-26.4104],[-67.0435,-26.4158],[-67.0479,-26.4312],[-67.0481,-26.442],[-67.0434,-26.4577],[-67.05,-26.4703],[-67.0488,-26.4839],[-67.0455,-26.4969],[-67.0495,-26.5158],[-67.0572,-26.5297],[-67.0599,-26.5472],[-67.0663,-26.5578],[-67.0643,-26.5646],[-67.0681,-26.5756],[-67.0782,-26.5774],[-67.0789,-26.5907],[-67.0841,-26.594],[-67.0877,-26.6096],[-67.1087,-26.6031],[-67.1158,-26.6044],[-67.1204,-26.6102],[-67.1219,-26.6179],[-67.1373,-26.6254],[-67.1422,-26.6176],[-67.1515,-26.6166],[-67.1587,-26.6216],[-67.1587,-26.6358],[-67.1653,-26.639],[-67.1659,-26.6445],[-67.1728,-26.6514],[-67.1809,-26.665],[-67.1919,-26.6652],[-67.2007,-26.6631],[-67.2065,-26.6657],[-67.2191,-26.6767],[-67.224,-26.6851],[-67.2443,-26.6891],[-67.2571,-26.6882],[-67.2803,-26.6921],[-67.2838,-26.7021],[-67.281,-26.7001],[-67.2615,-26.7146],[-67.2251,-26.7372],[-67.2113,-26.7538],[-67.2011,-26.7683],[-67.175,-26.7937],[-67.1611,-26.8125],[-67.1508,-26.8219],[-67.1488,-26.8317],[-67.1503,-26.8411],[-67.165,-26.851],[-67.1633,-26.8623],[-67.1671,-26.8689],[-67.1745,-26.8734],[-67.1849,-26.8838],[-67.2009,-26.8842],[-67.2034,-26.8927],[-67.2029,-26.9026],[-67.1989,-26.9115],[-67.2038,-26.9194],[-67.2133,-26.9265],[-67.2205,-26.9247],[-67.2289,-26.9192],[-67.2342,-26.9324],[-67.2403,-26.94],[-67.2491,-26.9428],[-67.2474,-26.9537],[-67.2498,-26.967],[-67.2489,-26.9742],[-67.2549,-26.978],[-67.2566,-26.9851],[-67.2633,-26.9874],[-67.2648,-26.9951],[-67.2732,-26.9966],[-67.2768,-27.0085],[-67.2711,-27.0168],[-67.2739,-27.0214],[-67.2759,-27.0444],[-67.2854,-27.057],[-67.2843,-27.0608],[-67.2877,-27.0732],[-67.2933,-27.0812],[-67.2938,-27.0879],[-67.2894,-27.0967],[-67.2808,-27.1012],[-67.2813,-27.1116],[-67.2784,-27.1136],[-67.2782,-27.1274],[-67.2809,-27.1388],[-67.2759,-27.1493],[-67.2637,-27.1619],[-67.2631,-27.1679],[-67.2722,-27.1667],[-67.2724,-27.1759],[-67.2677,-27.1784],[-67.2706,-27.1927],[-67.2699,-27.2014],[-67.2735,-27.2049],[-67.2659,-27.2149],[-67.2647,-27.2251],[-67.2687,-27.2307],[-67.2773,-27.2286],[-67.2798,-27.2321],[-67.2774,-27.2487],[-67.2718,-27.2571],[-67.2791,-27.2597],[-67.285,-27.2654],[-67.2876,-27.273],[-67.2876,-27.2819],[-67.2927,-27.2887],[-67.29,-27.2945],[-67.2922,-27.3031],[-67.2836,-27.3251],[-67.2758,-27.3296],[-67.2674,-27.3391],[-67.2582,-27.3423],[-67.2587,-27.351],[-67.2737,-27.3525],[-67.2783,-27.3583],[-67.2907,-27.3588],[-67.3031,-27.3676],[-67.3071,-27.374],[-67.3003,-27.3852],[-67.2912,-27.3964],[-67.2976,-27.4031],[-67.3008,-27.4121],[-67.2983,-27.4182],[-67.2996,-27.4257],[-67.2973,-27.4387],[-67.2857,-27.4392],[-67.2826,-27.4427],[-67.2669,-27.4471],[-67.266,-27.4511],[-67.2496,-27.4547],[-67.2448,-27.4629],[-67.2375,-27.4655],[-67.2398,-27.4724],[-67.2549,-27.4847],[-67.2739,-27.5091],[-67.2789,-27.5199],[-67.2868,-27.5252],[-67.288,-27.5303],[-67.2958,-27.5404],[-67.2991,-27.5542],[-67.3056,-27.5578],[-67.3092,-27.5694],[-67.3159,-27.5753],[-67.3135,-27.5904],[-67.3215,-27.5974],[-67.3233,-27.6101],[-67.3322,-27.6241],[-67.3273,-27.6312],[-67.3327,-27.634],[-67.3349,-27.6451],[-67.3403,-27.6567],[-67.3558,-27.6743],[-67.357,-27.6822],[-67.3372,-27.6846],[-67.3356,-27.6901],[-67.3278,-27.6991],[-67.3171,-27.7043],[-67.3168,-27.7091],[-67.3111,-27.7196],[-67.305,-27.7252],[-67.3039,-27.73],[-67.292,-27.7325],[-67.2939,-27.7405],[-67.3024,-27.7444],[-67.3085,-27.7659],[-67.3152,-27.778],[-67.3233,-27.777],[-67.3299,-27.783],[-67.334,-27.7908],[-67.3458,-27.7913],[-67.3513,-27.8032],[-67.3513,-27.8117],[-67.3603,-27.8247],[-67.3617,-27.83],[-67.356,-27.8398],[-67.3594,-27.8496],[-67.3569,-27.8575],[-67.3582,-27.8661],[-67.3559,-27.8837],[-67.3494,-27.8889],[-67.3529,-27.9029],[-67.3489,-27.9201],[-67.3362,-27.9133],[-67.3261,-27.9147],[-67.3307,-27.9262],[-67.3332,-27.9375],[-67.341,-27.9399],[-67.3402,-27.9557],[-67.3378,-27.9639],[-67.3435,-27.9718],[-67.3452,-27.9857],[-67.3418,-27.9891],[-67.3423,-28.0073],[-67.3505,-28.0153],[-67.3488,-28.0314],[-67.3401,-28.0364],[-67.3333,-28.0483],[-67.3249,-28.054],[-67.3137,-28.0483],[-67.3033,-28.0409],[-67.2953,-28.0461],[-67.2867,-28.045],[-67.2629,-28.0522],[-67.2574,-28.0448],[-67.2333,-28.0317],[-67.2295,-28.0285],[-67.0007,-28.0322],[-66.8453,-28.033],[-66.7412,-28.0334],[-66.74,-27.866]]]},"properties":{"id":278,"departamento":"BELEN","cabecera":"BELEN","provincia":"CATAMARCA"}},
{"type":"Feature","geometry":{"type":"Polygon","coordinates":[[[-66.5876,-27.0948],[-66.4515,-27.1307],[-66.3172,-27.2397],[-66.3119,-27.2395],[-66.2956,-27.2152],[-66.1944,-27.314],[-66.1874,-27.3108],[-66.185,-27.304],[-66.1749,-27.2978],[-66.1695,-27.2915],[-66.1594,-27.289],[-66.1589,-27.2803],[-66.1557,-27.2718],[-66.1394,-27.2619],[-66.1387,-27.2564],[-66.1328,-27.2529],[-66.1325,-27.2399],[-66.123,-27.2366],[-66.1218,-27.2274],[-66.1103,-27.2158],[-66.1036,-27.216],[-66.0779,-27.2092],[-66.0824,-27.1983],[-66.069,-27.187],[-66.0676,-27.1752],[-66.062,-27.1678],[-66.0637,-27.1623],[-66.0556,-27.1557],[-66.0547,-27.1441],[-66.0469,-27.1399],[-66.0389,-27.1323],[-66.036,-27.1251],[-66.0229,-27.1212],[-66.0181,-27.1126],[-66.0091,-27.111],[-65.9991,-27.1032],[-65.991,-27.1056],[-65.9777,-27.0878],[-65.9711,-27.0687],[-65.9741,-27.0651],[-65.9741,-27.0546],[-65.9651,-27.0485],[-65.9643,-27.0331],[-65.9562,-27.0325],[-65.9464,-27.0234],[-65.9315,-27.0172],[-65.9218,-27.0182],[-65.9171,-27.0149],[-65.9135,-27.0068],[-65.9161,-27.0037],[-65.9161,-26.9891],[-65.9119,-26.9809],[-65.8989,-26.9791],[-65.8912,-26.9751],[-65.8852,-26.9543],[-65.8749,-26.9329],[-65.862,-26.9324],[-65.8578,-26.9292],[-65.8566,-26.9155],[-65.8591,-26.913],[-65.8576,-26.9013],[-65.8747,-26.8915],[-65.8774,-26.8828],[-65.8882,-26.8807],[-65.8956,-26.8726],[-65.9005,-26.8638],[-65.8901,-26.8561],[-65.8944,-26.8496],[-65.894,-26.8419],[-65.8867,-26.83],[-65.8744,-26.8182],[-65.8815,-26.8062],[-65.8733,-26.8025],[-65.8659,-26.7955],[-65.8604,-26.783],[-65.8576,-26.7663],[-65.8539,-26.7597],[-65.8308,-26.748],[-65.8305,-26.7414],[-65.8343,-26.7366],[-66.0422,-26.6004],[-66.1533,-26.6254],[-66.1712,-26.6312],[-66.1718,-26.6243],[-66.1675,-26.6013],[-66.1761,-26.5778],[-66.1681,-26.5659],[-66.1667,-26.5564],[-66.1695,-26.5427],[-66.1651,-26.5342],[-66.1717,-26.5217],[-66.1725,-26.5106],[-66.1648,-26.5003],[-66.1739,-26.493],[-66.178,-26.4826],[-66.1765,-26.4694],[-66.1716,-26.4677],[-66.1627,-26.4589],[-66.1562,-26.448],[-66.1529,-26.4359],[-66.1567,-26.4237],[-66.1612,-26.4192],[-66.1583,-26.4014],[-66.1558,-26.3973],[-66.1372,-26.3912],[-66.1295,-26.3904],[-66.124,-26.3866],[-66.1191,-26.377],[-66.1196,-26.3729],[-66.1169,-26.3494],[-66.1143,-26.3436],[-66.1182,-26.32],[-66.1246,-26.3075],[-66.1213,-26.3041],[-66.1221,-26.286],[-66.119,-26.2669],[-66.1157,-26.2623],[-66.1029,-26.2599],[-66.0981,-26.2516],[-66.0969,-26.2437],[-66.1017,-26.2289],[-66.0992,-26.2166],[-66.1041,-26.2094],[-66.1116,-26.2046],[-66.1216,-26.1883],[-66.1331,-26.1814],[-66.1382,-26.1751],[-66.1423,-26.1593],[-66.156,-26.1446],[-66.1657,-26.1397],[-66.1708,-26.1338],[-66.1854,-26.1355],[-66.1963,-26.1309],[-66.2062,-26.1332],[-66.2162,-26.1395],[-66.219,-26.1465],[-66.2306,-26.1492],[-66.2402,-26.1631],[-66.2439,-26.1772],[-66.2541,-26.1897],[-66.2666,-26.1952],[-66.2723,-26.2097],[-66.2923,-26.2294],[-66.2977,-26.2463],[-66.306,-26.2623],[-66.302,-26.2707],[-66.31,-26.2825],[-66.3224,-26.29],[-66.3209,-26.295],[-66.329,-26.2988],[-66.3312,-26.3037],[-66.3303,-26.3148],[-66.3321,-26.3214],[-66.3379,-26.3294],[-66.34,-26.3393],[-66.3553,-26.3521],[-66.3624,-26.3627],[-66.3618,-26.3698],[-66.3702,-26.3898],[-66.3699,-26.3961],[-66.3748,-26.4126],[-66.382,-26.4168],[-66.4137,-26.3988],[-66.4241,-26.3872],[-66.4383,-26.3813],[-66.4494,-26.373],[-66.4502,-26.3873],[-66.4527,-26.397],[-66.4528,-26.4139],[-66.4611,-26.419],[-66.4617,-26.4312],[-66.4559,-26.4401],[-66.4581,-26.4483],[-66.4634,-26.4572],[-66.464,-26.4645],[-66.4723,-26.4833],[-66.4789,-26.4858],[-66.483,-26.4949],[-66.4781,-26.5028],[-66.4706,-26.508],[-66.4678,-26.5144],[-66.4593,-26.5168],[-66.4626,-26.5327],[-66.4726,-26.5413],[-66.4776,-26.5484],[-66.4855,-26.5365],[-66.5003,-26.5392],[-66.511,-26.53],[-66.5411,-26.5281],[-66.5482,-26.5314],[-66.554,-26.5375],[-66.5523,-26.5471],[-66.5536,-26.5549],[-66.5604,-26.5553],[-66.5727,-26.5593],[-66.5769,-26.5689],[-66.5757,-26.5772],[-66.5794,-26.5804],[-66.5746,-26.5964],[-66.5772,-26.6064],[-66.582,-26.6109],[-66.5833,-26.6206],[-66.5872,-26.6265],[-66.5822,-26.63],[-66.5887,-26.6544],[-66.5948,-26.6693],[-66.5868,-26.679],[-66.5891,-26.6819],[-66.5989,-26.6817],[-66.6015,-26.6786],[-66.6104,-26.6791],[-66.6171,-26.6948],[-66.6111,-26.6992],[-66.6048,-26.7094],[-66.6117,-26.7171],[-66.6167,-26.7257],[-66.6238,-26.72],[-66.6382,-26.7163],[-66.6485,-26.7163],[-66.6574,-26.7236],[-66.66,-26.7308],[-66.6532,-26.737],[-66.6702,-26.7445],[-66.6661,-26.7529],[-66.668,-26.759],[-66.6615,-26.7651],[-66.6606,-26.7712],[-66.6489,-26.7719],[-66.6496,-26.7805],[-66.6443,-26.7934],[-66.6372,-26.7981],[-66.625,-26.8168],[-66.6172,-26.8187],[-66.6136,-26.8266],[-66.602,-26.8312],[-66.6173,-26.8438],[-66.613,-26.8555],[-66.6116,-26.8682],[-66.608,-26.873],[-66.6019,-26.8743],[-66.5954,-26.8847],[-66.5766,-26.8961],[-66.5812,-26.9029],[-66.5797,-26.9077],[-66.5893,-26.9276],[-66.5825,-26.9403],[-66.5778,-26.9558],[-66.5792,-26.9776],[-66.5903,-26.9903],[-66.5915,-27.0031],[-66.5987,-27.006],[-66.6015,-27.0156],[-66.6131,-27.0202],[-66.6195,-27.0287],[-66.6127,-27.0339],[-66.6145,-27.0374],[-66.611,-27.0455],[-66.6003,-27.0532],[-66.5978,-27.06],[-66.6,-27.0735],[-66.5985,-27.0872],[-66.5919,-27.0962],[-66.5876,-27.0948]]]},"properties":{"id":279,"departamento":"SANTA MARIA","cabecera":"SANTA MARIA","provincia":"CATAMARCA"}},
{"type":"Feature","geometry":{"type":"Polygon","coordinates":[[[-66.74,-27.866],[-66.2654,-27.8673],[-66.262,-27.8399],[-66.2565,-27.8312],[-66.254,-27.8223],[-66.2299,-27.8204],[-66.2138,-27.8222],[-66.209,-27.8212],[-66.2014,-27.8281],[-66.1837,-27.8274],[-66.179,-27.8226],[-66.1519,-27.8082],[-66.1361,-27.8061],[-66.1141,-27.8047],[-66.1037,-27.8009],[-66.0967,-27.7943],[-66.089,-27.7819],[-66.0834,-27.7804],[-66.0836,-27.7768],[-66.0763,-27.768],[-66.0616,-27.7656],[-66.0435,-27.7553],[-66.0368,-27.7621],[-66.038,-27.7692],[-66.0327,-27.7768],[-66.0249,-27.7693],[-66.0166,-27.7692],[-66.0118,-27.7628],[-65.9965,-27.759],[-65.9922,-27.7596],[-65.9818,-27.7514],[-65.9807,-27.7444],[-65.9863,-27.741],[-65.9882,-27.7302],[-65.9873,-27.7225],[-65.978,-27.7223],[-65.9768,-27.715],[-65.9825,-27.7054],[-65.9806,-27.6948],[-65.9701,-27.6825],[-65.9709,-27.6584],[-65.9673,-27.6504],[-65.9736,-27.6374],[-65.9617,-27.63],[-65.9428,-27.6284],[-65.9398,-27.6167],[-65.94,-27.6093],[-65.944,-27.5951],[-65.9488,-27.5888],[-65.9559,-27.5708],[-65.9503,-27.5618],[-65.9659,-27.5436],[-65.9653,-27.5378],[-65.9707,-27.5253],[-65.9668,-27.5178],[-65.9738,-27.5025],[-65.9757,-27.4935],[-65.9738,-27.4897],[-65.9725,-27.4675],[-65.9744,-27.4627],[-65.9749,-27.4428],[-65.9735,-27.4366],[-65.968,-27.4294],[-65.9724,-27.4252],[-65.9744,-27.4149],[-65.9692,-27.4064],[-65.9648,-27.3845],[-65.9675,-27.3692],[-65.9653,-27.3586],[-65.9698,-27.3492],[-65.9717,-27.3338],[-65.9796,-27.3288],[-65.9956,-27.3141],[-66.0105,-27.3101],[-66.0153,-27.3054],[-66.0275,-27.2988],[-66.0388,-27.296],[-66.0513,-27.2955],[-66.0804,-27.2865],[-66.0927,-27.277],[-66.1106,-27.2726],[-66.1172,-27.2664],[-66.1327,-27.2658],[-66.1394,-27.2619],[-66.1557,-27.2718],[-66.1589,-27.2803],[-66.1594,-27.289],[-66.1695,-27.2915],[-66.1749,-27.2978],[-66.185,-27.304],[-66.1874,-27.3108],[-66.1944,-27.314],[-66.2956,-27.2152],[-66.3119,-27.2395],[-66.3172,-27.2397],[-66.4515,-27.1307],[-66.5876,-27.0948],[-66.5755,-27.1566],[-66.5588,-27.1831],[-66.5501,-27.2211],[-66.5374,-27.2517],[-66.5485,-27.2454],[-66.5559,-27.246],[-66.5632,-27.2531],[-66.573,-27.2556],[-66.5797,-27.2599],[-66.5897,-27.2584],[-66.5928,-27.2646],[-66.6003,-27.269],[-66.6241,-27.279],[-66.6208,-27.2889],[-66.6297,-27.2933],[-66.6273,-27.3023],[-66.6145,-27.3123],[-66.6174,-27.3166],[-66.6278,-27.324],[-66.6289,-27.335],[-66.6171,-27.3463],[-66.6151,-27.3544],[-66.6218,-27.3608],[-66.6204,-27.3661],[-66.6316,-27.3675],[-66.6284,-27.3761],[-66.6304,-27.3845],[-66.6243,-27.389],[-66.6218,-27.3996],[-66.6064,-27.403],[-66.6117,-27.4219],[-66.6159,-27.4208],[-66.6276,-27.4299],[-66.639,-27.4481],[-66.6361,-27.4631],[-66.6428,-27.4655],[-66.6472,-27.4883],[-66.6518,-27.4934],[-66.6594,-27.4928],[-66.6642,-27.5018],[-66.6727,-27.5047],[-66.6786,-27.5022],[-66.684,-27.5046],[-66.6845,-27.5144],[-66.6953,-27.522],[-66.7044,-27.5262],[-66.7128,-27.527],[-66.7151,-27.5321],[-66.7261,-27.5429],[-66.7361,-27.549],[-66.7322,-27.5605],[-66.7095,-27.5665],[-66.7053,-27.5713],[-66.7121,-27.5854],[-66.7113,-27.595],[-66.7285,-27.6085],[-66.7327,-27.6199],[-66.7383,-27.6215],[-66.7418,-27.6294],[-66.7435,-27.6425],[-66.7341,-27.6559],[-66.7225,-27.6621],[-66.7172,-27.6724],[-66.7239,-27.6837],[-66.7154,-27.7015],[-66.7173,-27.7067],[-66.7235,-27.7066],[-66.7243,-27.7125],[-66.7346,-27.7106],[-66.7361,-27.7198],[-66.743,-27.7204],[-66.749,-27.7434],[-66.7613,-27.7456],[-66.7713,-27.7587],[-66.7709,-27.7671],[-66.7395,-27.7878],[-66.74,-27.866]]]},"properties":{"id":280,"departamento":"ANDALGALA","cabecera":"ANDALGALA","provincia":"CATAMARCA"}},
{"type":"Feature","geometry":{"type":"Polygon","coordinates":[[[-65.9512,-28.3356],[-65.9372,-28.3357],[-65.9342,-28.3329],[-65.9052,-28.3275],[-65.8955,-28.3286],[-65.8878,-28.3186],[-65.8782,-28.331],[-65.8751,-28.3232],[-65.8693,-28.3235],[-65.8645,-28.3164],[-65.8495,-28.3068],[-65.8501,-28.3031],[-65.8371,-28.296],[-65.8357,-28.2848],[-65.8316,-28.282],[-65.827,-28.2695],[-65.8143,-28.2623],[-65.81,-28.2492],[-65.7911,-28.2429],[-65.7835,-28.2439],[-65.7753,-28.2409],[-65.7713,-28.2455],[-65.7472,-28.245],[-65.745,-28.2377],[-65.7306,-28.2357],[-65.7292,-28.2312],[-65.7347,-28.2231],[-65.734,-28.2155],[-65.7417,-28.2096],[-65.7423,-28.1992],[-65.7404,-28.1895],[-65.7461,-28.1857],[-65.7488,-28.1788],[-65.7443,-28.1627],[-65.7487,-28.1503],[-65.7472,-28.1404],[-65.7559,-28.1191],[-65.7556,-28.1004],[-65.7735,-28.0652],[-65.7868,-28.0575],[-65.7908,-28.0474],[-65.7906,-28.0316],[-65.7836,-28.0291],[-65.7827,-28.0237],[-65.7728,-28.0248],[-65.7657,-28.0213],[-65.7654,-28.008],[-65.7683,-28.0029],[-65.7678,-27.9901],[-65.7715,-27.9854],[-65.7705,-27.9761],[-65.7779,-27.9627],[-65.7808,-27.9455],[-65.7798,-27.9414],[-65.7834,-27.9249],[-65.7882,-27.9152],[-65.7979,-27.9025],[-65.7971,-27.8985],[-65.8028,-27.8923],[-65.807,-27.881],[-65.8001,-27.8748],[-65.8056,-27.8654],[-65.8068,-27.8585],[-65.8034,-27.8478],[-65.8062,-27.831],[-65.804,-27.8206],[-65.8064,-27.8163],[-65.8195,-27.8239],[-65.8149,-27.8259],[-65.8234,-27.8392],[-65.8263,-27.8463],[-65.8318,-27.8488],[-65.8329,-27.8375],[-65.8287,-27.8204],[-65.8288,-27.8142],[-65.8341,-27.8073],[-65.8412,-27.7802],[-65.8445,-27.7713],[-65.8454,-27.761],[-65.8553,-27.7333],[-65.8609,-27.7235],[-65.8647,-27.7088],[-65.8655,-27.689],[-65.8712,-27.682],[-65.8754,-27.6725],[-65.9154,-27.6691],[-65.9243,-27.6497],[-65.9328,-27.636],[-65.9362,-27.6212],[-65.9398,-27.6167],[-65.9428,-27.6284],[-65.9617,-27.63],[-65.9736,-27.6374],[-65.9673,-27.6504],[-65.9709,-27.6584],[-65.9701,-27.6825],[-65.9806,-27.6948],[-65.9825,-27.7054],[-65.9768,-27.715],[-65.978,-27.7223],[-65.9873,-27.7225],[-65.9882,-27.7302],[-65.9863,-27.741],[-65.9807,-27.7444],[-65.9818,-27.7514],[-65.9922,-27.7596],[-65.9965,-27.759],[-66.0118,-27.7628],[-66.0166,-27.7692],[-66.0249,-27.7693],[-66.0327,-27.7768],[-66.038,-27.7692],[-66.0368,-27.7621],[-66.0435,-27.7553],[-66.0616,-27.7656],[-66.0763,-27.768],[-66.0836,-27.7768],[-66.0834,-27.7804],[-66.0825,-27.7879],[-66.0878,-27.8005],[-66.0849,-27.8069],[-66.0873,-27.814],[-66.086,-27.8235],[-66.0793,-27.8274],[-66.0796,-27.8317],[-66.0706,-27.8346],[-66.0687,-27.8459],[-66.0712,-27.8541],[-66.0657,-27.8613],[-66.0599,-27.8801],[-66.0522,-27.8882],[-66.0493,-27.9056],[-66.0596,-27.915],[-66.0665,-27.9155],[-66.0664,-27.9208],[-66.0601,-27.927],[-66.0715,-27.9424],[-66.0825,-27.9474],[-66.0955,-27.9705],[-66.0958,-27.9741],[-66.0857,-27.9754],[-66.0791,-27.9792],[-66.0783,-27.984],[-66.0867,-28.0126],[-66.084,-28.0199],[-66.0777,-28.0209],[-66.0686,-28.035],[-66.0688,-28.041],[-66.0632,-28.0547],[-66.0578,-28.0604],[-66.0558,-28.0746],[-66.0593,-28.0784],[-66.0441,-28.0944],[-66.0419,-28.1034],[-66.0466,-28.1133],[-66.0452,-28.1245],[-66.0344,-28.1272],[-66.0289,-28.134],[-66.0282,-28.1526],[-66.0327,-28.1621],[-66.0387,-28.1692],[-66.036,-28.1836],[-66.0296,-28.1921],[-66.0221,-28.1975],[-66.0256,-28.2089],[-66.0256,-28.2156],[-66.032,-28.2218],[-66.0283,-28.2382],[-66.0337,-28.2555],[-66.0368,-28.2585],[-66.0387,-28.2683],[-66.0429,-28.2711],[-66.0444,-28.2825],[-66.0503,-28.3002],[-66.0551,-28.3094],[-66.0493,-28.3186],[-66.0521,-28.3234],[-66.0457,-28.3302],[-66.0421,-28.3427],[-66.0426,-28.3515],[-66.0157,-28.3482],[-66.0099,-28.3463],[-65.9842,-28.3496],[-65.9643,-28.341],[-65.9585,-28.3366],[-65.9512,-28.3356]]]},"properties":{"id":281,"departamento":"AMBATO","cabecera":"LA PUERTA","provincia":"CATAMARCA"}},
{"type":"Feature","geometry":{"type":"Polygon","coordinates":[[[-65.7292,-28.2312],[-65.7236,-28.2359],[-65.7239,-28.2554],[-65.7171,-28.2594],[-65.7187,-28.2695],[-65.7127,-28.2772],[-65.7112,-28.2833],[-65.705,-28.2903],[-65.6995,-28.3055],[-65.6974,-28.319],[-65.6837,-28.3209],[-65.671,-28.3337],[-65.6644,-28.335],[-65.6677,-28.3418],[-65.6655,-28.3467],[-65.6723,-28.3626],[-65.6711,-28.3732],[-65.6647,-28.3766],[-65.6641,-28.384],[-65.6601,-28.3887],[-65.6656,-28.4015],[-65.6638,-28.4063],[-65.6656,-28.4211],[-65.5602,-28.4208],[-65.5577,-28.3947],[-65.555,-28.3797],[-65.5504,-28.3703],[-65.5571,-28.3605],[-65.5583,-28.3495],[-65.5521,-28.3347],[-65.5551,-28.3279],[-65.5592,-28.3057],[-65.5688,-28.3002],[-65.5736,-28.287],[-65.5737,-28.2717],[-65.5699,-28.2579],[-65.5707,-28.2445],[-65.5682,-28.2386],[-65.5729,-28.2315],[-65.5733,-28.2198],[-65.5808,-28.1957],[-65.5796,-28.1846],[-65.5822,-28.174],[-65.5799,-28.1687],[-65.5843,-28.1559],[-65.5826,-28.1413],[-65.5732,-28.1301],[-65.5706,-28.1188],[-65.5619,-28.1203],[-65.563,-28.1034],[-65.5693,-28.0873],[-65.5756,-28.0812],[-65.5722,-28.0697],[-65.5749,-28.066],[-65.5668,-28.0605],[-65.57,-28.0563],[-65.5667,-28.0499],[-65.5613,-28.0468],[-65.5607,-28.0415],[-65.5668,-28.0358],[-65.5675,-28.0219],[-65.5607,-28.0057],[-65.5692,-28.0128],[-65.5785,-28.0098],[-65.587,-28.0037],[-65.5891,-27.9988],[-65.6023,-27.9981],[-65.6138,-27.9891],[-65.6181,-27.9775],[-65.6247,-27.9733],[-65.6663,-27.9732],[-65.6691,-27.954],[-65.675,-27.9329],[-65.6747,-27.9285],[-65.6809,-27.9179],[-65.6868,-27.9135],[-65.6909,-27.9005],[-65.6951,-27.8982],[-65.6989,-27.8896],[-65.6987,-27.8716],[-65.7009,-27.8683],[-65.6967,-27.851],[-65.6991,-27.8478],[-65.7031,-27.8284],[-65.706,-27.8229],[-65.7032,-27.8165],[-65.7039,-27.8081],[-65.7198,-27.8161],[-65.7214,-27.7975],[-65.7291,-27.7923],[-65.7532,-27.77],[-65.793,-27.7826],[-65.7993,-27.7872],[-65.7996,-27.7943],[-65.7949,-27.8003],[-65.8027,-27.8157],[-65.8064,-27.8163],[-65.804,-27.8206],[-65.8062,-27.831],[-65.8034,-27.8478],[-65.8068,-27.8585],[-65.8056,-27.8654],[-65.8001,-27.8748],[-65.807,-27.881],[-65.8028,-27.8923],[-65.7971,-27.8985],[-65.7979,-27.9025],[-65.7882,-27.9152],[-65.7834,-27.9249],[-65.7798,-27.9414],[-65.7808,-27.9455],[-65.7779,-27.9627],[-65.7705,-27.9761],[-65.7715,-27.9854],[-65.7678,-27.9901],[-65.7683,-28.0029],[-65.7654,-28.008],[-65.7657,-28.0213],[-65.7728,-28.0248],[-65.7827,-28.0237],[-65.7836,-28.0291],[-65.7906,-28.0316],[-65.7908,-28.0474],[-65.7868,-28.0575],[-65.7735,-28.0652],[-65.7556,-28.1004],[-65.7559,-28.1191],[-65.7472,-28.1404],[-65.7487,-28.1503],[-65.7443,-28.1627],[-65.7488,-28.1788],[-65.7461,-28.1857],[-65.7404,-28.1895],[-65.7423,-28.1992],[-65.7417,-28.2096],[-65.734,-28.2155],[-65.7347,-28.2231],[-65.7292,-28.2312]]]},"properties":{"id":282,"departamento":"PACLIN","cabecera":"LA MERCED","provincia":"CATAMARCA"}},
{"type":"Feature","geometry":{"type":"Polygon","coordinates":[[[-65.5729,-28.2315],[-65.5075,-28.2299],[-65.5008,-28.2303],[-65.4938,-28.2169],[-65.4755,-28.2056],[-65.4715,-28.1963],[-65.4701,-28.1867],[-65.4625,-28.1883],[-65.4507,-28.1806],[-65.4256,-28.19],[-65.4102,-28.1827],[-65.4069,-28.1759],[-65.3984,-28.1725],[-65.3913,-28.173],[-65.4017,-28.2033],[-65.4014,-28.2061],[-65.3783,-28.2132],[-65.3627,-28.2158],[-65.3527,-28.2095],[-65.3467,-28.2088],[-65.3441,-28.1998],[-65.3357,-28.1985],[-65.3333,-28.2098],[-65.3374,-28.2155],[-65.3325,-28.2204],[-65.3193,-28.2174],[-65.3185,-28.2072],[-65.3109,-28.2068],[-65.3066,-28.2161],[-65.3007,-28.2181],[-65.2942,-28.2269],[-65.2883,-28.2288],[-65.2449,-28.2785],[-65.2474,-28.2862],[-65.2352,-28.2877],[-65.2259,-28.2862],[-65.2217,-28.2809],[-65.2126,-28.2807],[-65.1948,-28.2838],[-65.2012,-28.2991],[-65.1948,-28.3018],[-65.1929,-28.307],[-65.1851,-28.3061],[-65.1778,-28.3087],[-65.1825,-28.315],[-65.182,-28.3206],[-65.1769,-28.3325],[-65.1453,-28.3325],[-65.1454,-28.3237],[-65.1416,-28.3225],[-65.1047,-28.3226],[-65.1119,-28.1857],[-65.1708,-27.9465],[-65.3647,-27.8458],[-65.3704,-27.846],[-65.383,-27.8542],[-65.3941,-27.8569],[-65.3973,-27.8643],[-65.4054,-27.8727],[-65.4232,-27.8841],[-65.4345,-27.885],[-65.4467,-27.8936],[-65.4608,-27.8967],[-65.4735,-27.9038],[-65.4772,-27.9115],[-65.4882,-27.9152],[-65.5005,-27.9246],[-65.4993,-27.9305],[-65.5059,-27.9354],[-65.5128,-27.9439],[-65.5219,-27.9494],[-65.5224,-27.9643],[-65.5311,-27.9664],[-65.5279,-27.9724],[-65.5448,-27.9772],[-65.5463,-27.9895],[-65.5509,-27.99],[-65.5594,-27.9973],[-65.5607,-28.0057],[-65.5675,-28.0219],[-65.5668,-28.0358],[-65.5607,-28.0415],[-65.5613,-28.0468],[-65.5667,-28.0499],[-65.57,-28.0563],[-65.5668,-28.0605],[-65.5749,-28.066],[-65.5722,-28.0697],[-65.5756,-28.0812],[-65.5693,-28.0873],[-65.563,-28.1034],[-65.5619,-28.1203],[-65.5706,-28.1188],[-65.5732,-28.1301],[-65.5826,-28.1413],[-65.5843,-28.1559],[-65.5799,-28.1687],[-65.5822,-28.174],[-65.5796,-28.1846],[-65.5808,-28.1957],[-65.5733,-28.2198],[-65.5729,-28.2315]]]},"properties":{"id":283,"departamento":"SANTA ROSA","cabecera":"BA¥ADO DE OVANTA","provincia":"CATAMARCA"}},
{"type":"Feature","geometry":{"type":"Polygon","coordinates":[[[-65.2715,-28.601],[-65.2696,-28.6008],[-65.2676,-28.6011],[-65.259,-28.6006],[-65.2487,-28.6051],[-65.2415,-28.6014],[-65.2197,-28.6017],[-65.2165,-28.5976],[-65.2039,-28.6086],[-65.1994,-28.6187],[-65.1923,-28.6129],[-65.1881,-28.6181],[-65.1846,-28.6006],[-65.1256,-28.6115],[-65.0969,-28.471],[-65.1047,-28.3226],[-65.1416,-28.3225],[-65.1454,-28.3237],[-65.1453,-28.3325],[-65.1769,-28.3325],[-65.182,-28.3206],[-65.1825,-28.315],[-65.1778,-28.3087],[-65.1851,-28.3061],[-65.1929,-28.307],[-65.1948,-28.3018],[-65.2012,-28.2991],[-65.1948,-28.2838],[-65.2126,-28.2807],[-65.2217,-28.2809],[-65.2259,-28.2862],[-65.2352,-28.2877],[-65.2474,-28.2862],[-65.2449,-28.2785],[-65.2883,-28.2288],[-65.2942,-28.2269],[-65.3007,-28.2181],[-65.3066,-28.2161],[-65.3109,-28.2068],[-65.3185,-28.2072],[-65.3193,-28.2174],[-65.3325,-28.2204],[-65.3374,-28.2155],[-65.3333,-28.2098],[-65.3357,-28.1985],[-65.3441,-28.1998],[-65.3467,-28.2088],[-65.3527,-28.2095],[-65.3627,-28.2158],[-65.3783,-28.2132],[-65.4014,-28.2061],[-65.4017,-28.2033],[-65.3913,-28.173],[-65.3984,-28.1725],[-65.4069,-28.1759],[-65.4102,-28.1827],[-65.4256,-28.19],[-65.4507,-28.1806],[-65.4625,-28.1883],[-65.4701,-28.1867],[-65.4715,-28.1963],[-65.4755,-28.2056],[-65.4938,-28.2169],[-65.5008,-28.2303],[-65.5075,-28.2299],[-65.5729,-28.2315],[-65.5682,-28.2386],[-65.5707,-28.2445],[-65.5699,-28.2579],[-65.5737,-28.2717],[-65.5736,-28.287],[-65.5688,-28.3002],[-65.5592,-28.3057],[-65.5551,-28.3279],[-65.5521,-28.3347],[-65.5583,-28.3495],[-65.5571,-28.3605],[-65.5504,-28.3703],[-65.555,-28.3797],[-65.5577,-28.3947],[-65.5602,-28.4208],[-65.566,-28.4263],[-65.5651,-28.4336],[-65.5719,-28.4414],[-65.573,-28.4488],[-65.5857,-28.4674],[-65.5919,-28.4716],[-65.593,-28.4793],[-65.5985,-28.4826],[-65.6025,-28.492],[-65.6026,-28.5024],[-65.5999,-28.5197],[-65.6078,-28.5257],[-65.6125,-28.538],[-65.619,-28.5454],[-65.6167,-28.5498],[-65.6193,-28.5585],[-65.62,-28.5696],[-65.6116,-28.5784],[-65.6129,-28.5836],[-65.6095,-28.5962],[-65.5995,-28.5971],[-65.5907,-28.5946],[-65.5854,-28.5977],[-65.5828,-28.6039],[-65.5619,-28.6053],[-65.5517,-28.6048],[-65.5565,-28.6128],[-65.5543,-28.6169],[-65.5448,-28.6142],[-65.5336,-28.6175],[-65.5203,-28.6169],[-65.5081,-28.6187],[-65.5024,-28.6174],[-65.4888,-28.63],[-65.4768,-28.6313],[-65.4644,-28.6386],[-65.4551,-28.6352],[-65.4549,-28.6583],[-65.4288,-28.6641],[-65.4156,-28.6609],[-65.4035,-28.6463],[-65.3877,-28.639],[-65.39,-28.6308],[-65.3689,-28.6267],[-65.3605,-28.6209],[-65.3594,-28.6122],[-65.3424,-28.5971],[-65.3443,-28.5935],[-65.332,-28.5915],[-65.3177,-28.5872],[-65.3092,-28.5918],[-65.297,-28.5919],[-65.2882,-28.5893],[-65.2898,-28.5971],[-65.285,-28.6026],[-65.2715,-28.601]]]},"properties":{"id":284,"departamento":"EL ALTO","cabecera":"EL ALTO","provincia":"CATAMARCA"}},
{"type":"Feature","geometry":{"type":"Polygon","coordinates":[[[-65.5898,-29.7204],[-65.5374,-29.8458],[-65.49,-29.9593],[-65.423,-30.1196],[-65.1583,-30.0473],[-64.986,-29.8911],[-64.9379,-29.8475],[-64.9477,-29.7532],[-64.9641,-29.5961],[-64.8246,-29.5743],[-64.8243,-29.5653],[-64.8293,-29.5507],[-64.8297,-29.5227],[-64.8312,-29.5124],[-64.8278,-29.5024],[-64.8281,-29.4836],[-64.8231,-29.4632],[-64.8167,-29.4527],[-64.8014,-29.4418],[-64.7964,-29.4345],[-64.7923,-29.4181],[-64.786,-29.4055],[-64.7879,-29.4006],[-64.7974,-29.3918],[-64.8079,-29.3847],[-64.8145,-29.3775],[-64.8167,-29.3661],[-64.835,-29.3475],[-64.8426,-29.3337],[-64.8431,-29.3195],[-64.8384,-29.298],[-64.8302,-29.2786],[-64.8247,-29.2738],[-64.7907,-29.2726],[-64.7836,-29.2702],[-64.7812,-29.2655],[-64.8033,-29.2538],[-64.8164,-29.2455],[-64.8259,-29.235],[-64.8376,-29.2286],[-64.8421,-29.2233],[-64.8452,-29.2129],[-64.8545,-29.1974],[-64.8554,-29.1776],[-64.8526,-29.1548],[-64.8566,-29.1486],[-64.8531,-29.1224],[-64.856,-29.1052],[-64.8541,-29.0913],[-64.8544,-29.0703],[-64.8637,-29.0599],[-64.8598,-29.035],[-64.8666,-29.0308],[-64.8665,-29.022],[-64.8637,-29.0161],[-64.9066,-28.9324],[-64.9062,-28.9263],[-64.9017,-28.9143],[-64.912,-28.8866],[-64.9069,-28.8699],[-64.8993,-28.8525],[-64.9011,-28.8413],[-64.9236,-28.8182],[-64.9316,-28.8137],[-64.9386,-28.8057],[-64.9482,-28.8013],[-64.961,-28.798],[-64.9773,-28.7892],[-64.9849,-28.7793],[-64.9954,-28.7723],[-65.0008,-28.7661],[-65.0033,-28.7562],[-65.0113,-28.7485],[-65.0166,-28.7378],[-65.1272,-28.7162],[-65.1385,-28.6581],[-65.136,-28.6481],[-65.1433,-28.6441],[-65.1611,-28.6396],[-65.1701,-28.6277],[-65.1716,-28.6189],[-65.1864,-28.6239],[-65.1881,-28.6181],[-65.1923,-28.6129],[-65.1994,-28.6187],[-65.2039,-28.6086],[-65.2165,-28.5976],[-65.2197,-28.6017],[-65.2415,-28.6014],[-65.2487,-28.6051],[-65.259,-28.6006],[-65.2676,-28.6011],[-65.2696,-28.6008],[-65.2715,-28.601],[-65.281,-28.639],[-65.3146,-28.6307],[-65.315,-28.6436],[-65.3112,-28.6688],[-65.313,-28.6744],[-65.3095,-28.6869],[-65.3108,-28.7025],[-65.3399,-28.6953],[-65.3802,-28.7969],[-65.3104,-28.8147],[-65.3055,-28.8259],[-65.3102,-28.8343],[-65.3143,-28.8567],[-65.3326,-28.8813],[-65.3413,-28.8943],[-65.3451,-28.8954],[-65.3577,-28.9088],[-65.3557,-28.9133],[-65.3628,-28.9218],[-65.3638,-28.9314],[-65.3668,-28.9337],[-65.3674,-28.9491],[-65.3662,-28.964],[-65.3685,-28.966],[-65.3731,-29.0075],[-65.3705,-29.0154],[-65.3769,-29.0683],[-65.3798,-29.0872],[-65.3838,-29.1024],[-65.3949,-29.109],[-65.398,-29.1182],[-65.412,-29.1313],[-65.4172,-29.1446],[-65.4234,-29.1469],[-65.4488,-29.1487],[-65.461,-29.1642],[-65.4619,-29.1729],[-65.4668,-29.1859],[-65.4736,-29.1988],[-65.4775,-29.2128],[-65.4844,-29.2184],[-65.4924,-29.2206],[-65.5001,-29.2279],[-65.5057,-29.2465],[-65.5001,-29.2571],[-65.4938,-29.2639],[-65.5023,-29.2773],[-65.5102,-29.2851],[-65.5045,-29.3013],[-65.5068,-29.302],[-65.5133,-29.3169],[-65.5106,-29.3226],[-65.5167,-29.3357],[-65.5166,-29.3428],[-65.5124,-29.3584],[-65.512,-29.3706],[-65.5086,-29.3757],[-65.5057,-29.3963],[-65.5148,-29.4019],[-65.5194,-29.4106],[-65.5201,-29.4204],[-65.516,-29.4302],[-65.5266,-29.4556],[-65.5314,-29.4717],[-65.5213,-29.4852],[-65.5354,-29.5157],[-65.527,-29.559],[-65.5231,-29.5649],[-65.5175,-29.5897],[-65.5208,-29.6001],[-65.5201,-29.6055],[-65.5352,-29.6354],[-65.5412,-29.6377],[-65.582,-29.7023],[-65.581,-29.7104],[-65.5898,-29.7204]]]},"properties":{"id":285,"departamento":"LA PAZ","cabecera":"SAN ANTONIO","provincia":"CATAMARCA"}},
{"type":"Feature","geometry":{"type":"Polygon","coordinates":[[[-66.0426,-28.3515],[-66.0421,-28.3427],[-66.0457,-28.3302],[-66.0521,-28.3234],[-66.0493,-28.3186],[-66.0551,-28.3094],[-66.0503,-28.3002],[-66.0444,-28.2825],[-66.0429,-28.2711],[-66.0387,-28.2683],[-66.0368,-28.2585],[-66.0337,-28.2555],[-66.0283,-28.2382],[-66.032,-28.2218],[-66.0256,-28.2156],[-66.0256,-28.2089],[-66.0221,-28.1975],[-66.0296,-28.1921],[-66.036,-28.1836],[-66.0387,-28.1692],[-66.0327,-28.1621],[-66.0282,-28.1526],[-66.0289,-28.134],[-66.0344,-28.1272],[-66.0452,-28.1245],[-66.0466,-28.1133],[-66.0419,-28.1034],[-66.0441,-28.0944],[-66.0593,-28.0784],[-66.0558,-28.0746],[-66.0578,-28.0604],[-66.0632,-28.0547],[-66.0688,-28.041],[-66.0686,-28.035],[-66.0777,-28.0209],[-66.084,-28.0199],[-66.0867,-28.0126],[-66.0783,-27.984],[-66.0791,-27.9792],[-66.0857,-27.9754],[-66.0958,-27.9741],[-66.0955,-27.9705],[-66.0825,-27.9474],[-66.0715,-27.9424],[-66.0601,-27.927],[-66.0664,-27.9208],[-66.0665,-27.9155],[-66.0596,-27.915],[-66.0493,-27.9056],[-66.0522,-27.8882],[-66.0599,-27.8801],[-66.0657,-27.8613],[-66.0712,-27.8541],[-66.0687,-27.8459],[-66.0706,-27.8346],[-66.0796,-27.8317],[-66.0793,-27.8274],[-66.086,-27.8235],[-66.0873,-27.814],[-66.0849,-27.8069],[-66.0878,-27.8005],[-66.0825,-27.7879],[-66.0834,-27.7804],[-66.089,-27.7819],[-66.0967,-27.7943],[-66.1037,-27.8009],[-66.1141,-27.8047],[-66.1361,-27.8061],[-66.1519,-27.8082],[-66.179,-27.8226],[-66.1837,-27.8274],[-66.2014,-27.8281],[-66.209,-27.8212],[-66.2138,-27.8222],[-66.2299,-27.8204],[-66.254,-27.8223],[-66.2565,-27.8312],[-66.262,-27.8399],[-66.2654,-27.8673],[-66.74,-27.866],[-66.7412,-28.0334],[-66.8453,-28.033],[-66.9182,-28.1225],[-67.0257,-28.2544],[-67.0297,-28.2581],[-67.0226,-28.2608],[-67.0162,-28.2543],[-66.9998,-28.257],[-66.9902,-28.2633],[-66.9426,-28.2662],[-66.6632,-28.2831],[-66.5708,-28.2886],[-66.5157,-28.4626],[-66.5148,-28.4691],[-66.5169,-28.4843],[-66.5219,-28.4949],[-66.5273,-28.5126],[-66.5256,-28.5209],[-66.5322,-28.5315],[-66.4963,-28.5313],[-66.4962,-28.6223],[-66.396,-28.677],[-66.3935,-28.6844],[-66.3852,-28.6934],[-66.3838,-28.7052],[-66.3726,-28.7188],[-66.3675,-28.7208],[-66.3573,-28.7192],[-66.3525,-28.7218],[-66.351,-28.7303],[-66.3529,-28.7376],[-66.3662,-28.7455],[-66.37,-28.7524],[-66.372,-28.7625],[-66.3807,-28.7794],[-66.3824,-28.7912],[-66.3893,-28.802],[-66.3967,-28.8022],[-66.4099,-28.8142],[-66.3959,-28.825],[-66.387,-28.823],[-66.3847,-28.8132],[-66.3767,-28.8087],[-66.3663,-28.7955],[-66.3375,-28.801],[-66.3333,-28.7897],[-66.3281,-28.7832],[-66.3269,-28.7612],[-66.3222,-28.7565],[-66.3209,-28.7494],[-66.3235,-28.7323],[-66.3193,-28.7305],[-66.3098,-28.7331],[-66.3095,-28.7248],[-66.3029,-28.724],[-66.304,-28.7121],[-66.3007,-28.7042],[-66.3012,-28.6931],[-66.2972,-28.6792],[-66.2873,-28.6742],[-66.2816,-28.6742],[-66.274,-28.6658],[-66.2709,-28.6468],[-66.2642,-28.629],[-66.2569,-28.6283],[-66.2502,-28.6351],[-66.2383,-28.6306],[-66.2336,-28.6219],[-66.2203,-28.6236],[-66.218,-28.629],[-66.2103,-28.6305],[-66.1987,-28.6196],[-66.1855,-28.5848],[-66.1779,-28.5796],[-66.1837,-28.564],[-66.1765,-28.5556],[-66.1704,-28.5554],[-66.1626,-28.5494],[-66.1561,-28.5498],[-66.149,-28.5461],[-66.1458,-28.5373],[-66.1351,-28.5245],[-66.1346,-28.5055],[-66.1265,-28.4959],[-66.1128,-28.4966],[-66.1122,-28.496],[-66.1052,-28.4951],[-66.0936,-28.4847],[-66.0835,-28.4822],[-66.0803,-28.4779],[-66.0832,-28.47],[-66.0815,-28.4637],[-66.0852,-28.4603],[-66.0835,-28.4517],[-66.0665,-28.4557],[-66.0534,-28.453],[-66.0478,-28.4482],[-66.0419,-28.4378],[-66.0471,-28.4239],[-66.0478,-28.4133],[-66.0579,-28.3979],[-66.0578,-28.3912],[-66.0515,-28.3806],[-66.0578,-28.3698],[-66.0573,-28.3629],[-66.0527,-28.3617],[-66.0426,-28.3515]]]},"properties":{"id":286,"departamento":"POMAN","cabecera":"SAUJIL","provincia":"CATAMARCA"}},
{"type":"Feature","geometry":{"type":"Polygon","coordinates":[[[-66.8527,-25.917],[-66.8488,-25.9081],[-66.849,-25.8991],[-66.8429,-25.8805],[-66.845,-25.8505],[-66.8476,-25.8291],[-66.8476,-25.7963],[-66.851,-25.781],[-66.8598,-25.7713],[-66.8709,-25.7663],[-66.8631,-25.7437],[-66.8526,-25.7282],[-66.8517,-25.723],[-66.8426,-25.7125],[-66.8267,-25.7047],[-66.8129,-25.7001],[-66.8017,-25.6988],[-66.7893,-25.6994],[-66.7594,-25.706],[-66.7496,-25.7064],[-66.7261,-25.7045],[-66.6913,-25.7037],[-66.6486,-25.712],[-66.6421,-25.695],[-66.636,-25.6878],[-66.6362,-25.681],[-66.6324,-25.6727],[-66.6309,-25.6592],[-66.6224,-25.6467],[-66.6104,-25.6376],[-66.6067,-25.6295],[-66.5843,-25.6251],[-66.5727,-25.6243],[-66.5639,-25.6209],[-66.5652,-25.6161],[-66.5632,-25.6014],[-66.5716,-25.5856],[-66.5664,-25.577],[-66.5648,-25.5668],[-66.5607,-25.5621],[-66.548,-25.5547],[-66.5366,-25.5377],[-66.5371,-25.5315],[-66.5428,-25.5224],[-66.5375,-25.505],[-66.5321,-25.5006],[-66.5332,-25.4787],[-66.5361,-25.4665],[-66.5304,-25.4566],[-66.5201,-25.449],[-66.5193,-25.4366],[-66.521,-25.4234],[-66.5245,-25.4104],[-66.5331,-25.391],[-66.5344,-25.3756],[-66.5476,-25.3689],[-66.5553,-25.3689],[-66.5753,-25.3732],[-66.5896,-25.3724],[-66.5994,-25.3631],[-66.5852,-25.3406],[-66.5816,-25.3212],[-66.576,-25.3132],[-66.566,-25.3031],[-66.5593,-25.2986],[-66.8793,-25.2417],[-67.6699,-25.2391],[-67.8646,-25.2384],[-67.9876,-25.225],[-68.1036,-25.2123],[-68.2743,-25.1937],[-68.5072,-25.1683],[-68.5098,-25.1777],[-68.5073,-25.1878],[-68.5088,-25.1997],[-68.5047,-25.2108],[-68.5051,-25.2222],[-68.5148,-25.2322],[-68.5264,-25.231],[-68.5362,-25.2388],[-68.5444,-25.2595],[-68.5483,-25.262],[-68.5396,-25.279],[-68.5326,-25.283],[-68.5302,-25.292],[-68.5453,-25.2983],[-68.5443,-25.3144],[-68.5352,-25.3209],[-68.5316,-25.3198],[-68.5219,-25.3299],[-68.5183,-25.3421],[-68.5215,-25.3482],[-68.5278,-25.3527],[-68.525,-25.3571],[-68.5267,-25.3704],[-68.5234,-25.3774],[-68.5327,-25.3782],[-68.5416,-25.3823],[-68.5504,-25.3919],[-68.5483,-25.396],[-68.5565,-25.406],[-68.5639,-25.4071],[-68.577,-25.4187],[-68.5813,-25.4149],[-68.5898,-25.4144],[-68.5867,-25.4277],[-68.5887,-25.4501],[-68.5818,-25.4563],[-68.5804,-25.4631],[-68.5752,-25.4723],[-68.5775,-25.4777],[-68.5709,-25.4802],[-68.573,-25.4932],[-68.5614,-25.5057],[-68.5543,-25.5048],[-68.5384,-25.5095],[-68.5419,-25.5186],[-68.5479,-25.5253],[-68.5438,-25.5294],[-68.5414,-25.5393],[-68.5371,-25.5438],[-68.5429,-25.5492],[-68.5314,-25.5574],[-68.5258,-25.5574],[-68.5247,-25.5671],[-68.5156,-25.5747],[-68.5292,-25.5791],[-68.5363,-25.5928],[-68.5407,-25.596],[-68.5413,-25.6057],[-68.5392,-25.6128],[-68.5454,-25.6176],[-68.5457,-25.6313],[-68.5396,-25.6402],[-68.5267,-25.6433],[-68.5168,-25.6587],[-68.5116,-25.6717],[-68.5051,-25.6712],[-68.4939,-25.6788],[-68.4931,-25.6859],[-68.4849,-25.6988],[-68.479,-25.6991],[-68.4777,-25.7082],[-68.4443,-25.8727],[-68.4389,-25.8982],[-68.4188,-25.9819],[-68.4132,-26.0181],[-68.4042,-26.0682],[-68.3814,-26.1778],[-68.4107,-26.1956],[-68.4771,-26.2369],[-68.5047,-26.2533],[-68.5584,-26.2874],[-68.5664,-26.3197],[-68.5678,-26.3326],[-68.5806,-26.4308],[-68.5881,-26.4924],[-68.527,-26.5773],[-68.4978,-26.6188],[-68.4322,-26.7098],[-68.3795,-26.7803],[-68.3625,-26.8026],[-68.3499,-26.8133],[-68.3265,-26.8226],[-68.3179,-26.8219],[-68.308,-26.8149],[-68.3049,-26.809],[-68.295,-26.809],[-68.2698,-26.7959],[-68.2586,-26.7921],[-68.2342,-26.7999],[-68.2192,-26.807],[-68.2136,-26.8316],[-68.2055,-26.8439],[-68.196,-26.844],[-68.1839,-26.8337],[-68.182,-26.8259],[-68.1748,-26.8193],[-68.1632,-26.8176],[-68.1574,-26.8207],[-68.1447,-26.8164],[-68.1418,-26.8083],[-68.1396,-26.7894],[-68.1293,-26.7777],[-68.1227,-26.7766],[-68.1039,-26.7676],[-68.0926,-26.7591],[-68.0855,-26.7624],[-68.0693,-26.7607],[-68.0454,-26.7543],[-68.0235,-26.7571],[-68.0038,-26.7658],[-67.9951,-26.7755],[-67.975,-26.7807],[-67.9624,-26.7854],[-67.9375,-26.7877],[-67.9211,-26.7824],[-67.897,-26.7904],[-67.8782,-26.792],[-67.8706,-26.8014],[-67.8653,-26.8007],[-67.8616,-26.7936],[-67.8531,-26.7929],[-67.8539,-26.7879],[-67.86,-26.7842],[-67.8565,-26.7736],[-67.8583,-26.766],[-67.8376,-26.7671],[-67.8315,-26.7694],[-67.8204,-26.7567],[-67.8095,-26.7571],[-67.803,-26.7677],[-67.7945,-26.7712],[-67.7922,-26.7856],[-67.7888,-26.796],[-67.7843,-26.8014],[-67.7772,-26.8014],[-67.7727,-26.8056],[-67.7637,-26.8049],[-67.7578,-26.7997],[-67.7432,-26.7942],[-67.7432,-26.7805],[-67.7228,-26.7715],[-67.7181,-26.7746],[-67.707,-26.7755],[-67.6938,-26.7888],[-67.6731,-26.8001],[-67.6642,-26.7963],[-67.6565,-26.7882],[-67.6401,-26.7837],[-67.6162,-26.7829],[-67.6065,-26.7913],[-67.6026,-26.8033],[-67.5971,-26.814],[-67.5812,-26.8209],[-67.547,-26.8313],[-67.544,-26.8419],[-67.5436,-26.8569],[-67.5338,-26.8779],[-67.5335,-26.8842],[-67.5374,-26.8928],[-67.5365,-26.9073],[-67.5423,-26.918],[-67.5425,-26.9263],[-67.5343,-26.9246],[-67.5245,-26.918],[-67.5216,-26.9102],[-67.5214,-26.9],[-67.5143,-26.8993],[-67.5089,-26.8839],[-67.5075,-26.8734],[-67.4988,-26.8613],[-67.4927,-26.8628],[-67.4868,-26.8571],[-67.489,-26.847],[-67.4908,-26.8224],[-67.4878,-26.8099],[-67.4836,-26.8068],[-67.4737,-26.7909],[-67.4653,-26.7801],[-67.4406,-26.7689],[-67.431,-26.7678],[-67.4239,-26.7604],[-67.4051,-26.7531],[-67.402,-26.743],[-67.3783,-26.736],[-67.348,-26.7343],[-67.3411,-26.7327],[-67.3329,-26.7267],[-67.3324,-26.7171],[-67.3139,-26.7126],[-67.3103,-26.7099],[-67.2914,-26.7126],[-67.2873,-26.7115],[-67.2838,-26.7021],[-67.2803,-26.6921],[-67.2571,-26.6882],[-67.2443,-26.6891],[-67.224,-26.6851],[-67.2191,-26.6767],[-67.2065,-26.6657],[-67.2007,-26.6631],[-67.1919,-26.6652],[-67.1809,-26.665],[-67.1728,-26.6514],[-67.1659,-26.6445],[-67.1653,-26.639],[-67.1587,-26.6358],[-67.1587,-26.6216],[-67.1515,-26.6166],[-67.1422,-26.6176],[-67.1373,-26.6254],[-67.1219,-26.6179],[-67.1204,-26.6102],[-67.1158,-26.6044],[-67.1087,-26.6031],[-67.0877,-26.6096],[-67.0841,-26.594],[-67.0789,-26.5907],[-67.0782,-26.5774],[-67.0681,-26.5756],[-67.0643,-26.5646],[-67.0663,-26.5578],[-67.0599,-26.5472],[-67.0572,-26.5297],[-67.0495,-26.5158],[-67.0455,-26.4969],[-67.0488,-26.4839],[-67.05,-26.4703],[-67.0434,-26.4577],[-67.0481,-26.442],[-67.0479,-26.4312],[-67.0435,-26.4158],[-67.048,-26.4104],[-67.0579,-26.405],[-67.0556,-26.3887],[-67.0464,-26.3889],[-67.0387,-26.3926],[-67.0316,-26.3912],[-67.03,-26.3784],[-67.0302,-26.354],[-67.0334,-26.3487],[-67.0333,-26.3247],[-67.0174,-26.3224],[-67.0151,-26.3123],[-67.0098,-26.3057],[-67.0103,-26.2944],[-67.0057,-26.2884],[-67.0076,-26.2828],[-67.0025,-26.2644],[-66.9949,-26.2493],[-67.0012,-26.2285],[-66.9916,-26.2184],[-66.9873,-26.2053],[-66.9894,-26.1921],[-66.9825,-26.1821],[-66.9717,-26.1721],[-66.9661,-26.1632],[-66.9675,-26.152],[-66.9643,-26.1342],[-66.9587,-26.1311],[-66.9556,-26.1241],[-66.9475,-26.1214],[-66.934,-26.1127],[-66.922,-26.0981],[-66.9168,-26.1083],[-66.9068,-26.1154],[-66.8791,-26.1061],[-66.8726,-26.1079],[-66.8478,-26.1068],[-66.8429,-26.1009],[-66.8384,-26.0893],[-66.8267,-26.0837],[-66.8215,-26.0748],[-66.8291,-26.0602],[-66.834,-26.0549],[-66.8464,-26.049],[-66.8463,-26.0412],[-66.8551,-26.031],[-66.856,-26.0231],[-66.8677,-26.0122],[-66.8729,-26.0012],[-66.8815,-25.9955],[-66.8925,-25.9974],[-66.9001,-25.9966],[-66.9106,-25.9848],[-66.9152,-25.9651],[-66.9152,-25.9569],[-66.9189,-25.9519],[-66.921,-25.943],[-66.9137,-25.9377],[-66.8929,-25.9296],[-66.8818,-25.9289],[-66.8666,-25.9243],[-66.8527,-25.917]]]},"properties":{"id":344,"departamento":"ANTOFAGASTA DE LA SIERRA","cabecera":"ANTOFAGASTA DE LA SIERRA","provincia":"CATAMARCA"}},
{"type":"Feature","geometry":{"type":"Polygon","coordinates":[[[-67.2838,-26.7021],[-67.2873,-26.7115],[-67.2914,-26.7126],[-67.3103,-26.7099],[-67.3139,-26.7126],[-67.3324,-26.7171],[-67.3329,-26.7267],[-67.3411,-26.7327],[-67.348,-26.7343],[-67.3783,-26.736],[-67.402,-26.743],[-67.4051,-26.7531],[-67.4239,-26.7604],[-67.431,-26.7678],[-67.4406,-26.7689],[-67.4653,-26.7801],[-67.4737,-26.7909],[-67.4836,-26.8068],[-67.4878,-26.8099],[-67.4908,-26.8224],[-67.489,-26.847],[-67.4868,-26.8571],[-67.4927,-26.8628],[-67.4988,-26.8613],[-67.5075,-26.8734],[-67.5089,-26.8839],[-67.5143,-26.8993],[-67.5214,-26.9],[-67.5216,-26.9102],[-67.5245,-26.918],[-67.5343,-26.9246],[-67.5425,-26.9263],[-67.5423,-26.918],[-67.5365,-26.9073],[-67.5374,-26.8928],[-67.5335,-26.8842],[-67.5338,-26.8779],[-67.5436,-26.8569],[-67.544,-26.8419],[-67.547,-26.8313],[-67.5812,-26.8209],[-67.5971,-26.814],[-67.6026,-26.8033],[-67.6065,-26.7913],[-67.6162,-26.7829],[-67.6401,-26.7837],[-67.6565,-26.7882],[-67.6642,-26.7963],[-67.6731,-26.8001],[-67.6938,-26.7888],[-67.707,-26.7755],[-67.7181,-26.7746],[-67.7228,-26.7715],[-67.7432,-26.7805],[-67.7432,-26.7942],[-67.7578,-26.7997],[-67.7637,-26.8049],[-67.7727,-26.8056],[-67.7772,-26.8014],[-67.7843,-26.8014],[-67.7888,-26.796],[-67.7922,-26.7856],[-67.7945,-26.7712],[-67.803,-26.7677],[-67.8095,-26.7571],[-67.8204,-26.7567],[-67.8315,-26.7694],[-67.8376,-26.7671],[-67.8583,-26.766],[-67.8565,-26.7736],[-67.86,-26.7842],[-67.8539,-26.7879],[-67.8531,-26.7929],[-67.8616,-26.7936],[-67.8653,-26.8007],[-67.8706,-26.8014],[-67.8782,-26.792],[-67.897,-26.7904],[-67.9211,-26.7824],[-67.9375,-26.7877],[-67.9624,-26.7854],[-67.975,-26.7807],[-67.9951,-26.7755],[-68.0038,-26.7658],[-68.0235,-26.7571],[-68.0454,-26.7543],[-68.0693,-26.7607],[-68.0855,-26.7624],[-68.0926,-26.7591],[-68.1039,-26.7676],[-68.1227,-26.7766],[-68.1293,-26.7777],[-68.1396,-26.7894],[-68.1418,-26.8083],[-68.1447,-26.8164],[-68.1574,-26.8207],[-68.1632,-26.8176],[-68.1748,-26.8193],[-68.182,-26.8259],[-68.1839,-26.8337],[-68.196,-26.844],[-68.2055,-26.8439],[-68.2136,-26.8316],[-68.2192,-26.807],[-68.2342,-26.7999],[-68.2586,-26.7921],[-68.2698,-26.7959],[-68.295,-26.809],[-68.3049,-26.809],[-68.308,-26.8149],[-68.3179,-26.8219],[-68.3265,-26.8226],[-68.3499,-26.8133],[-68.344,-26.8186],[-68.2985,-26.8735],[-68.3013,-26.8764],[-68.2982,-26.8855],[-68.2913,-26.8869],[-68.2814,-26.9039],[-68.2696,-26.9083],[-68.2628,-26.9182],[-68.2733,-26.9266],[-68.2813,-26.9235],[-68.2895,-26.9243],[-68.2938,-26.9324],[-68.2906,-26.9379],[-68.2904,-26.9483],[-68.2937,-26.959],[-68.3011,-26.9679],[-68.3122,-26.972],[-68.3183,-26.9809],[-68.3128,-26.9889],[-68.3145,-26.9966],[-68.3088,-27.0086],[-68.3002,-27.0166],[-68.2974,-27.0255],[-68.2931,-27.0291],[-68.2971,-27.04],[-68.3054,-27.0418],[-68.3314,-27.0339],[-68.3438,-27.0344],[-68.3585,-27.0388],[-68.369,-27.0464],[-68.38,-27.0475],[-68.382,-27.0546],[-68.3906,-27.056],[-68.3993,-27.0621],[-68.4035,-27.068],[-68.4095,-27.0635],[-68.4179,-27.0707],[-68.4274,-27.0679],[-68.4415,-27.0785],[-68.4502,-27.0951],[-68.464,-27.0922],[-68.4686,-27.0866],[-68.4758,-27.0842],[-68.4755,-27.0772],[-68.4831,-27.0631],[-68.473,-27.1115],[-68.4809,-27.1163],[-68.4814,-27.1281],[-68.4945,-27.1366],[-68.5164,-27.1281],[-68.5394,-27.1101],[-68.5439,-27.114],[-68.5584,-27.1163],[-68.5601,-27.1242],[-68.5543,-27.1305],[-68.5559,-27.1391],[-68.5612,-27.141],[-68.5662,-27.1529],[-68.5668,-27.1606],[-68.571,-27.1656],[-68.5762,-27.1774],[-68.5965,-27.1632],[-68.6055,-27.16],[-68.6142,-27.171],[-68.6202,-27.1695],[-68.6329,-27.1616],[-68.6384,-27.1489],[-68.6385,-27.1445],[-68.6496,-27.1406],[-68.654,-27.1362],[-68.6554,-27.1254],[-68.6631,-27.1207],[-68.6656,-27.1081],[-68.6711,-27.0991],[-68.683,-27.108],[-68.6916,-27.0994],[-68.7003,-27.1015],[-68.7042,-27.0991],[-68.7149,-27.1058],[-68.7207,-27.1061],[-68.7329,-27.1021],[-68.744,-27.1053],[-68.7503,-27.112],[-68.7615,-27.1057],[-68.7686,-27.1044],[-68.778,-27.0992],[-68.7874,-27.1044],[-68.793,-27.121],[-68.7995,-27.125],[-68.7986,-27.1307],[-68.8077,-27.1453],[-68.8254,-27.1477],[-68.8313,-27.1512],[-68.8337,-27.1569],[-68.8439,-27.1615],[-68.8399,-27.1664],[-68.8464,-27.1779],[-68.856,-27.1869],[-68.8562,-27.2045],[-68.8522,-27.2102],[-68.8531,-27.2175],[-68.8583,-27.2209],[-68.8555,-27.2307],[-68.8687,-27.2378],[-68.8705,-27.2512],[-68.8676,-27.2626],[-68.8595,-27.2661],[-68.854,-27.2736],[-68.8431,-27.2758],[-68.8414,-27.2799],[-68.828,-27.2886],[-68.8255,-27.2932],[-68.8125,-27.2961],[-68.8084,-27.3008],[-68.8287,-27.2983],[-68.8445,-27.3132],[-68.8606,-27.3185],[-68.8686,-27.317],[-68.8736,-27.3288],[-68.8804,-27.3313],[-68.8781,-27.3392],[-68.8909,-27.3529],[-68.8929,-27.358],[-68.8886,-27.3709],[-68.8892,-27.3769],[-68.8968,-27.3839],[-68.8937,-27.3915],[-68.8871,-27.3981],[-68.9087,-27.4007],[-68.9193,-27.4088],[-68.9305,-27.4095],[-68.9256,-27.4223],[-68.9277,-27.4315],[-68.9325,-27.4354],[-68.9309,-27.4413],[-68.9367,-27.4455],[-68.944,-27.4394],[-68.9557,-27.4353],[-68.9602,-27.4296],[-68.9703,-27.4291],[-68.9805,-27.4318],[-68.9833,-27.4435],[-68.988,-27.4474],[-68.9883,-27.4531],[-68.9818,-27.4564],[-68.9779,-27.4622],[-68.9635,-27.475],[-68.9593,-27.482],[-68.9488,-27.4882],[-68.9501,-27.5],[-68.9426,-27.506],[-68.9411,-27.5165],[-68.9435,-27.5266],[-68.9615,-27.5259],[-68.9862,-27.5236],[-68.9715,-27.5479],[-68.9753,-27.5607],[-68.9829,-27.5681],[-68.9933,-27.5736],[-68.9991,-27.5823],[-69.0057,-27.5852],[-69.0116,-27.5828],[-69.0239,-27.5868],[-69.0249,-27.594],[-69.0388,-27.5948],[-69.0446,-27.6076],[-69.0538,-27.6207],[-69.0517,-27.6305],[-69.0564,-27.6543],[-69.0593,-27.6639],[-69.0568,-27.6716],[-69.0509,-27.6724],[-69.0422,-27.6786],[-69.0434,-27.6987],[-69.063,-27.708],[-69.0683,-27.708],[-69.0846,-27.715],[-69.0889,-27.7207],[-69.0831,-27.7259],[-69.0841,-27.7351],[-69.0879,-27.74],[-69.0847,-27.7444],[-69.0852,-27.7552],[-69.0892,-27.765],[-69.0884,-27.771],[-69.0901,-27.7871],[-69.0953,-27.7948],[-68.9316,-27.7732],[-68.799,-27.7557],[-68.7853,-27.7682],[-68.7775,-27.7691],[-68.7604,-27.7776],[-68.7414,-27.7826],[-68.7343,-27.7876],[-68.7255,-27.7886],[-68.7222,-27.7924],[-68.7295,-27.8058],[-68.7217,-27.8077],[-68.716,-27.8152],[-68.7029,-27.8159],[-68.6816,-27.8105],[-68.6652,-27.8099],[-68.641,-27.802],[-68.6303,-27.7939],[-68.6242,-27.7917],[-68.6183,-27.797],[-68.6093,-27.7988],[-68.6046,-27.8067],[-68.5942,-27.8117],[-68.5879,-27.8188],[-68.5808,-27.8177],[-68.5811,-27.8088],[-68.5721,-27.7899],[-68.5669,-27.783],[-68.5632,-27.7704],[-68.5618,-27.7354],[-68.5562,-27.7304],[-68.5461,-27.7111],[-68.5372,-27.7152],[-68.534,-27.7336],[-68.5388,-27.7448],[-68.539,-27.7536],[-68.5349,-27.7667],[-68.5401,-27.7811],[-68.5391,-27.7854],[-68.5264,-27.8036],[-68.5215,-27.816],[-68.5187,-27.8302],[-68.5145,-27.8386],[-68.506,-27.8431],[-68.4898,-27.8466],[-68.4714,-27.8479],[-68.4583,-27.852],[-68.4555,-27.8627],[-68.4518,-27.8687],[-68.4403,-27.8737],[-68.4392,-27.8839],[-68.441,-27.8967],[-68.4491,-27.9167],[-68.4499,-27.9291],[-68.4538,-27.9392],[-68.4497,-27.9484],[-68.4536,-27.9567],[-68.4519,-27.9718],[-68.4541,-27.9779],[-68.4542,-27.9947],[-68.4611,-28.0048],[-68.4573,-28.0148],[-68.44,-28.0254],[-68.4353,-28.0239],[-68.4204,-28.0129],[-68.4143,-28.0119],[-68.411,-28.0068],[-68.4005,-28.0042],[-68.3939,-28.005],[-68.3841,-28.0119],[-68.3695,-28.0132],[-68.3517,-28.0172],[-68.3424,-28.0233],[-68.3386,-28.0365],[-68.3358,-28.0376],[-68.3202,-28.0306],[-68.312,-28.0245],[-68.2943,-28.0234],[-68.2862,-28.0265],[-68.2904,-28.0321],[-68.2941,-28.046],[-68.2922,-28.0545],[-68.2961,-28.0626],[-68.2943,-28.0722],[-68.2897,-28.0808],[-68.281,-28.0869],[-68.2747,-28.0951],[-68.2695,-28.0943],[-68.2632,-28.0873],[-68.2552,-28.0834],[-68.2533,-28.0736],[-68.2462,-28.0711],[-68.2395,-28.0798],[-68.2341,-28.0823],[-68.2193,-28.0815],[-68.2018,-28.0833],[-68.1914,-28.0876],[-68.1831,-28.086],[-68.1723,-28.0923],[-68.1649,-28.1084],[-68.152,-28.1077],[-68.1412,-28.1018],[-68.1373,-28.1179],[-68.1296,-28.1224],[-68.1287,-28.1306],[-68.1243,-28.1363],[-68.1235,-28.15],[-68.1175,-28.1594],[-68.1121,-28.1588],[-68.1109,-28.1708],[-68.1023,-28.1735],[-68.0976,-28.1697],[-68.0799,-28.1668],[-68.0715,-28.1625],[-68.0694,-28.1541],[-68.0627,-28.1462],[-68.0538,-28.1398],[-68.0435,-28.1436],[-68.0344,-28.1444],[-68.0236,-28.1385],[-68.0224,-28.1247],[-68.0019,-28.1199],[-67.979,-28.1167],[-67.9572,-28.1101],[-67.938,-28.108],[-67.9149,-28.1141],[-67.9143,-28.1172],[-67.9217,-28.1266],[-67.9247,-28.138],[-67.926,-28.1586],[-67.922,-28.1629],[-67.9222,-28.1739],[-67.9127,-28.1854],[-67.9104,-28.1992],[-67.9116,-28.2089],[-67.8998,-28.2105],[-67.8988,-28.2181],[-67.9057,-28.2212],[-67.9052,-28.2331],[-67.8938,-28.2496],[-67.8942,-28.2591],[-67.8824,-28.269],[-67.8737,-28.2694],[-67.8741,-28.2783],[-67.8716,-28.2855],[-67.8559,-28.2976],[-67.8414,-28.3133],[-67.8424,-28.3211],[-67.8465,-28.326],[-67.8468,-28.3485],[-67.8487,-28.3531],[-67.8463,-28.3744],[-67.8346,-28.3764],[-67.8235,-28.3716],[-67.8156,-28.376],[-67.8058,-28.3496],[-67.7794,-28.3482],[-67.7717,-28.3528],[-67.7564,-28.3537],[-67.7625,-28.3341],[-67.7612,-28.3299],[-67.7525,-28.3282],[-67.7412,-28.3232],[-67.7389,-28.32],[-67.7202,-28.3211],[-67.7083,-28.3177],[-67.7067,-28.3144],[-67.688,-28.312],[-67.4464,-28.368],[-67.3753,-28.3845],[-67.1554,-28.3844],[-67.0747,-28.2702],[-67.0598,-28.2701],[-67.0559,-28.272],[-67.0473,-28.2681],[-67.0436,-28.2628],[-67.0302,-28.2617],[-67.0297,-28.2581],[-67.0257,-28.2544],[-66.9182,-28.1225],[-66.8453,-28.033],[-67.0007,-28.0322],[-67.2295,-28.0285],[-67.2333,-28.0317],[-67.2574,-28.0448],[-67.2629,-28.0522],[-67.2867,-28.045],[-67.2953,-28.0461],[-67.3033,-28.0409],[-67.3137,-28.0483],[-67.3249,-28.054],[-67.3333,-28.0483],[-67.3401,-28.0364],[-67.3488,-28.0314],[-67.3505,-28.0153],[-67.3423,-28.0073],[-67.3418,-27.9891],[-67.3452,-27.9857],[-67.3435,-27.9718],[-67.3378,-27.9639],[-67.3402,-27.9557],[-67.341,-27.9399],[-67.3332,-27.9375],[-67.3307,-27.9262],[-67.3261,-27.9147],[-67.3362,-27.9133],[-67.3489,-27.9201],[-67.3529,-27.9029],[-67.3494,-27.8889],[-67.3559,-27.8837],[-67.3582,-27.8661],[-67.3569,-27.8575],[-67.3594,-27.8496],[-67.356,-27.8398],[-67.3617,-27.83],[-67.3603,-27.8247],[-67.3513,-27.8117],[-67.3513,-27.8032],[-67.3458,-27.7913],[-67.334,-27.7908],[-67.3299,-27.783],[-67.3233,-27.777],[-67.3152,-27.778],[-67.3085,-27.7659],[-67.3024,-27.7444],[-67.2939,-27.7405],[-67.292,-27.7325],[-67.3039,-27.73],[-67.305,-27.7252],[-67.3111,-27.7196],[-67.3168,-27.7091],[-67.3171,-27.7043],[-67.3278,-27.6991],[-67.3356,-27.6901],[-67.3372,-27.6846],[-67.357,-27.6822],[-67.3558,-27.6743],[-67.3403,-27.6567],[-67.3349,-27.6451],[-67.3327,-27.634],[-67.3273,-27.6312],[-67.3322,-27.6241],[-67.3233,-27.6101],[-67.3215,-27.5974],[-67.3135,-27.5904],[-67.3159,-27.5753],[-67.3092,-27.5694],[-67.3056,-27.5578],[-67.2991,-27.5542],[-67.2958,-27.5404],[-67.288,-27.5303],[-67.2868,-27.5252],[-67.2789,-27.5199],[-67.2739,-27.5091],[-67.2549,-27.4847],[-67.2398,-27.4724],[-67.2375,-27.4655],[-67.2448,-27.4629],[-67.2496,-27.4547],[-67.266,-27.4511],[-67.2669,-27.4471],[-67.2826,-27.4427],[-67.2857,-27.4392],[-67.2973,-27.4387],[-67.2996,-27.4257],[-67.2983,-27.4182],[-67.3008,-27.4121],[-67.2976,-27.4031],[-67.2912,-27.3964],[-67.3003,-27.3852],[-67.3071,-27.374],[-67.3031,-27.3676],[-67.2907,-27.3588],[-67.2783,-27.3583],[-67.2737,-27.3525],[-67.2587,-27.351],[-67.2582,-27.3423],[-67.2674,-27.3391],[-67.2758,-27.3296],[-67.2836,-27.3251],[-67.2922,-27.3031],[-67.29,-27.2945],[-67.2927,-27.2887],[-67.2876,-27.2819],[-67.2876,-27.273],[-67.285,-27.2654],[-67.2791,-27.2597],[-67.2718,-27.2571],[-67.2774,-27.2487],[-67.2798,-27.2321],[-67.2773,-27.2286],[-67.2687,-27.2307],[-67.2647,-27.2251],[-67.2659,-27.2149],[-67.2735,-27.2049],[-67.2699,-27.2014],[-67.2706,-27.1927],[-67.2677,-27.1784],[-67.2724,-27.1759],[-67.2722,-27.1667],[-67.2631,-27.1679],[-67.2637,-27.1619],[-67.2759,-27.1493],[-67.2809,-27.1388],[-67.2782,-27.1274],[-67.2784,-27.1136],[-67.2813,-27.1116],[-67.2808,-27.1012],[-67.2894,-27.0967],[-67.2938,-27.0879],[-67.2933,-27.0812],[-67.2877,-27.0732],[-67.2843,-27.0608],[-67.2854,-27.057],[-67.2759,-27.0444],[-67.2739,-27.0214],[-67.2711,-27.0168],[-67.2768,-27.0085],[-67.2732,-26.9966],[-67.2648,-26.9951],[-67.2633,-26.9874],[-67.2566,-26.9851],[-67.2549,-26.978],[-67.2489,-26.9742],[-67.2498,-26.967],[-67.2474,-26.9537],[-67.2491,-26.9428],[-67.2403,-26.94],[-67.2342,-26.9324],[-67.2289,-26.9192],[-67.2205,-26.9247],[-67.2133,-26.9265],[-67.2038,-26.9194],[-67.1989,-26.9115],[-67.2029,-26.9026],[-67.2034,-26.8927],[-67.2009,-26.8842],[-67.1849,-26.8838],[-67.1745,-26.8734],[-67.1671,-26.8689],[-67.1633,-26.8623],[-67.165,-26.851],[-67.1503,-26.8411],[-67.1488,-26.8317],[-67.1508,-26.8219],[-67.1611,-26.8125],[-67.175,-26.7937],[-67.2011,-26.7683],[-67.2113,-26.7538],[-67.2251,-26.7372],[-67.2615,-26.7146],[-67.281,-26.7001],[-67.2838,-26.7021]]]},"properties":{"id":345,"departamento":"TINOGASTA","cabecera":"TINOGASTA","provincia":"CATAMARCA"}},
{"type":"Feature","geometry":{"type":"Polygon","coordinates":[[[-65.681,-28.8305],[-65.6837,-28.823],[-65.6825,-28.8158],[-65.6771,-28.8113],[-65.6712,-28.8018],[-65.6633,-28.801],[-65.6513,-28.7879],[-65.6505,-28.7697],[-65.657,-28.7587],[-65.6567,-28.7494],[-65.6652,-28.7382],[-65.6688,-28.7231],[-65.6675,-28.7163],[-65.6734,-28.6974],[-65.6739,-28.6882],[-65.6616,-28.6849],[-65.6648,-28.6771],[-65.6625,-28.6642],[-65.647,-28.6366],[-65.6433,-28.6274],[-65.6362,-28.6228],[-65.6296,-28.6144],[-65.6294,-28.6096],[-65.6236,-28.6026],[-65.6228,-28.5935],[-65.6292,-28.5901],[-65.6295,-28.5799],[-65.6224,-28.5761],[-65.62,-28.5696],[-65.6193,-28.5585],[-65.6167,-28.5498],[-65.619,-28.5454],[-65.6125,-28.538],[-65.6078,-28.5257],[-65.5999,-28.5197],[-65.6026,-28.5024],[-65.6025,-28.492],[-65.5985,-28.4826],[-65.593,-28.4793],[-65.5919,-28.4716],[-65.5857,-28.4674],[-65.573,-28.4488],[-65.5719,-28.4414],[-65.5651,-28.4336],[-65.566,-28.4263],[-65.5602,-28.4208],[-65.6656,-28.4211],[-65.6636,-28.4266],[-65.6731,-28.4381],[-65.6724,-28.443],[-65.6841,-28.4481],[-65.6873,-28.4391],[-65.7037,-28.4356],[-65.7109,-28.4295],[-65.7272,-28.4281],[-65.7258,-28.4385],[-65.7298,-28.4399],[-65.7302,-28.4538],[-65.7433,-28.4618],[-65.7603,-28.4747],[-65.7695,-28.4858],[-65.7747,-28.501],[-65.7764,-28.5178],[-65.7813,-28.5302],[-65.7775,-28.5401],[-65.7836,-28.5439],[-65.7834,-28.5505],[-65.7913,-28.5563],[-65.7853,-28.5615],[-65.7893,-28.5669],[-65.7905,-28.5864],[-65.8013,-28.5926],[-65.7991,-28.6042],[-65.8001,-28.6128],[-65.807,-28.6217],[-65.8092,-28.6345],[-65.8055,-28.647],[-65.7973,-28.6565],[-65.7983,-28.6618],[-65.7943,-28.6691],[-65.8052,-28.6861],[-65.8101,-28.6889],[-65.8095,-28.6946],[-65.8137,-28.6989],[-65.8281,-28.7029],[-65.8347,-28.7169],[-65.8359,-28.7254],[-65.8469,-28.736],[-65.8518,-28.745],[-65.845,-28.7488],[-65.8095,-28.7561],[-65.7347,-28.7567],[-65.719,-28.7614],[-65.7139,-28.7655],[-65.7097,-28.7771],[-65.7034,-28.7829],[-65.6926,-28.7829],[-65.6887,-28.7876],[-65.6893,-28.8037],[-65.6854,-28.8251],[-65.681,-28.8305]]]},"properties":{"id":512,"departamento":"VALLE VIEJO","cabecera":"SAN ISIDRO","provincia":"CATAMARCA"}},
{"type":"Feature","geometry":{"type":"Polygon","coordinates":[[[-65.7272,-28.4281],[-65.7109,-28.4295],[-65.7037,-28.4356],[-65.6873,-28.4391],[-65.6841,-28.4481],[-65.6724,-28.443],[-65.6731,-28.4381],[-65.6636,-28.4266],[-65.6656,-28.4211],[-65.6638,-28.4063],[-65.6656,-28.4015],[-65.6601,-28.3887],[-65.6641,-28.384],[-65.6647,-28.3766],[-65.6711,-28.3732],[-65.6723,-28.3626],[-65.6655,-28.3467],[-65.6677,-28.3418],[-65.6644,-28.335],[-65.671,-28.3337],[-65.6837,-28.3209],[-65.6974,-28.319],[-65.6995,-28.3055],[-65.705,-28.2903],[-65.7112,-28.2833],[-65.7127,-28.2772],[-65.7187,-28.2695],[-65.7171,-28.2594],[-65.7239,-28.2554],[-65.7236,-28.2359],[-65.7292,-28.2312],[-65.7306,-28.2357],[-65.745,-28.2377],[-65.7472,-28.245],[-65.7713,-28.2455],[-65.7753,-28.2409],[-65.7835,-28.2439],[-65.7911,-28.2429],[-65.81,-28.2492],[-65.8143,-28.2623],[-65.8092,-28.2685],[-65.8077,-28.282],[-65.8031,-28.2963],[-65.7882,-28.3166],[-65.782,-28.3322],[-65.7757,-28.3335],[-65.7756,-28.3444],[-65.7689,-28.3603],[-65.7598,-28.3695],[-65.7624,-28.3755],[-65.758,-28.3845],[-65.7402,-28.3791],[-65.7389,-28.3831],[-65.7282,-28.386],[-65.7303,-28.4005],[-65.7281,-28.4077],[-65.7297,-28.4237],[-65.7272,-28.4281]]]},"properties":{"id":513,"departamento":"FRAY MAMERTO ESQUIU","cabecera":"SAN JOSE","provincia":"CATAMARCA"}}
]}