{"type":"FeatureCollection", "features": [
{"type":"Feature","geometry":{"type":"Polygon","coordinates":[[[-60.1019,-26.3047],[-60.202,-26.3039],[-60.2058,-26.6345],[-60.2288,-26.6264],[-60.3218,-26.8364],[-60.4137,-27.0471],[-60.2729,-27.0966],[-60.2065,-26.9455],[-60.0889,-26.6755],[-60.006,-26.7043],[-60.0025,-26.3957],[-60.0024,-26.3056],[-60.1019,-26.3047]]]},"properties":{"id":309,"departamento":"QUITILIPI","cabecera":"QUITILIPI","provincia":"CHACO"}},
{"type":"Feature","geometry":{"type":"Polygon","coordinates":[[[-59.5546,-27.0147],[-59.5544,-26.9852],[-59.6049,-26.9849],[-59.6052,-26.8048],[-59.7031,-26.8054],[-59.7035,-26.7136],[-59.8533,-26.7138],[-59.8548,-26.7572],[-59.9421,-26.9594],[-60.0374,-27.1788],[-60.0118,-27.1991],[-60.0112,-27.2886],[-59.7087,-27.2892],[-59.7064,-27.2867],[-59.5972,-27.2864],[-59.6014,-27.2826],[-59.5551,-27.2418],[-59.5546,-27.0147]]]},"properties":{"id":310,"departamento":"PRESIDENCIA DE LA PLAZA","cabecera":"PRESIDENCIA DE LA PLAZA","provincia":"CHACO"}},
{"type":"Feature","geometry":{"type":"Polygon","coordinates":[[[-60.4137,-27.0471],[-60.5131,-27.012],[-60.5166,-27.2765],[-60.519,-27.4664],[-60.4684,-27.4668],[-60.4697,-27.6475],[-60.5237,-27.647],[-60.5229,-27.739],[-60.2163,-27.74],[-60.2155,-27.4682],[-60.2152,-27.2871],[-60.2132,-27.2871],[-60.2124,-27.1179],[-60.2729,-27.0966],[-60.4137,-27.0471]]]},"properties":{"id":311,"departamento":"SAN LORENZO","cabecera":"VILLA BERTHET","provincia":"CHACO"}},
{"type":"Feature","geometry":{"type":"Polygon","coordinates":[[[-60.5131,-27.012],[-60.6159,-26.9757],[-60.6159,-27.059],[-60.8171,-27.0573],[-60.8176,-27.1445],[-60.8186,-27.2001],[-60.8451,-27.1821],[-60.9064,-27.254],[-60.8205,-27.3126],[-60.8215,-27.3682],[-60.8215,-27.3721],[-60.9105,-27.4021],[-60.9102,-27.4621],[-60.519,-27.4664],[-60.5166,-27.2765],[-60.5131,-27.012]]]},"properties":{"id":312,"departamento":"O'HIGGINS","cabecera":"SAN BERNARDO","provincia":"CHACO"}},
{"type":"Feature","geometry":{"type":"Polygon","coordinates":[[[-60.8176,-27.1445],[-60.9817,-27.0324],[-61.2163,-26.8718],[-61.1911,-26.8423],[-61.3357,-26.8411],[-61.333,-26.6603],[-61.3839,-26.6596],[-61.7112,-26.6545],[-61.7115,-26.7587],[-61.6621,-26.7932],[-61.4119,-26.9652],[-61.259,-27.0703],[-61.0256,-27.2296],[-60.8215,-27.3682],[-60.8205,-27.3126],[-60.9064,-27.254],[-60.8451,-27.1821],[-60.8186,-27.2001],[-60.8176,-27.1445]]]},"properties":{"id":313,"departamento":"9 DE JULIO","cabecera":"LAS BRENAS","provincia":"CHACO"}},
{"type":"Feature","geometry":{"type":"Polygon","coordinates":[[[-61.0226,-27.4805],[-61.3647,-27.4816],[-61.5708,-27.482],[-61.57,-27.7167],[-61.5696,-27.7968],[-61.2413,-27.7957],[-61.2413,-27.7072],[-61.1304,-27.7068],[-61.1301,-27.6368],[-61.0193,-27.6367],[-61.022,-27.597],[-61.0226,-27.4805]]]},"properties":{"id":314,"departamento":"2 DE ABRIL","cabecera":"HERMOSO CAMPO","provincia":"CHACO"}},
{"type":"Feature","geometry":{"type":"Polygon","coordinates":[[[-60.0112,-27.2886],[-60.2132,-27.2871],[-60.2152,-27.2871],[-60.2155,-27.4682],[-60.2163,-27.74],[-60.2166,-27.8922],[-60.2167,-27.9994],[-59.8112,-27.9994],[-59.4014,-27.9994],[-59.4045,-27.7399],[-59.405,-27.4696],[-59.5831,-27.4701],[-59.5819,-27.3005],[-59.5972,-27.2864],[-59.7064,-27.2867],[-59.7087,-27.2892],[-60.0112,-27.2886]]]},"properties":{"id":315,"departamento":"TAPENAGA","cabecera":"CHARADAI","provincia":"CHACO"}},
{"type":"Feature","geometry":{"type":"Polygon","coordinates":[[[-59.405,-27.4696],[-59.405,-27.4515],[-59.2103,-27.4509],[-59.1704,-27.4153],[-59.1159,-27.4632],[-58.9717,-27.3364],[-59.0292,-27.2854],[-59.0461,-27.2998],[-59.0628,-27.2879],[-59.0867,-27.2352],[-59.1724,-27.1568],[-59.2332,-27.2098],[-59.2696,-27.2497],[-59.2868,-27.2348],[-59.3291,-27.2742],[-59.3183,-27.284],[-59.4604,-27.4118],[-59.5819,-27.3005],[-59.5831,-27.4701],[-59.405,-27.4696]]]},"properties":{"id":316,"departamento":"LIBERTAD","cabecera":"PUERTO TIROL","provincia":"CHACO"}},
{"type":"Feature","geometry":{"type":"Polygon","coordinates":[[[-60.519,-27.4664],[-60.9102,-27.4621],[-60.9105,-27.4021],[-60.9974,-27.4022],[-60.9972,-27.4197],[-60.9966,-27.4807],[-61.0226,-27.4805],[-61.022,-27.597],[-61.0193,-27.6367],[-61.0143,-27.6367],[-61.0143,-27.7956],[-61.002,-27.7958],[-60.9099,-27.7959],[-60.91,-27.9072],[-60.91,-27.9978],[-60.91,-27.9994],[-60.2167,-27.9994],[-60.2166,-27.8922],[-60.2163,-27.74],[-60.5229,-27.739],[-60.5237,-27.647],[-60.4697,-27.6475],[-60.4684,-27.4668],[-60.519,-27.4664]]]},"properties":{"id":317,"departamento":"MAYOR LUIS J. FONTANA","cabecera":"VILLA ANGELA","provincia":"CHACO"}},
{"type":"Feature","geometry":{"type":"Polygon","coordinates":[[[-61.57,-27.7167],[-61.7108,-27.7162],[-61.7112,-27.7162],[-61.7113,-27.9994],[-60.91,-27.9994],[-60.91,-27.9978],[-60.91,-27.9072],[-60.9099,-27.7959],[-61.002,-27.7958],[-61.0143,-27.7956],[-61.0143,-27.6367],[-61.0193,-27.6367],[-61.1301,-27.6368],[-61.1304,-27.7068],[-61.2413,-27.7072],[-61.2413,-27.7957],[-61.5696,-27.7968],[-61.57,-27.7167]]]},"properties":{"id":318,"departamento":"FRAY JUSTO SANTA MARIA DE ORO","cabecera":"SANTA SYLVINA","provincia":"CHACO"}},
{"type":"Feature","geometry":{"type":"Polygon","coordinates":[[[-61.0226,-27.4805],[-60.9966,-27.4807],[-60.9972,-27.4197],[-61.1963,-27.2845],[-61.3165,-27.2013],[-61.4322,-27.124],[-61.6038,-27.0059],[-61.6906,-26.9461],[-61.7112,-26.9318],[-61.7112,-27.7162],[-61.7108,-27.7162],[-61.57,-27.7167],[-61.5708,-27.482],[-61.3647,-27.4816],[-61.0226,-27.4805]]]},"properties":{"id":320,"departamento":"12 DE OCTUBRE","cabecera":"GENERAL PINEDO","provincia":"CHACO"}},
{"type":"Feature","geometry":{"type":"Polygon","coordinates":[[[-60.8215,-27.3682],[-61.0256,-27.2296],[-61.259,-27.0703],[-61.4119,-26.9652],[-61.6621,-26.7932],[-61.7115,-26.7587],[-61.7112,-26.9318],[-61.6906,-26.9461],[-61.6038,-27.0059],[-61.4322,-27.124],[-61.3165,-27.2013],[-61.1963,-27.2845],[-60.9972,-27.4197],[-60.9974,-27.4022],[-60.9105,-27.4021],[-60.8215,-27.3721],[-60.8215,-27.3682]]]},"properties":{"id":321,"departamento":"CHACABUCO","cabecera":"CHARATA","provincia":"CHACO"}},
{"type":"Feature","geometry":{"type":"Polygon","coordinates":[[[-59.5546,-27.0147],[-59.4031,-27.0143],[-59.403,-27.0305],[-59.3527,-27.0302],[-59.3527,-26.984],[-59.3018,-26.984],[-59.3023,-27.0182],[-59.1701,-26.9024],[-59.1703,-26.8717],[-59.1552,-26.8716],[-59.1557,-26.8203],[-59.2018,-26.8206],[-59.2019,-26.8034],[-59.4528,-26.8043],[-59.4532,-26.7141],[-59.5038,-26.7142],[-59.5042,-26.6239],[-59.7035,-26.6237],[-59.7038,-26.5337],[-59.8039,-26.5329],[-59.8539,-26.5325],[-59.8533,-26.7138],[-59.7035,-26.7136],[-59.7031,-26.8054],[-59.6052,-26.8048],[-59.6049,-26.9849],[-59.5544,-26.9852],[-59.5546,-27.0147]]]},"properties":{"id":303,"departamento":"SARGENTO CABRAL","cabecera":"COLONIA ELISA","provincia":"CHACO"}},
{"type":"Feature","geometry":{"type":"Polygon","coordinates":[[[-60.2288,-26.6264],[-60.5097,-26.5271],[-60.583,-26.6948],[-60.6952,-26.9477],[-60.6159,-26.9757],[-60.5131,-27.012],[-60.4137,-27.0471],[-60.3218,-26.8364],[-60.2288,-26.6264]]]},"properties":{"id":304,"departamento":"COMANDANTE FERNANDEZ","cabecera":"PRESIDENCIA ROQUE SAENZ PEÑA","provincia":"CHACO"}},
{"type":"Feature","geometry":{"type":"Polygon","coordinates":[[[-60.6159,-26.9757],[-60.6952,-26.9477],[-60.583,-26.6948],[-60.5097,-26.5271],[-60.7899,-26.4267],[-60.9017,-26.6793],[-60.9302,-26.6636],[-60.9904,-26.6631],[-60.9928,-26.8436],[-61.0061,-26.845],[-60.8831,-26.9287],[-60.8517,-26.8918],[-60.8172,-26.9042],[-60.8171,-27.0573],[-60.6159,-27.059],[-60.6159,-26.9757]]]},"properties":{"id":305,"departamento":"INDEPENDENCIA","cabecera":"CAMPO LARGO","provincia":"CHACO"}},
{"type":"Feature","geometry":{"type":"Polygon","coordinates":[[[-60.8171,-27.0573],[-60.8172,-26.9042],[-60.8517,-26.8918],[-60.8831,-26.9287],[-61.0061,-26.845],[-60.9928,-26.8436],[-60.9904,-26.6631],[-61.333,-26.6603],[-61.3357,-26.8411],[-61.1911,-26.8423],[-61.2163,-26.8718],[-60.9817,-27.0324],[-60.8176,-27.1445],[-60.8171,-27.0573]]]},"properties":{"id":306,"departamento":"GENERAL BELGRANO","cabecera":"CORZUELA","provincia":"CHACO"}},
{"type":"Feature","geometry":{"type":"Polygon","coordinates":[[[-59.5972,-27.2864],[-59.5819,-27.3005],[-59.4604,-27.4118],[-59.3183,-27.284],[-59.3291,-27.2742],[-59.2868,-27.2348],[-59.2696,-27.2497],[-59.2332,-27.2098],[-59.1724,-27.1568],[-59.0295,-27.0288],[-59.1701,-26.9024],[-59.3023,-27.0182],[-59.3018,-26.984],[-59.3527,-26.984],[-59.3527,-27.0302],[-59.403,-27.0305],[-59.4031,-27.0143],[-59.5546,-27.0147],[-59.5551,-27.2418],[-59.6014,-27.2826],[-59.5972,-27.2864]]]},"properties":{"id":307,"departamento":"GENERAL DONOVAN","cabecera":"MAKALLE","provincia":"CHACO"}},
{"type":"Feature","geometry":{"type":"Polygon","coordinates":[[[-60.2729,-27.0966],[-60.2124,-27.1179],[-60.2132,-27.2871],[-60.0112,-27.2886],[-60.0118,-27.1991],[-60.0374,-27.1788],[-59.9421,-26.9594],[-59.8548,-26.7572],[-59.8533,-26.7138],[-59.8539,-26.5325],[-59.8039,-26.5329],[-59.8041,-26.3212],[-59.8523,-26.3213],[-59.8523,-26.3061],[-60.0024,-26.3056],[-60.0025,-26.3957],[-60.006,-26.7043],[-60.0889,-26.6755],[-60.2065,-26.9455],[-60.2729,-27.0966]]]},"properties":{"id":308,"departamento":"25 DE MAYO","cabecera":"MACHAGAI","provincia":"CHACO"}},
{"type":"Feature","geometry":{"type":"Polygon","coordinates":[[[-60.1019,-26.3047],[-60.0999,-26.1242],[-60.4094,-26.1212],[-60.8006,-26.1167],[-60.8059,-26.4209],[-60.7899,-26.4267],[-60.5097,-26.5271],[-60.2288,-26.6264],[-60.2058,-26.6345],[-60.202,-26.3039],[-60.1019,-26.3047]]]},"properties":{"id":302,"departamento":"MAIPU","cabecera":"TRES ISLETAS","provincia":"CHACO"}},
{"type":"Feature","geometry":{"type":"Polygon","coordinates":[[[-58.9717,-27.3364],[-58.8695,-27.4281],[-58.875,-27.4357],[-58.8756,-27.4367],[-58.8809,-27.4733],[-58.8749,-27.4886],[-58.8573,-27.4672],[-58.8086,-27.4237],[-58.7935,-27.3932],[-58.7728,-27.3782],[-58.7678,-27.3448],[-58.7672,-27.3441],[-58.769,-27.3269],[-58.7499,-27.3114],[-58.7354,-27.2889],[-58.7597,-27.2464],[-58.7586,-27.2198],[-58.7812,-27.2082],[-58.812,-27.1745],[-58.8349,-27.1677],[-58.8707,-27.1369],[-58.8657,-27.1243],[-58.9392,-27.1196],[-58.958,-27.0946],[-58.9537,-26.8706],[-59.1552,-26.8716],[-59.1703,-26.8717],[-59.1701,-26.9024],[-59.0295,-27.0288],[-59.1724,-27.1568],[-59.0867,-27.2352],[-59.0628,-27.2879],[-59.0461,-27.2998],[-59.0292,-27.2854],[-58.9717,-27.3364]]]},"properties":{"id":319,"departamento":"1° DE MAYO","cabecera":"MARGARITA BELEN","provincia":"CHACO"}},
{"type":"Feature","geometry":{"type":"Polygon","coordinates":[[[-58.7728,-27.3782],[-58.7456,-27.3822],[-58.7009,-27.3635],[-58.6688,-27.3591],[-58.6165,-27.3186],[-58.6162,-27.2997],[-58.5932,-27.2581],[-58.5974,-27.2209],[-58.6612,-27.1858],[-58.6636,-27.1637],[-58.6518,-27.1299],[-58.6211,-27.1123],[-58.559,-27.1101],[-58.5544,-27.035],[-58.5235,-27.0403],[-58.506,-27.0309],[-58.5195,-27.0054],[-58.5017,-26.9964],[-58.4768,-27.0025],[-58.4725,-26.9768],[-58.4982,-26.9363],[-58.4901,-26.9257],[-58.457,-26.9298],[-58.3809,-26.891],[-58.3794,-26.8718],[-58.3966,-26.8605],[-58.393,-26.8424],[-58.4223,-26.8353],[-58.4451,-26.8184],[-58.4789,-26.8229],[-58.4856,-26.806],[-58.5213,-26.757],[-58.5497,-26.7488],[-58.5691,-26.7277],[-58.5705,-26.7036],[-58.5798,-26.6859],[-58.611,-26.6815],[-58.6254,-26.6643],[-58.6532,-26.6594],[-58.6745,-26.6421],[-58.6886,-26.6035],[-58.8638,-26.7615],[-58.899,-26.7939],[-58.9212,-26.7819],[-58.9459,-26.795],[-58.9541,-26.7883],[-58.9537,-26.8706],[-58.958,-27.0946],[-58.9392,-27.1196],[-58.8657,-27.1243],[-58.8707,-27.1369],[-58.8349,-27.1677],[-58.812,-27.1745],[-58.7812,-27.2082],[-58.7586,-27.2198],[-58.7597,-27.2464],[-58.7354,-27.2889],[-58.7499,-27.3114],[-58.769,-27.3269],[-58.7672,-27.3441],[-58.7678,-27.3448],[-58.7728,-27.3782]]]},"properties":{"id":365,"departamento":"BERMEJO","cabecera":"LA LEONESA","provincia":"CHACO"}},
{"type":"Feature","geometry":{"type":"Polygon","coordinates":[[[-60.0024,-26.3056],[-59.8523,-26.3061],[-59.8523,-26.3213],[-59.8041,-26.3212],[-59.8039,-26.5329],[-59.7038,-26.5337],[-59.7035,-26.6237],[-59.5042,-26.6239],[-59.5038,-26.7142],[-59.4532,-26.7141],[-59.4528,-26.8043],[-59.2019,-26.8034],[-59.2018,-26.8206],[-59.1557,-26.8203],[-59.1552,-26.8716],[-58.9537,-26.8706],[-58.9541,-26.7883],[-58.9459,-26.795],[-58.9212,-26.7819],[-58.899,-26.7939],[-58.8638,-26.7615],[-58.6886,-26.6035],[-58.6955,-26.594],[-58.7408,-26.6045],[-58.7515,-26.5967],[-58.7706,-26.5387],[-58.7961,-26.535],[-58.797,-26.519],[-58.8233,-26.525],[-58.8568,-26.5089],[-58.8658,-26.4751],[-58.9098,-26.4626],[-58.9393,-26.4331],[-58.9591,-26.3972],[-58.9857,-26.38],[-59.0062,-26.3754],[-59.0241,-26.3812],[-59.0429,-26.3653],[-59.0685,-26.3742],[-59.0914,-26.3501],[-59.1172,-26.3408],[-59.1551,-26.315],[-59.1676,-26.2986],[-59.1846,-26.3063],[-59.2019,-26.3266],[-59.2265,-26.3394],[-59.2504,-26.3391],[-59.2777,-26.3498],[-59.3086,-26.3404],[-59.3143,-26.3189],[-59.3335,-26.3357],[-59.3779,-26.3208],[-59.3884,-26.3031],[-59.3811,-26.268],[-59.3993,-26.2562],[-59.4022,-26.2325],[-59.4139,-26.225],[-59.4187,-26.1962],[-59.4147,-26.1676],[-59.4348,-26.1536],[-59.4669,-26.152],[-59.4774,-26.1623],[-59.516,-26.1452],[-59.5355,-26.1413],[-59.5473,-26.1509],[-59.5672,-26.1489],[-59.5848,-26.1218],[-59.5955,-26.131],[-59.6188,-26.1173],[-59.6328,-26.1364],[-59.6571,-26.1347],[-59.655,-26.1157],[-59.6693,-26.1125],[-59.6825,-26.0895],[-59.6679,-26.0773],[-59.6786,-26.0541],[-59.6723,-26.0028],[-59.6961,-26.0065],[-59.7213,-25.991],[-59.7514,-25.9632],[-59.7579,-25.938],[-59.7555,-25.9189],[-59.7786,-25.9158],[-59.7948,-25.8967],[-59.8246,-25.8916],[-59.8437,-25.856],[-59.8696,-25.8354],[-59.8843,-25.805],[-59.9306,-25.766],[-59.9463,-25.7636],[-59.9643,-25.7735],[-59.9861,-25.7485],[-59.9825,-25.7207],[-60.0092,-25.7364],[-60.0239,-25.6958],[-60.045,-25.6942],[-60.062,-25.6813],[-60.099,-25.6689],[-60.0993,-26.034],[-60.0999,-26.1242],[-60.1019,-26.3047],[-60.0024,-26.3056]]]},"properties":{"id":366,"departamento":"LIBERTADOR GENERAL SAN MARTIN","cabecera":"GENERAL JOSE SAN MARTIN","provincia":"CHACO"}},
{"type":"Feature","geometry":{"type":"Polygon","coordinates":[[[-60.0999,-26.1242],[-60.0993,-26.034],[-60.099,-25.6689],[-60.1424,-25.6419],[-60.1729,-25.6539],[-60.199,-25.6007],[-60.2199,-25.5998],[-60.2132,-25.5795],[-60.2399,-25.5525],[-60.223,-25.5257],[-60.2283,-25.4801],[-60.2584,-25.4631],[-60.2748,-25.469],[-60.2826,-25.4332],[-60.3046,-25.4224],[-60.3359,-25.3929],[-60.3554,-25.3501],[-60.3484,-25.3386],[-60.384,-25.3239],[-60.3968,-25.3313],[-60.4195,-25.3179],[-60.4507,-25.2564],[-60.4876,-25.2317],[-60.5172,-25.1842],[-60.5296,-25.1718],[-60.5512,-25.1721],[-60.5619,-25.1926],[-60.5921,-25.1687],[-60.6117,-25.1604],[-60.6248,-25.1664],[-60.6646,-25.1597],[-60.6708,-25.1478],[-60.6579,-25.111],[-60.6943,-25.1235],[-60.7176,-25.1248],[-60.7382,-25.1145],[-60.7657,-25.0873],[-60.7541,-25.0767],[-60.8028,-25.065],[-60.8164,-25.0715],[-60.8316,-25.0514],[-60.8331,-25.0324],[-60.8763,-25.0344],[-60.8772,-25.0191],[-60.9007,-25.0192],[-60.9252,-25.0053],[-60.9382,-24.9876],[-60.9367,-24.9665],[-61.0141,-24.9245],[-61.0309,-24.8994],[-61.0471,-24.8902],[-61.1074,-24.8348],[-61.143,-24.809],[-61.1457,-24.791],[-61.1596,-24.7645],[-61.1561,-24.7402],[-61.1738,-24.7336],[-61.2084,-24.6967],[-61.2107,-24.6753],[-61.1982,-24.6643],[-61.232,-24.6397],[-61.251,-24.6438],[-61.2557,-24.6241],[-61.2905,-24.6261],[-61.3418,-24.6395],[-61.3812,-24.6137],[-61.4275,-24.6181],[-61.4443,-24.6067],[-61.4674,-24.6069],[-61.4865,-24.5748],[-61.5176,-24.5486],[-61.5262,-24.5337],[-61.525,-24.5132],[-61.5763,-24.4952],[-61.5964,-24.4793],[-61.582,-24.4537],[-61.5871,-24.4391],[-61.6075,-24.4483],[-61.61,-24.4237],[-61.6311,-24.4239],[-61.6397,-24.4346],[-61.6598,-24.4228],[-61.6976,-24.4134],[-61.7125,-24.3819],[-61.711,-24.3701],[-61.7325,-24.3585],[-61.7619,-24.3146],[-61.7853,-24.3167],[-61.7939,-24.3343],[-61.8135,-24.3136],[-61.848,-24.322],[-61.8462,-24.3049],[-61.8793,-24.3073],[-61.8888,-24.2742],[-61.9051,-24.3048],[-61.9203,-24.2839],[-61.904,-24.2778],[-61.9078,-24.2594],[-61.9339,-24.273],[-61.9522,-24.2562],[-61.9575,-24.2344],[-61.9868,-24.2294],[-62.0421,-24.2372],[-62.0599,-24.2132],[-62.0883,-24.202],[-62.1376,-24.2174],[-62.1383,-24.1875],[-62.1627,-24.1971],[-62.1806,-24.1893],[-62.1656,-24.1735],[-62.2139,-24.1507],[-62.2573,-24.1393],[-62.2799,-24.1279],[-62.3153,-24.1186],[-62.3115,-24.1013],[-62.3339,-24.0867],[-62.3419,-24.1079],[-62.3417,-24.3925],[-62.6634,-24.7664],[-62.72,-24.8323],[-62.6878,-24.833],[-62.2193,-24.8322],[-62.228,-24.9998],[-62.2321,-25.227],[-62.2366,-25.467],[-62.1402,-25.4683],[-61.8988,-25.4686],[-61.6743,-25.4682],[-61.3936,-25.4714],[-61.3942,-25.5624],[-61.1972,-25.5651],[-61.2041,-26.111],[-60.8006,-26.1167],[-60.4094,-26.1212],[-60.0999,-26.1242]]]},"properties":{"id":367,"departamento":"GENERAL GUEMES","cabecera":"JUAN JOSE CASTELLI","provincia":"CHACO"}},
{"type":"Feature","geometry":{"type":"Polygon","coordinates":[[[-59.4014,-27.9994],[-58.8839,-27.9994],[-58.8937,-28.0353],[-58.8808,-28.0668],[-58.8597,-28.0503],[-58.8607,-28.021],[-58.8293,-27.9619],[-58.8435,-27.914],[-58.8432,-27.8763],[-58.8235,-27.8395],[-58.8097,-27.7834],[-58.8188,-27.6812],[-58.8355,-27.6466],[-58.8691,-27.6235],[-58.8827,-27.6085],[-58.8714,-27.5799],[-58.8713,-27.5593],[-58.8812,-27.5287],[-58.8814,-27.4979],[-58.8749,-27.4886],[-58.8809,-27.4733],[-58.8756,-27.4367],[-58.875,-27.4357],[-58.8695,-27.4281],[-58.9717,-27.3364],[-59.1159,-27.4632],[-59.1704,-27.4153],[-59.2103,-27.4509],[-59.405,-27.4515],[-59.405,-27.4696],[-59.4045,-27.7399],[-59.4014,-27.9994]]]},"properties":{"id":447,"departamento":"SAN FERNANDO","cabecera":"RESISTENCIA","provincia":"CHACO"}},
{"type":"Feature","geometry":{"type":"Polygon","coordinates":[[[-61.333,-26.6603],[-60.9904,-26.6631],[-60.9302,-26.6636],[-60.9017,-26.6793],[-60.7899,-26.4267],[-60.8059,-26.4209],[-60.8006,-26.1167],[-61.2041,-26.111],[-61.1972,-25.5651],[-61.3942,-25.5624],[-61.3936,-25.4714],[-61.6743,-25.4682],[-61.8988,-25.4686],[-62.1402,-25.4683],[-62.2366,-25.467],[-62.2321,-25.227],[-62.228,-24.9998],[-62.2193,-24.8322],[-62.6878,-24.833],[-62.72,-24.8323],[-63.1139,-25.2903],[-63.4225,-25.649],[-61.9701,-25.6538],[-61.7111,-25.6547],[-61.7112,-25.9786],[-61.7112,-26.2353],[-61.7112,-26.6545],[-61.3839,-26.6596],[-61.333,-26.6603]]]},"properties":{"id":428,"departamento":"ALMIRANTE BROWN","cabecera":"PAMPA DEL INFIERNO","provincia":"CHACO"}}
]}