{"type":"FeatureCollection", "features": [
{"type":"Feature","geometry":{"type":"Polygon","coordinates":[[[-67.7739,-42.8826],[-67.7676,-43.3388],[-67.7674,-43.3518],[-67.7583,-43.9935],[-67.7481,-44.6849],[-67.1602,-44.6797],[-67.0942,-44.6789],[-67.0912,-44.7205],[-67.0765,-44.7137],[-67.0654,-44.6999],[-67.059,-44.6844],[-67.0482,-44.6684],[-67.0342,-44.6631],[-67.0178,-44.6533],[-67.0083,-44.6347],[-66.992,-44.6079],[-66.9743,-44.5924],[-66.9699,-44.5834],[-66.9697,-44.5675],[-66.959,-44.5518],[-66.9681,-44.5377],[-66.9673,-44.5293],[-66.9602,-44.5226],[-66.944,-44.5182],[-66.9391,-44.5107],[-66.9389,-44.4969],[-66.9313,-44.4809],[-66.925,-44.4751],[-66.9171,-44.4687],[-66.9089,-44.4575],[-66.8961,-44.4488],[-66.8788,-44.4267],[-66.8578,-44.412],[-66.8346,-44.3876],[-66.8234,-44.3635],[-66.8121,-44.3487],[-66.8068,-44.328],[-66.8069,-44.2899],[-66.8108,-44.2817],[-66.7958,-44.2593],[-66.7768,-44.2431],[-66.7579,-44.2331],[-66.7419,-44.2278],[-66.7117,-44.202],[-66.6969,-44.195],[-66.687,-44.167],[-66.6779,-44.1468],[-66.6742,-44.1302],[-66.6753,-44.1218],[-66.6845,-44.106],[-66.6806,-44.0942],[-66.6813,-44.082],[-66.6759,-44.0744],[-66.654,-44.0546],[-66.6285,-44.0196],[-66.6157,-44.0229],[-66.6048,-44.019],[-66.5718,-43.991],[-66.5509,-43.9929],[-66.5397,-43.9912],[-66.5249,-43.9842],[-66.507,-43.9795],[-66.4885,-43.9693],[-66.481,-43.9589],[-66.4779,-43.9454],[-66.4773,-43.9115],[-66.4745,-43.9033],[-66.4653,-43.8938],[-66.4393,-43.8752],[-66.4321,-43.8549],[-66.434,-43.8391],[-66.431,-43.83],[-66.4357,-43.8177],[-66.4563,-43.7985],[-66.4577,-43.7849],[-66.5246,-43.783],[-66.5255,-43.7685],[-66.5299,-43.3353],[-67.1054,-43.3401],[-67.1482,-43.3403],[-67.1492,-43.3247],[-67.1536,-42.879],[-67.7739,-42.8826]]]},"properties":{"id":294,"departamento":"MARTIRES","cabecera":"LAS PLUMAS","provincia":"CHUBUT"}},
{"type":"Feature","geometry":{"type":"Polygon","coordinates":[[[-67.7676,-43.3388],[-69.5585,-43.332],[-69.5314,-43.7847],[-69.5091,-44.1449],[-69.9187,-44.678],[-69.6268,-44.6814],[-69.0733,-44.6856],[-68.9122,-44.6864],[-68.3712,-44.6872],[-67.7481,-44.6849],[-67.7583,-43.9935],[-67.7674,-43.3518],[-67.7676,-43.3388]]]},"properties":{"id":295,"departamento":"PASO DE INDIOS","cabecera":"PASO DE LOS INDIOS","provincia":"CHUBUT"}},
{"type":"Feature","geometry":{"type":"Polygon","coordinates":[[[-69.5585,-43.332],[-69.5105,-42.8491],[-69.5053,-42.7968],[-69.53,-42.7739],[-69.5372,-42.7642],[-69.5406,-42.7495],[-69.5662,-42.7135],[-69.5921,-42.6961],[-69.6136,-42.6867],[-69.6236,-42.6865],[-69.6527,-42.6809],[-69.6725,-42.6802],[-69.6815,-42.6834],[-69.7167,-42.684],[-69.7364,-42.6814],[-69.7487,-42.675],[-69.772,-42.6558],[-69.7933,-42.6459],[-69.808,-42.6448],[-69.8206,-42.6337],[-69.8431,-42.6258],[-69.8626,-42.6239],[-69.8833,-42.6342],[-69.9178,-42.637],[-69.9426,-42.6347],[-69.9571,-42.6316],[-69.9645,-42.6362],[-69.9887,-42.6407],[-70.0009,-42.6516],[-70.0137,-42.6696],[-70.0242,-42.6736],[-70.0418,-42.673],[-70.0553,-42.6686],[-70.072,-42.6547],[-70.0913,-42.6429],[-70.1049,-42.6382],[-70.1483,-42.6293],[-70.2053,-42.6236],[-70.2198,-42.6261],[-70.2278,-42.6307],[-70.2444,-42.6348],[-70.2588,-42.6419],[-70.2663,-42.6413],[-70.2937,-42.6325],[-70.2954,-42.6221],[-70.3054,-42.617],[-70.3111,-42.6036],[-70.3267,-42.5963],[-70.3475,-42.6012],[-70.3493,-42.596],[-70.3682,-42.6015],[-70.371,-42.6057],[-70.39,-42.6174],[-70.3959,-42.6276],[-70.4155,-42.6391],[-70.4349,-42.6478],[-70.4393,-42.652],[-70.4509,-42.6726],[-70.5081,-42.7285],[-70.5367,-42.7633],[-70.5526,-42.7984],[-70.5554,-42.8093],[-70.5739,-42.8355],[-70.5885,-42.8506],[-70.5856,-42.8651],[-70.576,-42.8761],[-70.5744,-42.8904],[-70.5809,-42.9062],[-70.5641,-42.9222],[-70.5741,-42.9327],[-70.5778,-42.9435],[-70.5868,-42.9499],[-70.6051,-42.9559],[-70.6306,-42.9675],[-70.6583,-42.9671],[-70.6934,-42.9694],[-70.7006,-42.9735],[-70.7072,-42.9875],[-70.7158,-42.9967],[-70.7461,-43.0087],[-70.7748,-43.0151],[-70.7909,-43.0241],[-70.7855,-43.051],[-70.7922,-43.0689],[-70.7944,-43.0854],[-70.7924,-43.0983],[-70.7992,-43.1102],[-70.8155,-43.1243],[-70.8221,-43.1382],[-70.8233,-43.1549],[-70.8273,-43.1675],[-70.8274,-43.1934],[-70.8239,-43.2041],[-70.8248,-43.2226],[-70.8309,-43.2327],[-70.8459,-43.2453],[-70.8531,-43.2551],[-70.86,-43.2727],[-70.8744,-43.288],[-70.886,-43.3085],[-70.8799,-43.3263],[-70.8667,-43.3376],[-70.8628,-43.3634],[-70.8654,-43.378],[-70.8644,-43.3928],[-70.8584,-43.4069],[-70.862,-43.4138],[-70.8607,-43.4248],[-70.8451,-43.448],[-70.8486,-43.4586],[-70.8619,-43.4698],[-70.8746,-43.4858],[-70.8924,-43.5204],[-70.9131,-43.5415],[-70.9298,-43.5499],[-70.9627,-43.5597],[-70.9827,-43.5711],[-70.9956,-43.5825],[-71.0122,-43.6012],[-71.0235,-43.6085],[-71.0416,-43.6153],[-71.1032,-43.6332],[-71.1325,-43.628],[-71.1557,-43.6141],[-71.1774,-43.5937],[-71.1854,-43.5893],[-71.2109,-43.5889],[-71.2249,-43.5845],[-71.2362,-43.5771],[-71.2614,-43.5745],[-71.2902,-43.5672],[-71.3052,-43.5573],[-71.3187,-43.5523],[-71.3339,-43.5521],[-71.3581,-43.5578],[-71.4378,-43.5697],[-71.4528,-43.5682],[-71.4572,-43.5615],[-71.4685,-43.5543],[-71.4844,-43.5401],[-71.4942,-43.5383],[-71.5199,-43.5264],[-71.5496,-43.5303],[-71.5704,-43.5201],[-71.5857,-43.5211],[-71.6001,-43.5249],[-71.614,-43.5208],[-71.6329,-43.5241],[-71.6579,-43.5207],[-71.6723,-43.524],[-71.6743,-43.5347],[-71.6796,-43.541],[-71.683,-43.5438],[-71.6907,-43.5458],[-71.7085,-43.5419],[-71.718,-43.5425],[-71.7314,-43.5499],[-71.7477,-43.5671],[-71.7574,-43.5842],[-71.741,-43.5864],[-71.732,-43.5801],[-71.7178,-43.5793],[-71.7069,-43.585],[-71.7087,-43.5948],[-71.7066,-43.6079],[-71.7015,-43.615],[-71.7024,-43.6235],[-71.6898,-43.6275],[-71.6813,-43.625],[-71.6499,-43.6212],[-71.6254,-43.6242],[-71.6071,-43.629],[-71.5962,-43.6341],[-71.5805,-43.6542],[-71.5876,-43.6761],[-71.6114,-43.6768],[-71.602,-43.6875],[-71.6,-43.6979],[-71.6196,-43.7016],[-71.6277,-43.699],[-71.6363,-43.7042],[-71.6503,-43.7012],[-71.6608,-43.7042],[-71.6594,-43.7187],[-71.6675,-43.7238],[-71.684,-43.722],[-71.6968,-43.7271],[-71.7008,-43.7389],[-71.7287,-43.7628],[-71.736,-43.7785],[-71.7539,-43.788],[-71.7497,-43.7933],[-71.7489,-43.8096],[-71.7596,-43.8219],[-71.7584,-43.8335],[-71.7627,-43.8406],[-71.7567,-43.8459],[-71.7401,-43.8514],[-71.7315,-43.8605],[-71.7161,-43.8554],[-71.7085,-43.863],[-71.7027,-43.8772],[-71.7067,-43.895],[-71.6977,-43.8957],[-71.6948,-43.9026],[-71.6762,-43.9048],[-71.6654,-43.9017],[-71.6556,-43.9141],[-71.6499,-43.9258],[-71.6492,-43.9348],[-71.6189,-43.9315],[-71.609,-43.9297],[-71.5587,-43.9264],[-71.5081,-43.9253],[-71.4689,-43.9177],[-71.4341,-43.9026],[-71.4024,-43.8844],[-71.3839,-43.8789],[-71.3693,-43.8831],[-71.3717,-43.9354],[-71.1184,-43.9398],[-71.1162,-43.8493],[-70.9959,-43.8507],[-70.9923,-43.7609],[-70.617,-43.7686],[-69.9997,-43.7791],[-69.5314,-43.7847],[-69.5585,-43.332]]]},"properties":{"id":292,"departamento":"LANGUIÑEO","cabecera":"TECKA","provincia":"CHUBUT"}},
{"type":"Feature","geometry":{"type":"Polygon","coordinates":[[[-66.4577,-43.7849],[-66.097,-43.7756],[-65.6042,-43.765],[-65.4042,-43.7601],[-65.427,-43.3825],[-65.4332,-43.2653],[-65.4546,-42.8519],[-65.9427,-42.8623],[-67.1536,-42.879],[-67.1492,-43.3247],[-67.1482,-43.3403],[-67.1054,-43.3401],[-66.5299,-43.3353],[-66.5255,-43.7685],[-66.5246,-43.783],[-66.4577,-43.7849]]]},"properties":{"id":293,"departamento":"GAIMAN","cabecera":"GAIMAN","provincia":"CHUBUT"}},
{"type":"Feature","geometry":{"type":"Polygon","coordinates":[[[-65.4042,-43.7601],[-65.3534,-43.758],[-65.3545,-43.7423],[-65.3493,-43.725],[-65.351,-43.7187],[-65.3434,-43.7028],[-65.339,-43.6792],[-65.3412,-43.6747],[-65.3323,-43.6573],[-65.3144,-43.6397],[-65.3158,-43.6349],[-65.29,-43.6078],[-65.2867,-43.5993],[-65.2755,-43.5895],[-65.2694,-43.5891],[-65.2546,-43.5711],[-65.2282,-43.5556],[-65.2218,-43.5558],[-65.2042,-43.5434],[-65.1928,-43.5392],[-65.1942,-43.5337],[-65.1789,-43.5188],[-65.1738,-43.506],[-65.145,-43.4742],[-65.1308,-43.4601],[-65.0911,-43.4322],[-65.0853,-43.4253],[-65.0514,-43.4027],[-65.0432,-43.3832],[-65.0477,-43.3615],[-65.0551,-43.3521],[-65.0509,-43.3308],[-65.0431,-43.3177],[-64.9987,-43.273],[-64.9723,-43.2538],[-64.8908,-43.2088],[-64.847,-43.1881],[-64.7896,-43.1641],[-64.7356,-43.1438],[-64.7237,-43.1407],[-64.6817,-43.1259],[-64.651,-43.1177],[-64.6023,-43.1066],[-64.5828,-43.1006],[-64.5422,-43.0906],[-64.5239,-43.0836],[-64.4809,-43.07],[-64.4602,-43.0653],[-64.4405,-43.0512],[-64.4145,-43.0353],[-64.3907,-43.0268],[-64.3857,-43.022],[-64.37,-43.0156],[-64.3308,-43.0034],[-64.3227,-42.9906],[-64.3119,-42.9855],[-64.3064,-42.9787],[-64.308,-42.97],[-64.3156,-42.9651],[-64.3276,-42.9372],[-64.3409,-42.9354],[-64.3691,-42.9483],[-64.3875,-42.952],[-64.413,-42.9546],[-64.4374,-42.9501],[-64.4827,-42.9499],[-64.501,-42.9439],[-64.5089,-42.9335],[-64.5278,-42.9224],[-64.5409,-42.9204],[-64.5522,-42.9238],[-64.579,-42.9244],[-64.6099,-42.9227],[-64.6519,-42.9134],[-64.6703,-42.9052],[-64.6885,-42.901],[-64.6965,-42.8969],[-64.7019,-42.8834],[-64.7684,-42.8608],[-64.7996,-42.848],[-64.811,-42.8402],[-64.8361,-42.8404],[-64.856,-42.8364],[-65.016,-42.8405],[-65.0607,-42.8417],[-65.4546,-42.8519],[-65.4332,-43.2653],[-65.427,-43.3825],[-65.4042,-43.7601]]]},"properties":{"id":296,"departamento":"RAWSON","cabecera":"RAWSON","provincia":"CHUBUT"}},
{"type":"Feature","geometry":{"type":"Polygon","coordinates":[[[-69.5314,-43.7847],[-69.9997,-43.7791],[-70.617,-43.7686],[-70.9923,-43.7609],[-70.9959,-43.8507],[-71.1162,-43.8493],[-71.1184,-43.9398],[-71.3717,-43.9354],[-71.3693,-43.8831],[-71.3839,-43.8789],[-71.4024,-43.8844],[-71.4341,-43.9026],[-71.4689,-43.9177],[-71.5081,-43.9253],[-71.5587,-43.9264],[-71.609,-43.9297],[-71.6189,-43.9315],[-71.6492,-43.9348],[-71.6482,-43.9466],[-71.6557,-43.9512],[-71.6605,-43.9641],[-71.6723,-43.9717],[-71.6788,-43.9715],[-71.6843,-43.9892],[-71.6945,-43.9994],[-71.7005,-44.0116],[-71.7119,-44.0205],[-71.7169,-44.0312],[-71.7154,-44.0382],[-71.7221,-44.0496],[-71.7364,-44.0657],[-71.737,-44.0728],[-71.7459,-44.0758],[-71.7505,-44.0915],[-71.7685,-44.1072],[-71.7813,-44.1115],[-71.8245,-44.1141],[-71.8351,-44.1069],[-71.8477,-44.111],[-71.8517,-44.1265],[-71.8413,-44.1463],[-71.8477,-44.155],[-71.8409,-44.1639],[-71.8281,-44.1667],[-71.8105,-44.1866],[-71.799,-44.1932],[-71.8018,-44.1972],[-71.7981,-44.2088],[-71.8006,-44.2146],[-71.7887,-44.2222],[-71.8077,-44.2281],[-71.813,-44.2386],[-71.8054,-44.2473],[-71.8089,-44.2604],[-71.8269,-44.2599],[-71.8287,-44.2667],[-71.8094,-44.2691],[-71.804,-44.2785],[-71.8088,-44.2882],[-71.7939,-44.3045],[-71.7872,-44.3313],[-71.8019,-44.338],[-71.8134,-44.3383],[-71.8181,-44.3433],[-71.8386,-44.3501],[-71.8288,-44.3604],[-71.8342,-44.3658],[-71.8174,-44.3744],[-71.8208,-44.3886],[-71.8037,-44.3963],[-71.8054,-44.4036],[-71.8143,-44.4157],[-71.8002,-44.4179],[-71.7956,-44.4147],[-71.7486,-44.3974],[-71.7353,-44.3978],[-71.7188,-44.3888],[-71.7136,-44.3794],[-71.6951,-44.3816],[-71.6947,-44.3934],[-71.6689,-44.407],[-71.6514,-44.4065],[-71.6393,-44.3974],[-71.6172,-44.3985],[-71.6111,-44.4021],[-71.5887,-44.3987],[-71.5833,-44.4049],[-71.5587,-44.4089],[-71.5392,-44.4067],[-71.5222,-44.3969],[-71.5089,-44.3938],[-71.494,-44.3994],[-71.4865,-44.3989],[-71.4656,-44.3888],[-71.4548,-44.3945],[-71.4435,-44.3961],[-71.4188,-44.3889],[-71.4085,-44.3927],[-71.3889,-44.3854],[-71.3527,-44.4034],[-71.3567,-44.4095],[-71.3493,-44.4247],[-71.3335,-44.4193],[-71.3246,-44.4275],[-71.3122,-44.4296],[-71.3083,-44.4242],[-71.2677,-44.4238],[-71.2509,-44.4174],[-71.2337,-44.4228],[-71.2249,-44.4355],[-71.2092,-44.4333],[-71.1839,-44.441],[-71.1694,-44.4405],[-71.1536,-44.4598],[-71.1301,-44.4732],[-71.1498,-44.484],[-71.1511,-44.4897],[-71.1636,-44.4983],[-71.1584,-44.5045],[-71.1433,-44.5081],[-71.1343,-44.5057],[-71.1243,-44.5131],[-71.1109,-44.5182],[-71.1066,-44.5247],[-71.0915,-44.5325],[-71.0963,-44.548],[-71.1032,-44.5535],[-71.0979,-44.56],[-71.0997,-44.5695],[-71.1055,-44.5751],[-71.0972,-44.5859],[-71.1117,-44.5902],[-71.1193,-44.5969],[-71.134,-44.5971],[-71.1456,-44.5919],[-71.1643,-44.5927],[-71.1763,-44.5997],[-71.1888,-44.5938],[-71.1992,-44.6081],[-71.2146,-44.6167],[-71.2137,-44.6329],[-71.2317,-44.6383],[-71.2326,-44.6538],[-71.2082,-44.6543],[-71.0299,-44.6579],[-70.6138,-44.6664],[-70.3215,-44.6722],[-69.9187,-44.678],[-69.5091,-44.1449],[-69.5314,-43.7847]]]},"properties":{"id":297,"departamento":"TEHUELCHES","cabecera":"JOSE DE SAN MARTIN","provincia":"CHUBUT"}},
{"type":"Feature","geometry":{"type":"Polygon","coordinates":[[[-67.7481,-44.6849],[-68.3712,-44.6872],[-68.3678,-45.2445],[-68.3666,-45.4456],[-68.3663,-45.4993],[-68.3631,-45.9999],[-67.784,-45.9999],[-67.5957,-45.9999],[-67.5907,-45.987],[-67.5833,-45.9855],[-67.5592,-45.961],[-67.5337,-45.9611],[-67.5477,-45.9539],[-67.5557,-45.9451],[-67.5574,-45.9375],[-67.5444,-45.916],[-67.534,-45.9117],[-67.5136,-45.8953],[-67.4996,-45.8754],[-67.4933,-45.8744],[-67.4722,-45.8612],[-67.4748,-45.8522],[-67.4674,-45.8412],[-67.4602,-45.8368],[-67.4616,-45.8292],[-67.4525,-45.8187],[-67.4361,-45.8204],[-67.4259,-45.8172],[-67.4198,-45.8048],[-67.4056,-45.7984],[-67.4034,-45.7915],[-67.3907,-45.7871],[-67.376,-45.7911],[-67.3686,-45.7872],[-67.366,-45.7752],[-67.3721,-45.771],[-67.3724,-45.7596],[-67.368,-45.7547],[-67.3774,-45.7469],[-67.3782,-45.7349],[-67.3622,-45.7242],[-67.3421,-45.723],[-67.3437,-45.7137],[-67.3568,-45.7091],[-67.3616,-45.6951],[-67.3584,-45.681],[-67.3614,-45.6683],[-67.3597,-45.6501],[-67.3519,-45.6332],[-67.3407,-45.6202],[-67.3255,-45.6069],[-67.3003,-45.5883],[-67.2812,-45.5668],[-67.2664,-45.5554],[-67.2283,-45.5293],[-67.2203,-45.5277],[-67.2118,-45.5164],[-67.2079,-45.5061],[-67.1928,-45.4909],[-67.1898,-45.4848],[-67.1628,-45.4556],[-67.1496,-45.4365],[-67.1333,-45.4184],[-67.1043,-45.3964],[-67.0902,-45.3781],[-67.0714,-45.3633],[-67.0683,-45.3536],[-67.0374,-45.325],[-67.0138,-45.307],[-66.9977,-45.299],[-66.978,-45.2857],[-66.964,-45.2737],[-66.9408,-45.2629],[-66.8758,-45.2383],[-66.8387,-45.2304],[-66.8182,-45.2349],[-66.8141,-45.2318],[-66.7896,-45.2275],[-66.7822,-45.2312],[-66.7621,-45.2254],[-66.7421,-45.2224],[-66.6968,-45.2235],[-66.6637,-45.2116],[-66.6311,-45.2138],[-66.6139,-45.2125],[-66.6028,-45.2147],[-66.5783,-45.2115],[-66.5614,-45.2122],[-66.5406,-45.225],[-66.531,-45.2203],[-66.5201,-45.2234],[-66.5172,-45.2141],[-66.5228,-45.2056],[-66.5165,-45.1975],[-66.5352,-45.1806],[-66.5506,-45.1769],[-66.5617,-45.1784],[-66.5725,-45.1677],[-66.586,-45.175],[-66.5974,-45.1635],[-66.5891,-45.1579],[-66.599,-45.1484],[-66.5979,-45.1401],[-66.5907,-45.1381],[-66.563,-45.1419],[-66.5475,-45.1416],[-66.5371,-45.1524],[-66.5321,-45.1505],[-66.506,-45.1565],[-66.5059,-45.1638],[-66.4714,-45.1648],[-66.4656,-45.1437],[-66.4863,-45.148],[-66.495,-45.1451],[-66.5229,-45.149],[-66.5323,-45.1377],[-66.5333,-45.1249],[-66.53,-45.113],[-66.5129,-45.0957],[-66.491,-45.0981],[-66.4795,-45.0926],[-66.4782,-45.0857],[-66.4558,-45.0744],[-66.4389,-45.0744],[-66.4229,-45.0703],[-66.3976,-45.0536],[-66.3722,-45.0573],[-66.3728,-45.0508],[-66.3646,-45.042],[-66.5445,-45.0431],[-67.0799,-45.0463],[-67.0814,-45.0352],[-67.0912,-44.7205],[-67.0942,-44.6789],[-67.1602,-44.6797],[-67.7481,-44.6849]]]},"properties":{"id":298,"departamento":"ESCALANTE","cabecera":"COMODORO RIVADAVIA","provincia":"CHUBUT"}},
{"type":"Feature","geometry":{"type":"Polygon","coordinates":[[[-67.0912,-44.7205],[-67.0814,-45.0352],[-67.0799,-45.0463],[-66.5445,-45.0431],[-66.3646,-45.042],[-66.3532,-45.0398],[-66.3413,-45.044],[-66.3281,-45.0432],[-66.3062,-45.0476],[-66.2926,-45.0464],[-66.2827,-45.0541],[-66.2685,-45.0465],[-66.2604,-45.0387],[-66.2611,-45.0328],[-66.245,-45.0208],[-66.2279,-45.024],[-66.2248,-45.0193],[-66.2316,-45.0125],[-66.226,-45.0053],[-66.2114,-45.003],[-66.209,-44.9945],[-66.1957,-44.9845],[-66.1875,-44.9826],[-66.172,-44.9968],[-66.1266,-44.9883],[-66.0954,-44.9898],[-66.0871,-44.9958],[-66.0805,-44.9901],[-66.0642,-44.9937],[-66.0611,-45.0041],[-66.0492,-45.001],[-66.0309,-45.0017],[-66.0044,-45.0062],[-65.9865,-45.018],[-65.9712,-45.036],[-65.9619,-45.0428],[-65.946,-45.0429],[-65.9302,-45.0485],[-65.9121,-45.0318],[-65.9026,-45.0324],[-65.8855,-45.0381],[-65.8846,-45.029],[-65.8933,-45.0218],[-65.8933,-45.0091],[-65.8756,-45.0027],[-65.8683,-45.0044],[-65.8462,-45.0017],[-65.8236,-45.0152],[-65.8286,-45.0391],[-65.8187,-45.0409],[-65.8025,-45.0317],[-65.8144,-45.0259],[-65.8147,-45.0191],[-65.8043,-45.0157],[-65.797,-45.0249],[-65.789,-45.029],[-65.774,-45.0202],[-65.7574,-45.0241],[-65.7389,-45.024],[-65.7329,-45.028],[-65.7374,-45.0362],[-65.7201,-45.0439],[-65.7024,-45.0442],[-65.7009,-45.0523],[-65.6916,-45.0619],[-65.6841,-45.0578],[-65.6961,-45.0446],[-65.6843,-45.0394],[-65.672,-45.0438],[-65.6534,-45.0447],[-65.6133,-45.0341],[-65.6024,-45.028],[-65.6064,-45.0183],[-65.6156,-45.0161],[-65.6244,-45.0086],[-65.6206,-45.0025],[-65.6109,-45.0003],[-65.5843,-45.0068],[-65.5828,-44.9997],[-65.6043,-44.9834],[-65.6059,-44.9751],[-65.5935,-44.9579],[-65.5722,-44.9607],[-65.5678,-44.9524],[-65.5422,-44.9414],[-65.5227,-44.9296],[-65.5252,-44.9231],[-65.5425,-44.9112],[-65.5485,-44.9115],[-65.5598,-44.9027],[-65.5707,-44.9009],[-65.5722,-44.8947],[-65.5929,-44.8961],[-65.6014,-44.9026],[-65.6068,-44.8927],[-65.6191,-44.8847],[-65.6372,-44.8839],[-65.6514,-44.8904],[-65.6643,-44.8899],[-65.6745,-44.8785],[-65.6991,-44.8765],[-65.7126,-44.8691],[-65.7238,-44.8564],[-65.7275,-44.8425],[-65.7171,-44.8371],[-65.7268,-44.8265],[-65.7267,-44.8092],[-65.7016,-44.7996],[-65.6953,-44.7874],[-65.6972,-44.7793],[-65.693,-44.7693],[-65.6952,-44.7394],[-65.6878,-44.7173],[-65.6639,-44.6875],[-65.6415,-44.6686],[-65.6222,-44.6607],[-65.6041,-44.6463],[-65.5879,-44.6419],[-65.575,-44.6491],[-65.5664,-44.6375],[-65.5475,-44.6233],[-65.5176,-44.609],[-65.5002,-44.6037],[-65.4868,-44.6048],[-65.4764,-44.6001],[-65.4638,-44.601],[-65.4632,-44.5943],[-65.4695,-44.583],[-65.4618,-44.5761],[-65.4417,-44.5734],[-65.4334,-44.5702],[-65.4132,-44.574],[-65.4078,-44.5858],[-65.3924,-44.5918],[-65.3882,-44.5801],[-65.3814,-44.5749],[-65.3684,-44.5826],[-65.3565,-44.575],[-65.3738,-44.5652],[-65.3812,-44.5667],[-65.3905,-44.5613],[-65.3928,-44.55],[-65.3874,-44.5434],[-65.3749,-44.5399],[-65.367,-44.5425],[-65.3587,-44.5366],[-65.3715,-44.5319],[-65.3765,-44.5235],[-65.3736,-44.5158],[-65.366,-44.5115],[-65.3562,-44.516],[-65.3514,-44.5078],[-65.3343,-44.5063],[-65.3117,-44.5158],[-65.2967,-44.5128],[-65.2877,-44.5076],[-65.2831,-44.4934],[-65.2909,-44.4901],[-65.3186,-44.4911],[-65.3104,-44.4675],[-65.3272,-44.4649],[-65.3318,-44.4533],[-65.3072,-44.437],[-65.312,-44.4298],[-65.3011,-44.424],[-65.2809,-44.4219],[-65.2835,-44.4096],[-65.2744,-44.4078],[-65.264,-44.3976],[-65.2593,-44.3871],[-65.2342,-44.3867],[-65.2281,-44.3697],[-65.2217,-44.3622],[-65.2256,-44.3333],[-65.2447,-44.337],[-65.2574,-44.3266],[-65.2599,-44.3145],[-65.251,-44.3094],[-65.2678,-44.3019],[-65.2729,-44.2793],[-65.269,-44.2696],[-65.2873,-44.26],[-65.2951,-44.2513],[-65.3072,-44.2304],[-65.3105,-44.2126],[-65.3095,-44.1968],[-65.3037,-44.1768],[-65.2877,-44.1559],[-65.268,-44.1446],[-65.2416,-44.1473],[-65.2217,-44.1393],[-65.2146,-44.125],[-65.231,-44.1176],[-65.2356,-44.107],[-65.2322,-44.096],[-65.2378,-44.0932],[-65.2396,-44.078],[-65.2343,-44.0682],[-65.2159,-44.0573],[-65.2169,-44.0436],[-65.2246,-44.0446],[-65.2423,-44.0342],[-65.2472,-44.0285],[-65.2516,-44.0136],[-65.2467,-44.0049],[-65.256,-43.9999],[-65.254,-43.9845],[-65.2461,-43.9784],[-65.2315,-43.9765],[-65.2323,-43.9709],[-65.2653,-43.9655],[-65.2725,-43.9686],[-65.2832,-43.9618],[-65.2907,-43.9425],[-65.2994,-43.9336],[-65.3065,-43.899],[-65.3156,-43.8764],[-65.3177,-43.8604],[-65.3289,-43.8459],[-65.321,-43.8205],[-65.3242,-43.8144],[-65.3113,-43.7952],[-65.3221,-43.7821],[-65.3496,-43.7751],[-65.3548,-43.7638],[-65.3534,-43.758],[-65.4042,-43.7601],[-65.6042,-43.765],[-66.097,-43.7756],[-66.4577,-43.7849],[-66.4563,-43.7985],[-66.4357,-43.8177],[-66.431,-43.83],[-66.434,-43.8391],[-66.4321,-43.8549],[-66.4393,-43.8752],[-66.4653,-43.8938],[-66.4745,-43.9033],[-66.4773,-43.9115],[-66.4779,-43.9454],[-66.481,-43.9589],[-66.4885,-43.9693],[-66.507,-43.9795],[-66.5249,-43.9842],[-66.5397,-43.9912],[-66.5509,-43.9929],[-66.5718,-43.991],[-66.6048,-44.019],[-66.6157,-44.0229],[-66.6285,-44.0196],[-66.654,-44.0546],[-66.6759,-44.0744],[-66.6813,-44.082],[-66.6806,-44.0942],[-66.6845,-44.106],[-66.6753,-44.1218],[-66.6742,-44.1302],[-66.6779,-44.1468],[-66.687,-44.167],[-66.6969,-44.195],[-66.7117,-44.202],[-66.7419,-44.2278],[-66.7579,-44.2331],[-66.7768,-44.2431],[-66.7958,-44.2593],[-66.8108,-44.2817],[-66.8069,-44.2899],[-66.8068,-44.328],[-66.8121,-44.3487],[-66.8234,-44.3635],[-66.8346,-44.3876],[-66.8578,-44.412],[-66.8788,-44.4267],[-66.8961,-44.4488],[-66.9089,-44.4575],[-66.9171,-44.4687],[-66.925,-44.4751],[-66.9313,-44.4809],[-66.9389,-44.4969],[-66.9391,-44.5107],[-66.944,-44.5182],[-66.9602,-44.5226],[-66.9673,-44.5293],[-66.9681,-44.5377],[-66.959,-44.5518],[-66.9697,-44.5675],[-66.9699,-44.5834],[-66.9743,-44.5924],[-66.992,-44.6079],[-67.0083,-44.6347],[-67.0178,-44.6533],[-67.0342,-44.6631],[-67.0482,-44.6684],[-67.059,-44.6844],[-67.0654,-44.6999],[-67.0765,-44.7137],[-67.0912,-44.7205]]]},"properties":{"id":299,"departamento":"FLORENTINO AMEGHINO","cabecera":"CAMARONES","provincia":"CHUBUT"}},
{"type":"Feature","geometry":{"type":"Polygon","coordinates":[[[-70.5856,-42.8651],[-70.7583,-42.8611],[-70.8849,-42.8641],[-70.9364,-42.8636],[-71.0466,-42.9468],[-71.1671,-42.8619],[-71.2916,-42.8582],[-71.328,-42.8312],[-71.3228,-42.8233],[-71.3562,-42.794],[-71.3484,-42.7829],[-71.3741,-42.7589],[-71.3891,-42.7585],[-71.3933,-42.744],[-71.4038,-42.7322],[-71.438,-42.7085],[-71.4426,-42.6878],[-71.4875,-42.661],[-71.4802,-42.6132],[-71.5986,-42.6052],[-71.6272,-42.4853],[-71.7782,-42.4827],[-71.9495,-42.4799],[-72.0204,-42.4787],[-72.0134,-42.486],[-72.0119,-42.4956],[-72.0284,-42.5053],[-72.0291,-42.5176],[-72.044,-42.5394],[-72.0541,-42.5458],[-72.0516,-42.564],[-72.0654,-42.5724],[-72.075,-42.5662],[-72.0924,-42.582],[-72.1035,-42.6003],[-72.117,-42.6047],[-72.1131,-42.6159],[-72.1137,-42.6309],[-72.1041,-42.6301],[-72.096,-42.642],[-72.109,-42.6509],[-72.1186,-42.6611],[-72.1225,-42.673],[-72.1312,-42.6726],[-72.1353,-42.6803],[-72.149,-42.6819],[-72.1548,-42.6784],[-72.1737,-42.6747],[-72.1796,-42.6978],[-72.1672,-42.705],[-72.1607,-42.7049],[-72.1376,-42.7125],[-72.1362,-42.727],[-72.1291,-42.7326],[-72.1471,-42.7425],[-72.1441,-42.7508],[-72.1341,-42.7574],[-72.1337,-42.7743],[-72.1408,-42.7825],[-72.1385,-42.79],[-72.1493,-42.7993],[-72.1649,-42.7989],[-72.1558,-42.8154],[-72.1578,-42.8284],[-72.1489,-42.8337],[-72.146,-42.8522],[-72.1341,-42.8548],[-72.133,-42.8696],[-72.1186,-42.8788],[-72.1165,-42.8847],[-72.1297,-42.8871],[-72.1402,-42.8977],[-72.1402,-42.9031],[-72.1304,-42.9135],[-72.1124,-42.9245],[-72.1172,-42.9344],[-72.0965,-42.9431],[-72.0917,-42.9513],[-72.0714,-42.9512],[-72.0643,-42.9614],[-72.0568,-42.9819],[-72.0364,-42.9941],[-72.0403,-43.0026],[-72.0373,-43.0119],[-72.0195,-43.0183],[-72.0125,-43.0305],[-72.0027,-43.0376],[-71.9806,-43.0364],[-71.9732,-43.046],[-71.9615,-43.0399],[-71.9445,-43.0462],[-71.9352,-43.0568],[-71.9378,-43.0717],[-71.9341,-43.0808],[-71.9411,-43.0914],[-71.9304,-43.1023],[-71.924,-43.1009],[-71.8932,-43.1071],[-71.8876,-43.1266],[-71.8544,-43.1305],[-71.8579,-43.1426],[-71.8357,-43.1433],[-71.8235,-43.1511],[-71.8168,-43.1455],[-71.8055,-43.1541],[-71.7891,-43.1605],[-71.7859,-43.1674],[-71.7712,-43.1681],[-71.7606,-43.1647],[-71.7557,-43.1756],[-71.7435,-43.1785],[-71.7293,-43.2003],[-71.7419,-43.2226],[-71.7575,-43.2281],[-71.7556,-43.2398],[-71.7476,-43.2511],[-71.7462,-43.2669],[-71.741,-43.2679],[-71.7306,-43.2831],[-71.7361,-43.2904],[-71.7318,-43.3088],[-71.7349,-43.3142],[-71.7468,-43.3198],[-71.7612,-43.3143],[-71.7617,-43.3054],[-71.7689,-43.3],[-71.7854,-43.2968],[-71.8036,-43.3058],[-71.8022,-43.313],[-71.811,-43.32],[-71.8245,-43.3243],[-71.8401,-43.3352],[-71.8547,-43.3321],[-71.8665,-43.3328],[-71.8718,-43.3285],[-71.8899,-43.3251],[-71.8958,-43.3198],[-71.9069,-43.3242],[-71.8969,-43.3375],[-71.9021,-43.3438],[-71.8939,-43.3498],[-71.8899,-43.36],[-71.8966,-43.3655],[-71.8929,-43.3769],[-71.912,-43.3867],[-71.9327,-43.3862],[-71.9255,-43.4054],[-71.9136,-43.4169],[-71.9221,-43.4266],[-71.9276,-43.4421],[-71.9338,-43.4479],[-71.9304,-43.4569],[-71.906,-43.4565],[-71.895,-43.4512],[-71.88,-43.4517],[-71.8786,-43.4627],[-71.8691,-43.4636],[-71.848,-43.4832],[-71.8582,-43.5086],[-71.8646,-43.5129],[-71.8778,-43.5281],[-71.8776,-43.5495],[-71.8612,-43.551],[-71.8456,-43.5482],[-71.8284,-43.55],[-71.7953,-43.5409],[-71.7759,-43.5398],[-71.7654,-43.5635],[-71.7601,-43.5711],[-71.7636,-43.5793],[-71.7574,-43.5842],[-71.7477,-43.5671],[-71.7314,-43.5499],[-71.718,-43.5425],[-71.7085,-43.5419],[-71.6907,-43.5458],[-71.683,-43.5438],[-71.6796,-43.541],[-71.6743,-43.5347],[-71.6723,-43.524],[-71.6579,-43.5207],[-71.6329,-43.5241],[-71.614,-43.5208],[-71.6001,-43.5249],[-71.5857,-43.5211],[-71.5704,-43.5201],[-71.5496,-43.5303],[-71.5199,-43.5264],[-71.4942,-43.5383],[-71.4844,-43.5401],[-71.4685,-43.5543],[-71.4572,-43.5615],[-71.4528,-43.5682],[-71.4378,-43.5697],[-71.3581,-43.5578],[-71.3339,-43.5521],[-71.3187,-43.5523],[-71.3052,-43.5573],[-71.2902,-43.5672],[-71.2614,-43.5745],[-71.2362,-43.5771],[-71.2249,-43.5845],[-71.2109,-43.5889],[-71.1854,-43.5893],[-71.1774,-43.5937],[-71.1557,-43.6141],[-71.1325,-43.628],[-71.1032,-43.6332],[-71.0416,-43.6153],[-71.0235,-43.6085],[-71.0122,-43.6012],[-70.9956,-43.5825],[-70.9827,-43.5711],[-70.9627,-43.5597],[-70.9298,-43.5499],[-70.9131,-43.5415],[-70.8924,-43.5204],[-70.8746,-43.4858],[-70.8619,-43.4698],[-70.8486,-43.4586],[-70.8451,-43.448],[-70.8607,-43.4248],[-70.862,-43.4138],[-70.8584,-43.4069],[-70.8644,-43.3928],[-70.8654,-43.378],[-70.8628,-43.3634],[-70.8667,-43.3376],[-70.8799,-43.3263],[-70.886,-43.3085],[-70.8744,-43.288],[-70.86,-43.2727],[-70.8531,-43.2551],[-70.8459,-43.2453],[-70.8309,-43.2327],[-70.8248,-43.2226],[-70.8239,-43.2041],[-70.8274,-43.1934],[-70.8273,-43.1675],[-70.8233,-43.1549],[-70.8221,-43.1382],[-70.8155,-43.1243],[-70.7992,-43.1102],[-70.7924,-43.0983],[-70.7944,-43.0854],[-70.7922,-43.0689],[-70.7855,-43.051],[-70.7909,-43.0241],[-70.7748,-43.0151],[-70.7461,-43.0087],[-70.7158,-42.9967],[-70.7072,-42.9875],[-70.7006,-42.9735],[-70.6934,-42.9694],[-70.6583,-42.9671],[-70.6306,-42.9675],[-70.6051,-42.9559],[-70.5868,-42.9499],[-70.5778,-42.9435],[-70.5741,-42.9327],[-70.5641,-42.9222],[-70.5809,-42.9062],[-70.5744,-42.8904],[-70.576,-42.8761],[-70.5856,-42.8651]]]},"properties":{"id":350,"departamento":"FUTALEUFU","cabecera":"ESQUEL","provincia":"CHUBUT"}},
{"type":"Feature","geometry":{"type":"Polygon","coordinates":[[[-65.4546,-42.8519],[-65.0607,-42.8417],[-65.016,-42.8405],[-64.856,-42.8364],[-64.8743,-42.8351],[-64.8847,-42.8279],[-64.8896,-42.8125],[-64.9109,-42.8123],[-64.9353,-42.8005],[-64.9565,-42.7852],[-64.9649,-42.7934],[-64.9804,-42.7894],[-64.9958,-42.7806],[-65.0073,-42.7843],[-65.0236,-42.7755],[-65.0357,-42.7589],[-65.0367,-42.7402],[-65.0331,-42.7252],[-65.0182,-42.7116],[-64.995,-42.6976],[-64.9867,-42.6699],[-64.985,-42.6549],[-64.9782,-42.6483],[-64.9682,-42.6456],[-64.9563,-42.6347],[-64.9382,-42.6237],[-64.9188,-42.6162],[-64.8802,-42.6134],[-64.8626,-42.6186],[-64.8502,-42.617],[-64.833,-42.6102],[-64.8302,-42.6051],[-64.7904,-42.58],[-64.7792,-42.5658],[-64.761,-42.5524],[-64.744,-42.5432],[-64.722,-42.5343],[-64.6861,-42.5128],[-64.6635,-42.5065],[-64.6432,-42.5047],[-64.64,-42.5003],[-64.6238,-42.4963],[-64.5947,-42.4968],[-64.586,-42.4927],[-64.562,-42.4924],[-64.5145,-42.5021],[-64.5013,-42.4999],[-64.4652,-42.5043],[-64.3975,-42.5182],[-64.3618,-42.5337],[-64.3458,-42.5311],[-64.328,-42.5395],[-64.3096,-42.5575],[-64.3084,-42.5726],[-64.3102,-42.585],[-64.3018,-42.5862],[-64.2903,-42.576],[-64.2819,-42.5743],[-64.2654,-42.5837],[-64.2576,-42.5941],[-64.2656,-42.6034],[-64.273,-42.6174],[-64.2531,-42.6201],[-64.2442,-42.6149],[-64.2279,-42.6242],[-64.2235,-42.644],[-64.2314,-42.6599],[-64.2378,-42.6633],[-64.241,-42.6742],[-64.2493,-42.6812],[-64.2448,-42.702],[-64.2455,-42.7135],[-64.2615,-42.7442],[-64.2531,-42.7684],[-64.2407,-42.7856],[-64.2168,-42.8048],[-64.1951,-42.8267],[-64.1948,-42.8317],[-64.1761,-42.8478],[-64.159,-42.8576],[-64.1449,-42.874],[-64.1084,-42.8793],[-64.0657,-42.8683],[-64.0105,-42.8605],[-64.0007,-42.8556],[-63.9455,-42.8443],[-63.9244,-42.8425],[-63.9188,-42.845],[-63.9052,-42.8373],[-63.8731,-42.8354],[-63.8515,-42.8284],[-63.8428,-42.8311],[-63.835,-42.8251],[-63.8103,-42.8236],[-63.8059,-42.8186],[-63.7855,-42.8137],[-63.7472,-42.8101],[-63.7375,-42.8153],[-63.7219,-42.8108],[-63.7161,-42.8042],[-63.7038,-42.8018],[-63.696,-42.7955],[-63.6759,-42.7921],[-63.662,-42.7782],[-63.6525,-42.7789],[-63.6452,-42.7703],[-63.626,-42.7661],[-63.6198,-42.7579],[-63.6332,-42.7508],[-63.6326,-42.7396],[-63.6369,-42.7344],[-63.6349,-42.72],[-63.6404,-42.7156],[-63.6381,-42.6987],[-63.6317,-42.6916],[-63.6162,-42.6641],[-63.6177,-42.6595],[-63.6074,-42.6432],[-63.6027,-42.628],[-63.5842,-42.6143],[-63.5819,-42.6064],[-63.5878,-42.5843],[-63.5883,-42.5712],[-63.5976,-42.5604],[-63.603,-42.5451],[-63.6016,-42.5203],[-63.5977,-42.5131],[-63.6111,-42.4874],[-63.6094,-42.4674],[-63.612,-42.4305],[-63.6156,-42.4061],[-63.6135,-42.4006],[-63.6141,-42.3783],[-63.6234,-42.3527],[-63.6388,-42.3433],[-63.64,-42.3334],[-63.657,-42.3171],[-63.6506,-42.3121],[-63.6779,-42.2802],[-63.6738,-42.2804],[-63.6551,-42.2983],[-63.6482,-42.2949],[-63.6556,-42.2854],[-63.6422,-42.2839],[-63.6315,-42.2944],[-63.6272,-42.3113],[-63.6348,-42.318],[-63.6192,-42.3288],[-63.6186,-42.3362],[-63.6103,-42.3439],[-63.6042,-42.3586],[-63.6078,-42.3733],[-63.611,-42.3995],[-63.6065,-42.4617],[-63.608,-42.4877],[-63.6031,-42.4892],[-63.6069,-42.4397],[-63.6072,-42.4107],[-63.6022,-42.3708],[-63.5976,-42.3533],[-63.5971,-42.3305],[-63.6058,-42.3043],[-63.6276,-42.2707],[-63.6471,-42.2479],[-63.6766,-42.2164],[-63.6967,-42.1839],[-63.7023,-42.1664],[-63.7135,-42.1486],[-63.7263,-42.1173],[-63.7368,-42.0985],[-63.7578,-42.0764],[-63.772,-42.0729],[-63.7968,-42.0718],[-63.8162,-42.0731],[-63.8469,-42.0779],[-63.8745,-42.0837],[-63.8947,-42.0898],[-63.9316,-42.1039],[-63.9433,-42.1133],[-63.9649,-42.1142],[-63.979,-42.1309],[-63.9918,-42.1379],[-64.021,-42.1479],[-64.0367,-42.1599],[-64.081,-42.1787],[-64.1089,-42.1855],[-64.1311,-42.1932],[-64.1842,-42.203],[-64.2458,-42.213],[-64.2619,-42.2163],[-64.3069,-42.222],[-64.3734,-42.2353],[-64.3589,-42.2447],[-64.3542,-42.2439],[-64.3169,-42.2504],[-64.2989,-42.2494],[-64.29,-42.2443],[-64.2751,-42.2475],[-64.2702,-42.2387],[-64.2551,-42.2399],[-64.2408,-42.2349],[-64.2245,-42.2425],[-64.2073,-42.242],[-64.1894,-42.2464],[-64.1626,-42.2433],[-64.1535,-42.2395],[-64.1404,-42.2437],[-64.1366,-42.2391],[-64.1213,-42.2431],[-64.1067,-42.2519],[-64.0992,-42.2508],[-64.0854,-42.2553],[-64.0731,-42.2627],[-64.0586,-42.2762],[-64.0472,-42.2972],[-64.0447,-42.3147],[-64.049,-42.3235],[-64.0578,-42.3256],[-64.0619,-42.3338],[-64.0524,-42.3412],[-64.0451,-42.3421],[-64.0428,-42.3498],[-64.0528,-42.3764],[-64.0573,-42.3828],[-64.0685,-42.3845],[-64.0852,-42.3985],[-64.1,-42.4034],[-64.1017,-42.4089],[-64.1161,-42.4242],[-64.1297,-42.4284],[-64.1491,-42.4223],[-64.17,-42.4186],[-64.1861,-42.4189],[-64.1899,-42.4159],[-64.2149,-42.4214],[-64.2209,-42.4179],[-64.2795,-42.415],[-64.2932,-42.4131],[-64.2989,-42.4034],[-64.3138,-42.4116],[-64.3253,-42.4115],[-64.3359,-42.4201],[-64.3565,-42.426],[-64.3777,-42.4237],[-64.3807,-42.4286],[-64.4125,-42.4323],[-64.4246,-42.4401],[-64.4477,-42.4396],[-64.4511,-42.4361],[-64.4712,-42.4391],[-64.482,-42.4359],[-64.485,-42.4268],[-64.4946,-42.4303],[-64.5255,-42.4271],[-64.5364,-42.4244],[-64.5479,-42.4254],[-64.5556,-42.4305],[-64.5713,-42.4277],[-64.5729,-42.4202],[-64.5871,-42.4257],[-64.6153,-42.4236],[-64.6199,-42.4012],[-64.6184,-42.3938],[-64.5959,-42.3846],[-64.5924,-42.3793],[-64.594,-42.3692],[-64.5803,-42.3581],[-64.5703,-42.3459],[-64.5668,-42.337],[-64.5686,-42.3251],[-64.5591,-42.3076],[-64.547,-42.2947],[-64.528,-42.2869],[-64.5251,-42.2814],[-64.5077,-42.2754],[-64.5078,-42.2698],[-64.4893,-42.2607],[-64.4798,-42.249],[-64.4616,-42.238],[-64.497,-42.2349],[-64.5418,-42.2351],[-64.5856,-42.2308],[-64.6136,-42.23],[-64.6546,-42.2239],[-64.6684,-42.2231],[-64.685,-42.2178],[-64.7032,-42.2152],[-64.7241,-42.2159],[-64.7502,-42.2122],[-64.7721,-42.206],[-64.801,-42.1956],[-64.8139,-42.1983],[-64.8348,-42.1952],[-64.8743,-42.1834],[-64.9084,-42.1681],[-64.9551,-42.1404],[-64.9956,-42.1104],[-65.0192,-42.0876],[-65.0395,-42.064],[-65.065,-42.0211],[-65.0693,-42.0003],[-65.9736,-42.0003],[-65.9703,-42.0967],[-65.9592,-42.4094],[-65.9427,-42.8623],[-65.4546,-42.8519]]]},"properties":{"id":373,"departamento":"BIEDMA","cabecera":"PUERTO MADRYN","provincia":"CHUBUT"}},
{"type":"Feature","geometry":{"type":"Polygon","coordinates":[[[-67.1536,-42.879],[-65.9427,-42.8623],[-65.9592,-42.4094],[-65.9703,-42.0967],[-65.9736,-42.0003],[-68.3892,-42.0001],[-68.3894,-42.0055],[-68.3867,-42.3032],[-68.3816,-42.8828],[-67.7739,-42.8826],[-67.1536,-42.879]]]},"properties":{"id":374,"departamento":"TELSEN","cabecera":"TELSEN","provincia":"CHUBUT"}},
{"type":"Feature","geometry":{"type":"Polygon","coordinates":[[[-67.7739,-42.8826],[-68.3816,-42.8828],[-68.3867,-42.3032],[-68.3894,-42.0055],[-68.3892,-42.0001],[-69.3357,-42.0001],[-69.4281,-42.0001],[-69.4284,-42.0066],[-69.4493,-42.2222],[-69.47,-42.4364],[-69.5053,-42.7968],[-69.5105,-42.8491],[-69.5585,-43.332],[-67.7676,-43.3388],[-67.7739,-42.8826]]]},"properties":{"id":375,"departamento":"GASTRE","cabecera":"GASTRE","provincia":"CHUBUT"}},
{"type":"Feature","geometry":{"type":"Polygon","coordinates":[[[-69.9187,-44.678],[-70.3215,-44.6722],[-70.6138,-44.6664],[-71.0299,-44.6579],[-71.2082,-44.6543],[-71.2326,-44.6538],[-71.2137,-44.6767],[-71.2014,-44.6783],[-71.1979,-44.6894],[-71.2099,-44.6981],[-71.2141,-44.7152],[-71.2023,-44.7228],[-71.204,-44.7407],[-71.2083,-44.7532],[-71.2206,-44.7619],[-71.2381,-44.7693],[-71.2537,-44.7852],[-71.2487,-44.7979],[-71.2617,-44.805],[-71.2898,-44.8097],[-71.3043,-44.8062],[-71.3283,-44.8085],[-71.3384,-44.7978],[-71.3583,-44.7905],[-71.3738,-44.7962],[-71.3962,-44.7893],[-71.4081,-44.777],[-71.4174,-44.7744],[-71.43,-44.7646],[-71.4314,-44.7572],[-71.4513,-44.7521],[-71.4694,-44.7376],[-71.4886,-44.7366],[-71.5197,-44.7453],[-71.5312,-44.743],[-71.5464,-44.752],[-71.5694,-44.7587],[-71.5816,-44.7523],[-71.5922,-44.7629],[-71.5954,-44.7794],[-71.6171,-44.777],[-71.649,-44.782],[-71.6575,-44.7862],[-71.6719,-44.787],[-71.6741,-44.7718],[-71.687,-44.765],[-71.705,-44.7699],[-71.7217,-44.7668],[-71.7359,-44.7688],[-71.7491,-44.7617],[-71.7629,-44.7624],[-71.7721,-44.7552],[-71.7895,-44.7531],[-71.8104,-44.7636],[-71.8252,-44.776],[-71.8235,-44.7815],[-71.81,-44.787],[-71.815,-44.7942],[-71.8277,-44.7912],[-71.8503,-44.8003],[-71.8598,-44.8005],[-71.8755,-44.7943],[-71.8844,-44.7952],[-71.8925,-44.7858],[-71.9009,-44.7846],[-71.9126,-44.7771],[-71.9228,-44.7781],[-71.9213,-44.786],[-71.9275,-44.804],[-71.9452,-44.7912],[-71.9568,-44.786],[-71.9658,-44.7859],[-71.9825,-44.78],[-72.0006,-44.7864],[-72.0069,-44.7828],[-72.0082,-44.773],[-72.0157,-44.7721],[-72.0138,-44.7603],[-72.0182,-44.7567],[-72.0324,-44.7655],[-72.0448,-44.7591],[-72.0573,-44.7564],[-72.067,-44.7597],[-72.064,-44.7719],[-72.0739,-44.7811],[-72.0677,-44.788],[-72.0561,-44.7934],[-72.0464,-44.794],[-72.0287,-44.8052],[-72.0366,-44.809],[-72.0379,-44.8162],[-72.0468,-44.8251],[-72.0487,-44.8349],[-72.0644,-44.8453],[-72.0605,-44.8496],[-72.0356,-44.8619],[-72.0641,-44.8734],[-72.0493,-44.8808],[-72.0416,-44.8892],[-72.0386,-44.9],[-72.0287,-44.9023],[-72.0245,-44.8968],[-71.998,-44.8965],[-71.9766,-44.9026],[-71.9786,-44.9152],[-71.972,-44.9193],[-71.9461,-44.9191],[-71.9411,-44.9283],[-71.9341,-44.9309],[-71.9329,-44.9408],[-71.9064,-44.9471],[-71.8896,-44.9477],[-71.8812,-44.9564],[-71.8622,-44.9455],[-71.8534,-44.9316],[-71.839,-44.9257],[-71.8172,-44.9198],[-71.8098,-44.9221],[-71.8071,-44.9305],[-71.7878,-44.9333],[-71.7782,-44.9403],[-71.7602,-44.9247],[-71.7506,-44.9324],[-71.745,-44.9566],[-71.7111,-44.9551],[-71.6967,-44.9599],[-71.6872,-44.9672],[-71.6573,-44.9756],[-71.6354,-44.9702],[-71.6245,-44.9749],[-71.6129,-44.9753],[-71.6015,-44.9707],[-71.5937,-44.9769],[-71.5774,-44.9812],[-71.5595,-44.9772],[-71.5575,-44.9884],[-71.5506,-44.9969],[-71.5483,-45.0138],[-71.5576,-45.029],[-71.547,-45.0334],[-71.5304,-45.0457],[-71.5203,-45.0581],[-71.5066,-45.068],[-71.5052,-45.0838],[-71.513,-45.0966],[-71.4914,-45.1078],[-71.4701,-45.1488],[-71.4462,-45.1523],[-71.4328,-45.1561],[-71.4187,-45.1667],[-71.4182,-45.1762],[-71.4053,-45.182],[-71.3925,-45.2013],[-71.3785,-45.2063],[-71.3686,-45.2261],[-71.3495,-45.2302],[-71.3369,-45.2368],[-71.333,-45.2528],[-71.3504,-45.2679],[-71.3373,-45.2783],[-71.3291,-45.2778],[-71.3202,-45.2971],[-71.3247,-45.3065],[-71.335,-45.3143],[-71.3332,-45.3198],[-71.348,-45.327],[-71.3486,-45.3314],[-71.3718,-45.3395],[-71.3827,-45.3494],[-71.4025,-45.3549],[-71.4117,-45.3543],[-71.4384,-45.3625],[-71.4487,-45.3696],[-71.4371,-45.3923],[-71.4555,-45.3862],[-71.4653,-45.3879],[-71.4877,-45.3857],[-71.5008,-45.3865],[-71.5278,-45.3914],[-71.531,-45.3962],[-71.5296,-45.411],[-71.5219,-45.4186],[-71.5211,-45.4263],[-71.5339,-45.4324],[-71.5298,-45.4378],[-71.5181,-45.4392],[-71.5104,-45.4455],[-71.5086,-45.4607],[-71.4947,-45.4712],[-71.4841,-45.4699],[-71.4751,-45.4742],[-71.4698,-45.482],[-71.4788,-45.4866],[-71.4743,-45.4961],[-71.4997,-45.5016],[-71.5117,-45.5092],[-71.5258,-45.5096],[-71.5422,-45.5152],[-71.5445,-45.5205],[-71.5613,-45.5235],[-71.5765,-45.5195],[-71.6048,-45.5224],[-71.6114,-45.5149],[-71.6237,-45.5114],[-71.6396,-45.5128],[-71.6464,-45.5185],[-71.6821,-45.5151],[-71.6888,-45.5212],[-71.6826,-45.5278],[-71.7047,-45.5363],[-71.7237,-45.5366],[-71.7402,-45.5414],[-71.7635,-45.5603],[-71.7629,-45.5766],[-71.7426,-45.5792],[-71.7314,-45.59],[-71.7373,-45.5932],[-71.7422,-45.6045],[-71.7538,-45.6098],[-71.7634,-45.6206],[-71.7789,-45.621],[-71.7807,-45.6341],[-71.772,-45.641],[-71.7795,-45.6462],[-71.7809,-45.6554],[-71.7955,-45.6668],[-71.7834,-45.6722],[-71.773,-45.6812],[-71.775,-45.6942],[-71.78,-45.7017],[-71.7977,-45.7104],[-71.8025,-45.7189],[-71.7951,-45.7301],[-71.7737,-45.7422],[-71.7723,-45.7498],[-71.7643,-45.7562],[-71.766,-45.7622],[-71.7557,-45.7747],[-71.7627,-45.7889],[-71.7463,-45.7987],[-71.7433,-45.807],[-71.7502,-45.8122],[-71.757,-45.827],[-71.7664,-45.8363],[-71.7684,-45.8463],[-71.7398,-45.8561],[-71.7286,-45.8531],[-71.7148,-45.8553],[-71.6958,-45.8667],[-71.6911,-45.8651],[-71.657,-45.8835],[-71.6542,-45.8973],[-71.6434,-45.909],[-71.6454,-45.9177],[-71.64,-45.9249],[-71.6224,-45.9347],[-71.6166,-45.9469],[-71.6131,-45.9737],[-71.6153,-45.9796],[-71.626,-45.9825],[-71.63,-45.9765],[-71.6443,-45.9843],[-71.6449,-46],[-71.5012,-46],[-71.3401,-46],[-69.9007,-45.9999],[-69.6481,-45.9999],[-69.6445,-45.7754],[-69.6404,-45.5186],[-69.6367,-45.2838],[-69.6268,-44.6814],[-69.9187,-44.678]]]},"properties":{"id":445,"departamento":"RIO SENGUER","cabecera":"ALTO RIO SENGUER","provincia":"CHUBUT"}},
{"type":"Feature","geometry":{"type":"Polygon","coordinates":[[[-69.6268,-44.6814],[-69.6367,-45.2838],[-69.6404,-45.5186],[-69.6445,-45.7754],[-69.6481,-45.9999],[-69.4183,-45.9999],[-68.3631,-45.9999],[-68.3663,-45.4993],[-68.3666,-45.4456],[-68.3678,-45.2445],[-68.3712,-44.6872],[-68.9122,-44.6864],[-69.0733,-44.6856],[-69.6268,-44.6814]]]},"properties":{"id":491,"departamento":"SARMIENTO","cabecera":"SARMIENTO","provincia":"CHUBUT"}},
{"type":"Feature","geometry":{"type":"Polygon","coordinates":[[[-69.5053,-42.7968],[-69.47,-42.4364],[-69.4493,-42.2222],[-69.4284,-42.0066],[-69.4281,-42.0001],[-71.1749,-42],[-71.6665,-41.9999],[-71.7732,-41.9999],[-71.7724,-42.0079],[-71.7619,-42.0111],[-71.7534,-42.0247],[-71.7567,-42.0362],[-71.7448,-42.0371],[-71.7275,-42.0456],[-71.7238,-42.0584],[-71.7389,-42.0721],[-71.741,-42.0825],[-71.7267,-42.1007],[-71.7253,-42.1096],[-71.7302,-42.1222],[-71.7476,-42.1293],[-71.7724,-42.1288],[-71.7754,-42.1423],[-71.7897,-42.1496],[-71.8027,-42.1455],[-71.8176,-42.1568],[-71.834,-42.1625],[-71.8492,-42.1544],[-71.8579,-42.1593],[-71.8747,-42.155],[-71.8802,-42.1673],[-71.8955,-42.1806],[-71.906,-42.1828],[-71.9127,-42.1884],[-71.9249,-42.1904],[-71.9364,-42.1817],[-71.9403,-42.1725],[-71.9533,-42.1653],[-71.9573,-42.1413],[-71.9701,-42.1451],[-71.9852,-42.1395],[-72.0075,-42.1398],[-72.03,-42.1218],[-72.0446,-42.125],[-72.0526,-42.1147],[-72.0667,-42.118],[-72.0807,-42.1328],[-72.0659,-42.1379],[-72.0669,-42.1468],[-72.085,-42.1442],[-72.09,-42.1487],[-72.1057,-42.1456],[-72.1217,-42.1553],[-72.1453,-42.1469],[-72.1582,-42.1447],[-72.1652,-42.1402],[-72.1754,-42.143],[-72.1796,-42.1564],[-72.1873,-42.1584],[-72.1845,-42.1768],[-72.1571,-42.1939],[-72.1561,-42.2053],[-72.1664,-42.2139],[-72.1589,-42.2274],[-72.1545,-42.2449],[-72.1683,-42.2508],[-72.1675,-42.2615],[-72.1548,-42.2731],[-72.14,-42.2905],[-72.1203,-42.3245],[-72.1365,-42.3291],[-72.1385,-42.3455],[-72.1304,-42.3596],[-72.1353,-42.3676],[-72.1297,-42.3755],[-72.1313,-42.3849],[-72.1128,-42.3985],[-72.1032,-42.3955],[-72.0864,-42.3949],[-72.0767,-42.3832],[-72.0585,-42.397],[-72.038,-42.4005],[-72.0276,-42.4082],[-72.0356,-42.4256],[-72.0322,-42.4303],[-72.0395,-42.4445],[-72.0459,-42.4493],[-72.0335,-42.4571],[-72.032,-42.4666],[-72.0204,-42.4787],[-71.9495,-42.4799],[-71.7782,-42.4827],[-71.6272,-42.4853],[-71.5986,-42.6052],[-71.4802,-42.6132],[-71.4875,-42.661],[-71.4426,-42.6878],[-71.438,-42.7085],[-71.4038,-42.7322],[-71.3933,-42.744],[-71.3891,-42.7585],[-71.3741,-42.7589],[-71.3484,-42.7829],[-71.3562,-42.794],[-71.3228,-42.8233],[-71.328,-42.8312],[-71.2916,-42.8582],[-71.1671,-42.8619],[-71.0466,-42.9468],[-70.9364,-42.8636],[-70.8849,-42.8641],[-70.7583,-42.8611],[-70.5856,-42.8651],[-70.5885,-42.8506],[-70.5739,-42.8355],[-70.5554,-42.8093],[-70.5526,-42.7984],[-70.5367,-42.7633],[-70.5081,-42.7285],[-70.4509,-42.6726],[-70.4393,-42.652],[-70.4349,-42.6478],[-70.4155,-42.6391],[-70.3959,-42.6276],[-70.39,-42.6174],[-70.371,-42.6057],[-70.3682,-42.6015],[-70.3493,-42.596],[-70.3475,-42.6012],[-70.3267,-42.5963],[-70.3111,-42.6036],[-70.3054,-42.617],[-70.2954,-42.6221],[-70.2937,-42.6325],[-70.2663,-42.6413],[-70.2588,-42.6419],[-70.2444,-42.6348],[-70.2278,-42.6307],[-70.2198,-42.6261],[-70.2053,-42.6236],[-70.1483,-42.6293],[-70.1049,-42.6382],[-70.0913,-42.6429],[-70.072,-42.6547],[-70.0553,-42.6686],[-70.0418,-42.673],[-70.0242,-42.6736],[-70.0137,-42.6696],[-70.0009,-42.6516],[-69.9887,-42.6407],[-69.9645,-42.6362],[-69.9571,-42.6316],[-69.9426,-42.6347],[-69.9178,-42.637],[-69.8833,-42.6342],[-69.8626,-42.6239],[-69.8431,-42.6258],[-69.8206,-42.6337],[-69.808,-42.6448],[-69.7933,-42.6459],[-69.772,-42.6558],[-69.7487,-42.675],[-69.7364,-42.6814],[-69.7167,-42.684],[-69.6815,-42.6834],[-69.6725,-42.6802],[-69.6527,-42.6809],[-69.6236,-42.6865],[-69.6136,-42.6867],[-69.5921,-42.6961],[-69.5662,-42.7135],[-69.5406,-42.7495],[-69.5372,-42.7642],[-69.53,-42.7739],[-69.5053,-42.7968]]]},"properties":{"id":493,"departamento":"CUSHAMEN","cabecera":"CUSHAMEN","provincia":"CHUBUT"}}
]}