{"type":"FeatureCollection", "features": [
{"type":"Feature","geometry":{"type":"Polygon","coordinates":[[[-62.8198,-33.8965],[-63.2383,-33.8083],[-63.2453,-33.836],[-63.865,-33.8422],[-64.0537,-33.8388],[-64.0528,-34.1661],[-64.1304,-34.1876],[-64.2336,-34.2402],[-64.1447,-34.2692],[-64.1443,-34.3648],[-64.0233,-34.3576],[-63.8246,-34.3584],[-63.8211,-34.5389],[-63.6139,-34.5379],[-63.503,-34.545],[-63.5033,-34.5171],[-63.3835,-34.5268],[-63.3833,-34.3833],[-62.8797,-34.3835],[-62.551,-33.9537],[-62.6254,-33.9378],[-62.7534,-33.9106],[-62.8198,-33.8965]]]},"properties":{"id":393,"departamento":"PRESIDENTE ROQUE SAENZ PEÑA","cabecera":"LABOULAYE","provincia":"CORDOBA"}},
{"type":"Feature","geometry":{"type":"Polygon","coordinates":[[[-63.1177,-32.0011],[-63.1047,-31.9528],[-63.1479,-31.9498],[-63.2239,-32.0041],[-63.236,-31.9359],[-63.334,-31.9515],[-63.3356,-31.9761],[-63.4364,-31.9935],[-63.5678,-31.9896],[-63.582,-31.9744],[-63.6764,-32.039],[-63.6962,-31.9968],[-63.9183,-31.9955],[-63.9676,-31.9944],[-63.9676,-31.9608],[-64.0669,-31.9603],[-64.0668,-32.0047],[-64.2317,-32.0037],[-64.2583,-32.0909],[-64.2592,-32.1596],[-64.2956,-32.1888],[-64.299,-32.3246],[-64.2605,-32.3603],[-64.2411,-32.3118],[-64.0658,-32.3192],[-63.9755,-32.3377],[-63.9824,-32.3664],[-63.9019,-32.3853],[-63.9241,-32.4697],[-63.9658,-32.49],[-64.0285,-32.7597],[-63.989,-32.7555],[-63.9125,-32.7199],[-63.7019,-32.733],[-63.7181,-32.7962],[-63.5554,-32.8309],[-63.5757,-32.7832],[-63.5573,-32.7166],[-63.5802,-32.7116],[-63.5079,-32.3999],[-63.5655,-32.3876],[-63.5348,-32.3199],[-63.511,-32.2351],[-63.4607,-32.2597],[-63.3742,-32.2072],[-63.4701,-32.0952],[-63.311,-32.0831],[-63.2821,-32.095],[-63.2048,-32.0688],[-63.1928,-32.1131],[-63.1177,-32.0011]]]},"properties":{"id":341,"departamento":"TERCERO ARRIBA","cabecera":"OLIVA","provincia":"CORDOBA"}},
{"type":"Feature","geometry":{"type":"Polygon","coordinates":[[[-63.2383,-33.8083],[-63.1838,-33.61],[-63.166,-33.6129],[-63.1143,-33.4295],[-63.1317,-33.4248],[-63.0926,-33.2802],[-63.2242,-33.2501],[-63.2288,-33.2034],[-63.2108,-33.1158],[-63.2999,-33.0996],[-63.3173,-33.1604],[-63.4876,-33.1292],[-63.4655,-33.0419],[-63.4005,-33.0535],[-63.3516,-32.8736],[-63.409,-32.8613],[-63.4281,-32.9229],[-63.5355,-32.8839],[-63.5239,-32.8382],[-63.5554,-32.8309],[-63.7181,-32.7962],[-63.7019,-32.733],[-63.9125,-32.7199],[-63.989,-32.7555],[-64.042,-33.0081],[-64.0718,-33.0473],[-63.9619,-33.0714],[-63.9762,-33.1193],[-64.0459,-33.1152],[-64.0487,-33.1936],[-63.9876,-33.209],[-63.8881,-33.208],[-63.8846,-33.66],[-64.0556,-33.66],[-64.0537,-33.8388],[-63.865,-33.8422],[-63.2453,-33.836],[-63.2383,-33.8083]]]},"properties":{"id":342,"departamento":"JUAREZ CELMAN","cabecera":"LA CARLOTA","provincia":"CORDOBA"}},
{"type":"Feature","geometry":{"type":"Polygon","coordinates":[[[-63.7251,-29.6558],[-63.785,-29.5989],[-63.8417,-29.5818],[-63.8696,-29.6239],[-63.9586,-29.6213],[-63.977,-29.5554],[-64.3423,-29.5004],[-64.4615,-29.5187],[-64.4613,-29.8265],[-64.3984,-29.8376],[-64.4001,-29.9366],[-64.2127,-29.9806],[-64.1708,-30.0767],[-63.9849,-30.0982],[-63.9375,-30.0884],[-63.9362,-30.0086],[-63.8957,-29.9605],[-63.8909,-29.8923],[-63.8195,-29.8609],[-63.8191,-29.8029],[-63.7926,-29.7988],[-63.7565,-29.7004],[-63.7719,-29.6435],[-63.7251,-29.6558]]]},"properties":{"id":322,"departamento":"SOBREMONTE","cabecera":"SAN FRANCISCO DEL CHA¥AR","provincia":"CORDOBA"}},
{"type":"Feature","geometry":{"type":"Polygon","coordinates":[[[-64.4615,-29.5187],[-64.9641,-29.5961],[-64.9379,-29.8475],[-64.986,-29.8911],[-64.9839,-30.0096],[-64.2945,-30.0975],[-64.272,-30.1217],[-64.2846,-30.2161],[-64.3421,-30.2115],[-64.3769,-30.3447],[-64.3749,-30.3777],[-64.2944,-30.3778],[-64.2948,-30.4686],[-64.2616,-30.4701],[-64.1571,-30.474],[-64.1189,-30.4653],[-64.0397,-30.4842],[-64.0019,-30.4798],[-63.9602,-30.4155],[-63.8442,-30.4179],[-63.8404,-30.5106],[-63.8077,-30.5109],[-63.807,-30.5695],[-63.6284,-30.571],[-63.6167,-30.5287],[-63.5832,-30.5357],[-63.3877,-30.5766],[-63.3943,-30.6015],[-63.24,-30.6325],[-63.2433,-30.648],[-63.0567,-30.6872],[-63.0209,-30.6574],[-62.9767,-30.6695],[-62.912,-30.6306],[-62.8284,-30.6023],[-62.7,-30.5741],[-62.7045,-30.5081],[-62.6278,-30.5282],[-62.582,-30.5108],[-62.5633,-30.5418],[-62.4669,-30.5481],[-62.3599,-30.5424],[-62.3464,-30.4766],[-62.5583,-30.44],[-62.5387,-30.3548],[-63.043,-30.2658],[-63.3227,-30.2164],[-63.3531,-30.3356],[-63.3923,-30.3283],[-63.3969,-30.2801],[-63.537,-30.2802],[-63.5319,-30.1864],[-63.8394,-30.1352],[-63.8543,-30.1077],[-63.9375,-30.0884],[-63.9849,-30.0982],[-64.1708,-30.0767],[-64.2127,-29.9806],[-64.4001,-29.9366],[-64.3984,-29.8376],[-64.4613,-29.8265],[-64.4615,-29.5187]]]},"properties":{"id":323,"departamento":"TULUMBA","cabecera":"VILLA TULUMBA","provincia":"CORDOBA"}},
{"type":"Feature","geometry":{"type":"Polygon","coordinates":[[[-64.9839,-30.0096],[-64.9817,-30.4134],[-65.0422,-30.4144],[-64.9863,-30.5008],[-64.9134,-30.5847],[-64.8497,-30.6359],[-64.7138,-30.6336],[-64.7103,-30.6811],[-64.6161,-30.6812],[-64.5226,-30.6896],[-64.5211,-30.772],[-64.4419,-30.7862],[-64.4214,-30.7756],[-64.2872,-30.8014],[-64.1679,-30.7941],[-64.0998,-30.7659],[-64.1208,-30.7479],[-64.1487,-30.6692],[-64.2339,-30.5276],[-64.2651,-30.4997],[-64.2616,-30.4701],[-64.2948,-30.4686],[-64.2944,-30.3778],[-64.3749,-30.3777],[-64.3769,-30.3447],[-64.3421,-30.2115],[-64.2846,-30.2161],[-64.272,-30.1217],[-64.2945,-30.0975],[-64.9839,-30.0096]]]},"properties":{"id":324,"departamento":"ISCHILIN","cabecera":"DEAN FUNES","provincia":"CORDOBA"}},
{"type":"Feature","geometry":{"type":"Polygon","coordinates":[[[-64.2616,-30.4701],[-64.2651,-30.4997],[-64.2339,-30.5276],[-64.1487,-30.6692],[-64.1208,-30.7479],[-64.0998,-30.7659],[-64.1679,-30.7941],[-64.2872,-30.8014],[-64.4214,-30.7756],[-64.4419,-30.7862],[-64.4153,-30.8886],[-64.4155,-30.9213],[-64.2846,-30.9449],[-64.1662,-30.9735],[-64.0494,-30.9502],[-64.0013,-30.9137],[-63.8991,-30.9538],[-63.8963,-31.0317],[-63.837,-31.0328],[-63.838,-30.9844],[-63.7708,-30.9819],[-63.7367,-30.9386],[-63.719,-30.8422],[-63.6684,-30.6732],[-63.6236,-30.682],[-63.5832,-30.5357],[-63.6167,-30.5287],[-63.6284,-30.571],[-63.807,-30.5695],[-63.8077,-30.5109],[-63.8404,-30.5106],[-63.8442,-30.4179],[-63.9602,-30.4155],[-64.0019,-30.4798],[-64.0397,-30.4842],[-64.1189,-30.4653],[-64.1571,-30.474],[-64.2616,-30.4701]]]},"properties":{"id":325,"departamento":"TOTORAL","cabecera":"VILLA DEL TOTORAL","provincia":"CORDOBA"}},
{"type":"Feature","geometry":{"type":"Polygon","coordinates":[[[-64.986,-29.8911],[-65.1583,-30.0473],[-65.423,-30.1196],[-65.5208,-30.4845],[-65.5903,-30.6395],[-65.5472,-30.6475],[-65.3818,-30.6808],[-65.3466,-30.7017],[-65.3169,-30.8807],[-65.1568,-30.8732],[-65.1474,-30.9345],[-65.1182,-30.9684],[-65.1193,-31.0236],[-65.0598,-31.0316],[-64.9796,-31.1048],[-64.9368,-31.1914],[-64.9256,-31.2534],[-64.9349,-31.2838],[-64.9253,-31.3837],[-64.926,-31.3991],[-64.8394,-31.4123],[-64.7939,-31.3964],[-64.7454,-31.3382],[-64.7317,-31.2634],[-64.6724,-31.1381],[-64.6678,-31.0746],[-64.6421,-31.0407],[-64.6979,-31.0088],[-64.6762,-30.9463],[-64.6622,-30.8526],[-64.6676,-30.8155],[-64.6055,-30.7647],[-64.6161,-30.6812],[-64.7103,-30.6811],[-64.7138,-30.6336],[-64.8497,-30.6359],[-64.9134,-30.5847],[-64.9863,-30.5008],[-65.0422,-30.4144],[-64.9817,-30.4134],[-64.9839,-30.0096],[-64.986,-29.8911]]]},"properties":{"id":326,"departamento":"CRUZ DEL EJE","cabecera":"CRUZ DEL EJE","provincia":"CORDOBA"}},
{"type":"Feature","geometry":{"type":"Polygon","coordinates":[[[-64.4155,-30.9213],[-64.4339,-31.2165],[-64.4349,-31.3305],[-64.4481,-31.3865],[-64.4189,-31.3546],[-64.3091,-31.3774],[-64.3088,-31.3065],[-64.0554,-31.3071],[-64.0556,-31.435],[-63.9756,-31.4594],[-63.9563,-31.4421],[-63.9549,-31.2711],[-63.8752,-31.2705],[-63.8756,-31.1176],[-63.8362,-31.0836],[-63.837,-31.0328],[-63.8963,-31.0317],[-63.8991,-30.9538],[-64.0013,-30.9137],[-64.0494,-30.9502],[-64.1662,-30.9735],[-64.2846,-30.9449],[-64.4155,-30.9213]]]},"properties":{"id":327,"departamento":"COLON","cabecera":"JESUS MARIA","provincia":"CORDOBA"}},
{"type":"Feature","geometry":{"type":"Polygon","coordinates":[[[-64.6161,-30.6812],[-64.6055,-30.7647],[-64.6676,-30.8155],[-64.6622,-30.8526],[-64.6762,-30.9463],[-64.6979,-31.0088],[-64.6421,-31.0407],[-64.6678,-31.0746],[-64.6724,-31.1381],[-64.7317,-31.2634],[-64.7454,-31.3382],[-64.7939,-31.3964],[-64.8394,-31.4123],[-64.7555,-31.6308],[-64.7312,-31.6736],[-64.6616,-31.6939],[-64.5621,-31.7081],[-64.5317,-31.687],[-64.5486,-31.6395],[-64.5437,-31.5409],[-64.51,-31.4652],[-64.4481,-31.3865],[-64.4349,-31.3305],[-64.4339,-31.2165],[-64.4155,-30.9213],[-64.4153,-30.8886],[-64.4419,-30.7862],[-64.5211,-30.772],[-64.5226,-30.6896],[-64.6161,-30.6812]]]},"properties":{"id":328,"departamento":"PUNILLA","cabecera":"COSQUIN","provincia":"CORDOBA"}},
{"type":"Feature","geometry":{"type":"Polygon","coordinates":[[[-64.3091,-31.3774],[-64.3097,-31.5211],[-64.0558,-31.5217],[-64.0556,-31.435],[-64.0554,-31.3071],[-64.3088,-31.3065],[-64.3091,-31.3774]]]},"properties":{"id":329,"departamento":"CAPITAL","cabecera":"CORDOBA","provincia":"CORDOBA"}},
{"type":"Feature","geometry":{"type":"Polygon","coordinates":[[[-63.5554,-32.8309],[-63.5239,-32.8382],[-63.5355,-32.8839],[-63.4281,-32.9229],[-63.409,-32.8613],[-63.3516,-32.8736],[-63.4005,-33.0535],[-63.4655,-33.0419],[-63.4876,-33.1292],[-63.3173,-33.1604],[-63.2999,-33.0996],[-63.2108,-33.1158],[-63.1887,-33.12],[-63.1383,-32.9218],[-63.102,-32.8553],[-63.1117,-32.8175],[-63.0695,-32.6414],[-63.0905,-32.6367],[-63.0604,-32.5344],[-63.1465,-32.5175],[-63.0926,-32.4415],[-63.0413,-32.439],[-63.0278,-32.3896],[-62.998,-32.3825],[-62.928,-32.399],[-62.8667,-32.1665],[-62.8741,-32.1648],[-62.8632,-32.1189],[-62.853,-32.0766],[-62.9391,-32.0607],[-62.9651,-32.0604],[-63.0173,-32.0461],[-63.0193,-32.0224],[-63.1177,-32.0011],[-63.1928,-32.1131],[-63.2048,-32.0688],[-63.2821,-32.095],[-63.311,-32.0831],[-63.4701,-32.0952],[-63.3742,-32.2072],[-63.4607,-32.2597],[-63.511,-32.2351],[-63.5348,-32.3199],[-63.5655,-32.3876],[-63.5079,-32.3999],[-63.5802,-32.7116],[-63.5573,-32.7166],[-63.5757,-32.7832],[-63.5554,-32.8309]]]},"properties":{"id":339,"departamento":"GENERAL SAN MARTIN","cabecera":"VILLA MARIA","provincia":"CORDOBA"}},
{"type":"Feature","geometry":{"type":"Polygon","coordinates":[[[-63.9183,-31.9955],[-63.9161,-31.8716],[-63.9459,-31.8717],[-63.9469,-31.7491],[-64.0025,-31.7475],[-64.0287,-31.6815],[-63.9832,-31.643],[-64.0153,-31.6077],[-63.9441,-31.5587],[-63.9601,-31.5463],[-63.9563,-31.4421],[-63.9756,-31.4594],[-64.0556,-31.435],[-64.0558,-31.5217],[-64.3097,-31.5211],[-64.3091,-31.3774],[-64.4189,-31.3546],[-64.4481,-31.3865],[-64.51,-31.4652],[-64.5437,-31.5409],[-64.5486,-31.6395],[-64.5317,-31.687],[-64.5621,-31.7081],[-64.6616,-31.6939],[-64.7312,-31.6736],[-64.7283,-31.7099],[-64.7581,-31.7697],[-64.7461,-31.8167],[-64.8293,-31.8357],[-64.8756,-31.8619],[-64.9023,-31.8981],[-64.7784,-31.8914],[-64.7027,-31.8783],[-64.6231,-31.8905],[-64.5456,-31.8806],[-64.5194,-31.8269],[-64.4833,-31.8399],[-64.3892,-31.8431],[-64.3109,-31.8001],[-64.277,-31.9206],[-64.2099,-31.9299],[-64.2317,-32.0037],[-64.0668,-32.0047],[-64.0669,-31.9603],[-63.9676,-31.9608],[-63.9676,-31.9944],[-63.9183,-31.9955]]]},"properties":{"id":330,"departamento":"SANTA MARIA","cabecera":"ALTA GRACIA","provincia":"CORDOBA"}},
{"type":"Feature","geometry":{"type":"Polygon","coordinates":[[[-65.5903,-30.6395],[-65.772,-31.0445],[-65.7715,-31.2464],[-65.6299,-31.2476],[-64.9256,-31.2534],[-64.9368,-31.1914],[-64.9796,-31.1048],[-65.0598,-31.0316],[-65.1193,-31.0236],[-65.1182,-30.9684],[-65.1474,-30.9345],[-65.1568,-30.8732],[-65.3169,-30.8807],[-65.3466,-30.7017],[-65.3818,-30.6808],[-65.5472,-30.6475],[-65.5903,-30.6395]]]},"properties":{"id":331,"departamento":"MINAS","cabecera":"SAN CARLOS MINAS","provincia":"CORDOBA"}},
{"type":"Feature","geometry":{"type":"Polygon","coordinates":[[[-64.9256,-31.2534],[-65.6299,-31.2476],[-65.7715,-31.2464],[-65.7704,-31.7386],[-65.6162,-31.7408],[-65.5058,-31.7555],[-65.4734,-31.6876],[-65.4724,-31.6101],[-65.4019,-31.6109],[-65.4021,-31.6418],[-65.2788,-31.6403],[-65.2729,-31.6153],[-65.227,-31.6064],[-65.1573,-31.5399],[-65.141,-31.4563],[-65.078,-31.4076],[-64.9253,-31.3837],[-64.9349,-31.2838],[-64.9256,-31.2534]]]},"properties":{"id":332,"departamento":"POCHO","cabecera":"SALSACATE","provincia":"CORDOBA"}},
{"type":"Feature","geometry":{"type":"Polygon","coordinates":[[[-64.9253,-31.3837],[-65.078,-31.4076],[-65.141,-31.4563],[-65.1573,-31.5399],[-65.227,-31.6064],[-65.2729,-31.6153],[-65.2788,-31.6403],[-65.4021,-31.6418],[-65.4019,-31.6109],[-65.4724,-31.6101],[-65.4734,-31.6876],[-65.5058,-31.7555],[-65.6162,-31.7408],[-65.7704,-31.7386],[-65.7701,-31.8886],[-65.6285,-31.8983],[-65.6089,-31.9072],[-65.5541,-31.8928],[-65.3557,-31.8882],[-65.356,-31.9062],[-65.2671,-31.943],[-65.1707,-31.9149],[-65.1218,-31.9169],[-65.0557,-31.8737],[-64.9492,-31.884],[-64.9023,-31.8981],[-64.8756,-31.8619],[-64.8293,-31.8357],[-64.7461,-31.8167],[-64.7581,-31.7697],[-64.7283,-31.7099],[-64.7312,-31.6736],[-64.7555,-31.6308],[-64.8394,-31.4123],[-64.926,-31.3991],[-64.9253,-31.3837]]]},"properties":{"id":333,"departamento":"SAN ALBERTO","cabecera":"VILLA CURA BROCHERO","provincia":"CORDOBA"}},
{"type":"Feature","geometry":{"type":"Polygon","coordinates":[[[-65.6089,-31.9072],[-65.313,-32.0415],[-65.2449,-32.0901],[-65.2255,-32.1669],[-65.2316,-32.2105],[-65.2104,-32.2349],[-65.2114,-32.3256],[-65.087,-32.3135],[-64.9595,-32.316],[-64.9414,-32.2983],[-64.94,-32.2578],[-64.9399,-32.2495],[-64.9432,-32.1803],[-64.9286,-32.0946],[-64.9176,-31.9661],[-64.9023,-31.8981],[-64.9492,-31.884],[-65.0557,-31.8737],[-65.1218,-31.9169],[-65.1707,-31.9149],[-65.2671,-31.943],[-65.356,-31.9062],[-65.3557,-31.8882],[-65.5541,-31.8928],[-65.6089,-31.9072]]]},"properties":{"id":334,"departamento":"SAN JAVIER","cabecera":"VILLA DOLORES","provincia":"CORDOBA"}},
{"type":"Feature","geometry":{"type":"Polygon","coordinates":[[[-63.1177,-32.0011],[-63.0193,-32.0224],[-63.0173,-32.0461],[-62.9651,-32.0604],[-62.9391,-32.0607],[-62.853,-32.0766],[-62.8486,-32.0581],[-62.9061,-32.0316],[-62.9068,-31.9808],[-62.9609,-31.9355],[-62.9607,-31.8918],[-63.0185,-31.823],[-63.0251,-31.7476],[-63.0622,-31.713],[-63.0628,-31.674],[-63.1328,-31.6749],[-63.1337,-31.6451],[-63.1816,-31.6359],[-63.1907,-31.5801],[-63.232,-31.5733],[-63.2119,-31.4841],[-63.272,-31.4806],[-63.2742,-31.3314],[-63.3782,-31.3069],[-63.3761,-31.3712],[-63.5332,-31.4052],[-63.5648,-31.454],[-63.6305,-31.4856],[-63.6781,-31.4904],[-63.6849,-31.5386],[-63.8087,-31.5476],[-63.8084,-31.5635],[-63.9087,-31.5663],[-63.9441,-31.5587],[-64.0153,-31.6077],[-63.9832,-31.643],[-64.0287,-31.6815],[-64.0025,-31.7475],[-63.9469,-31.7491],[-63.9459,-31.8717],[-63.9161,-31.8716],[-63.9183,-31.9955],[-63.6962,-31.9968],[-63.6764,-32.039],[-63.582,-31.9744],[-63.5678,-31.9896],[-63.4364,-31.9935],[-63.3356,-31.9761],[-63.334,-31.9515],[-63.236,-31.9359],[-63.2239,-32.0041],[-63.1479,-31.9498],[-63.1047,-31.9528],[-63.1177,-32.0011]]]},"properties":{"id":335,"departamento":"RIO SEGUNDO","cabecera":"VILLA DEL ROSARIO","provincia":"CORDOBA"}},
{"type":"Feature","geometry":{"type":"Polygon","coordinates":[[[-63.0567,-30.6872],[-63.0492,-30.7227],[-62.9783,-30.725],[-62.8794,-30.7638],[-62.8263,-30.8109],[-62.8041,-30.8617],[-62.831,-30.949],[-62.9304,-30.9735],[-62.9642,-31.0824],[-63.0088,-31.0722],[-63.0427,-31.1295],[-63.12,-31.1127],[-63.152,-31.1572],[-63.1916,-31.2835],[-63.2387,-31.2727],[-63.2742,-31.3314],[-63.272,-31.4806],[-63.2119,-31.4841],[-63.232,-31.5733],[-63.1907,-31.5801],[-63.1816,-31.6359],[-63.1337,-31.6451],[-63.1328,-31.6749],[-63.0628,-31.674],[-63.0622,-31.713],[-63.0251,-31.7476],[-63.0185,-31.823],[-62.9607,-31.8918],[-62.9609,-31.9355],[-62.9068,-31.9808],[-62.9061,-32.0316],[-62.8486,-32.0581],[-62.8401,-32.0236],[-62.6447,-32.058],[-62.6285,-31.9947],[-62.5452,-32.0105],[-62.5338,-31.975],[-62.3184,-32.0136],[-62.3288,-32.0561],[-62.2887,-32.0646],[-62.2467,-32.0725],[-62.2103,-32.0794],[-62.1875,-32.0838],[-62.167,-31.9866],[-62.188,-31.922],[-62.2224,-31.8837],[-62.2174,-31.7405],[-62.2404,-31.6994],[-62.1258,-31.6156],[-61.8415,-30.745],[-62.1306,-30.4799],[-62.1607,-30.3861],[-62.3456,-30.3497],[-62.3464,-30.4766],[-62.3599,-30.5424],[-62.4669,-30.5481],[-62.5633,-30.5418],[-62.582,-30.5108],[-62.6278,-30.5282],[-62.7045,-30.5081],[-62.7,-30.5741],[-62.8284,-30.6023],[-62.912,-30.6306],[-62.9767,-30.6695],[-63.0209,-30.6574],[-63.0567,-30.6872]]]},"properties":{"id":336,"departamento":"SAN JUSTO","cabecera":"SAN FRANCISCO","provincia":"CORDOBA"}},
{"type":"Feature","geometry":{"type":"Polygon","coordinates":[[[-62.8198,-33.8965],[-62.7938,-33.7854],[-62.7586,-33.792],[-62.6449,-33.3562],[-62.6013,-33.3118],[-62.686,-33.2993],[-62.5686,-33.2226],[-62.5167,-33.146],[-62.6356,-33.1235],[-62.5767,-33.0827],[-62.5777,-33.0783],[-62.5342,-33.0492],[-62.5136,-32.9623],[-62.5482,-32.9542],[-62.5244,-32.8499],[-62.4473,-32.8655],[-62.4959,-32.7821],[-62.408,-32.4487],[-62.3737,-32.4523],[-62.3546,-32.3686],[-62.3148,-32.3668],[-62.3038,-32.3128],[-62.3736,-32.297],[-62.3385,-32.1435],[-62.3083,-32.1457],[-62.2887,-32.0646],[-62.3288,-32.0561],[-62.3184,-32.0136],[-62.5338,-31.975],[-62.5452,-32.0105],[-62.6285,-31.9947],[-62.6447,-32.058],[-62.8401,-32.0236],[-62.8486,-32.0581],[-62.853,-32.0766],[-62.8632,-32.1189],[-62.8741,-32.1648],[-62.8667,-32.1665],[-62.928,-32.399],[-62.998,-32.3825],[-63.0278,-32.3896],[-63.0413,-32.439],[-63.0926,-32.4415],[-63.1465,-32.5175],[-63.0604,-32.5344],[-63.0905,-32.6367],[-63.0695,-32.6414],[-63.1117,-32.8175],[-63.102,-32.8553],[-63.1383,-32.9218],[-63.1887,-33.12],[-63.2108,-33.1158],[-63.2288,-33.2034],[-63.2242,-33.2501],[-63.0926,-33.2802],[-63.1317,-33.4248],[-63.1143,-33.4295],[-63.166,-33.6129],[-63.1838,-33.61],[-63.2383,-33.8083],[-62.8198,-33.8965]]]},"properties":{"id":337,"departamento":"UNION","cabecera":"BEL VILLE","provincia":"CORDOBA"}},
{"type":"Feature","geometry":{"type":"Polygon","coordinates":[[[-63.5832,-30.5357],[-63.6236,-30.682],[-63.6684,-30.6732],[-63.719,-30.8422],[-63.7367,-30.9386],[-63.7708,-30.9819],[-63.838,-30.9844],[-63.837,-31.0328],[-63.8362,-31.0836],[-63.8756,-31.1176],[-63.8752,-31.2705],[-63.9549,-31.2711],[-63.9563,-31.4421],[-63.9601,-31.5463],[-63.9441,-31.5587],[-63.9087,-31.5663],[-63.8084,-31.5635],[-63.8087,-31.5476],[-63.6849,-31.5386],[-63.6781,-31.4904],[-63.6305,-31.4856],[-63.5648,-31.454],[-63.5332,-31.4052],[-63.3761,-31.3712],[-63.3782,-31.3069],[-63.2742,-31.3314],[-63.2387,-31.2727],[-63.1916,-31.2835],[-63.152,-31.1572],[-63.12,-31.1127],[-63.0427,-31.1295],[-63.0088,-31.0722],[-62.9642,-31.0824],[-62.9304,-30.9735],[-62.831,-30.949],[-62.8041,-30.8617],[-62.8263,-30.8109],[-62.8794,-30.7638],[-62.9783,-30.725],[-63.0492,-30.7227],[-63.0567,-30.6872],[-63.2433,-30.648],[-63.24,-30.6325],[-63.3943,-30.6015],[-63.3877,-30.5766],[-63.5832,-30.5357]]]},"properties":{"id":340,"departamento":"RIO PRIMERO","cabecera":"SANTA ROSA DE RIO PRIMERO","provincia":"CORDOBA"}},
{"type":"Feature","geometry":{"type":"Polygon","coordinates":[[[-62.551,-33.9537],[-62.1236,-33.3883],[-61.9203,-33.1202],[-61.9041,-33.1174],[-61.7864,-33.0044],[-61.7901,-32.9584],[-61.771,-32.9012],[-61.7919,-32.873],[-61.777,-32.8313],[-61.7954,-32.7739],[-61.8227,-32.7582],[-61.8574,-32.6942],[-61.9074,-32.696],[-61.9448,-32.6506],[-61.8887,-32.6135],[-61.9121,-32.5],[-61.9444,-32.4371],[-62.0118,-32.3443],[-62.0345,-32.2667],[-62.1278,-32.2085],[-62.1795,-32.1567],[-62.1875,-32.0838],[-62.2103,-32.0794],[-62.2467,-32.0725],[-62.2887,-32.0646],[-62.3083,-32.1457],[-62.3385,-32.1435],[-62.3736,-32.297],[-62.3038,-32.3128],[-62.3148,-32.3668],[-62.3546,-32.3686],[-62.3737,-32.4523],[-62.408,-32.4487],[-62.4959,-32.7821],[-62.4473,-32.8655],[-62.5244,-32.8499],[-62.5482,-32.9542],[-62.5136,-32.9623],[-62.5342,-33.0492],[-62.5777,-33.0783],[-62.5767,-33.0827],[-62.6356,-33.1235],[-62.5167,-33.146],[-62.5686,-33.2226],[-62.686,-33.2993],[-62.6013,-33.3118],[-62.6449,-33.3562],[-62.7586,-33.792],[-62.7938,-33.7854],[-62.8198,-33.8965],[-62.7534,-33.9106],[-62.6254,-33.9378],[-62.551,-33.9537]]]},"properties":{"id":338,"departamento":"MARCOS JUAREZ","cabecera":"MARCOS JUAREZ","provincia":"CORDOBA"}},
{"type":"Feature","geometry":{"type":"Polygon","coordinates":[[[-64.0537,-33.8388],[-64.0556,-33.66],[-63.8846,-33.66],[-63.8881,-33.208],[-63.9876,-33.209],[-64.0487,-33.1936],[-64.0459,-33.1152],[-63.9762,-33.1193],[-63.9619,-33.0714],[-64.0718,-33.0473],[-64.042,-33.0081],[-63.989,-32.7555],[-64.0285,-32.7597],[-63.9658,-32.49],[-63.9241,-32.4697],[-63.9019,-32.3853],[-63.9824,-32.3664],[-63.9755,-32.3377],[-64.0658,-32.3192],[-64.2411,-32.3118],[-64.2605,-32.3603],[-64.2574,-32.4011],[-64.3135,-32.3872],[-64.329,-32.4295],[-64.4299,-32.4054],[-64.4427,-32.486],[-64.4722,-32.4856],[-64.5133,-32.6245],[-64.6593,-32.6305],[-64.8956,-32.5863],[-64.9217,-32.6101],[-64.9162,-32.6792],[-64.9482,-32.7228],[-64.9446,-32.7673],[-64.9707,-32.8051],[-64.9648,-32.8523],[-64.9955,-32.95],[-65.0215,-32.9771],[-64.9997,-33.0027],[-65.0481,-33.0688],[-65.0741,-33.1423],[-65.1427,-33.1945],[-65.1177,-33.9436],[-64.9969,-34.0365],[-64.9678,-34.0271],[-64.8422,-34.0536],[-64.7878,-34.0933],[-64.6862,-34.1137],[-64.6422,-34.1557],[-64.5471,-34.1933],[-64.5198,-34.1843],[-64.4412,-34.2177],[-64.3908,-34.2056],[-64.2898,-34.2159],[-64.2336,-34.2402],[-64.1304,-34.1876],[-64.0528,-34.1661],[-64.0537,-33.8388]]]},"properties":{"id":343,"departamento":"RIO CUARTO","cabecera":"RIO CUARTO","provincia":"CORDOBA"}},
{"type":"Feature","geometry":{"type":"Polygon","coordinates":[[[-64.2336,-34.2402],[-64.2898,-34.2159],[-64.3908,-34.2056],[-64.4412,-34.2177],[-64.5198,-34.1843],[-64.5471,-34.1933],[-64.6422,-34.1557],[-64.6862,-34.1137],[-64.7878,-34.0933],[-64.8422,-34.0536],[-64.9678,-34.0271],[-64.9969,-34.0365],[-65.1177,-33.9436],[-65.1175,-34.4858],[-65.1175,-35],[-64.4845,-35],[-63.9387,-35],[-63.3843,-35.0001],[-63.3835,-34.5268],[-63.5033,-34.5171],[-63.503,-34.545],[-63.6139,-34.5379],[-63.8211,-34.5389],[-63.8246,-34.3584],[-64.0233,-34.3576],[-64.1443,-34.3648],[-64.1447,-34.2692],[-64.2336,-34.2402]]]},"properties":{"id":397,"departamento":"GENERAL ROCA","cabecera":"VILLA HUIDOBRO","provincia":"CORDOBA"}},
{"type":"Feature","geometry":{"type":"Polygon","coordinates":[[[-64.2317,-32.0037],[-64.2099,-31.9299],[-64.277,-31.9206],[-64.3109,-31.8001],[-64.3892,-31.8431],[-64.4833,-31.8399],[-64.5194,-31.8269],[-64.5456,-31.8806],[-64.6231,-31.8905],[-64.7027,-31.8783],[-64.7784,-31.8914],[-64.9023,-31.8981],[-64.9176,-31.9661],[-64.9286,-32.0946],[-64.9432,-32.1803],[-64.9399,-32.2495],[-64.94,-32.2578],[-64.9414,-32.2983],[-64.9253,-32.3255],[-64.9198,-32.4667],[-64.8955,-32.4852],[-64.8836,-32.5734],[-64.8956,-32.5863],[-64.6593,-32.6305],[-64.5133,-32.6245],[-64.4722,-32.4856],[-64.4427,-32.486],[-64.4299,-32.4054],[-64.329,-32.4295],[-64.3135,-32.3872],[-64.2574,-32.4011],[-64.2605,-32.3603],[-64.299,-32.3246],[-64.2956,-32.1888],[-64.2592,-32.1596],[-64.2583,-32.0909],[-64.2317,-32.0037]]]},"properties":{"id":378,"departamento":"CALAMUCHITA","cabecera":"SAN AGUSTIN","provincia":"CORDOBA"}},
{"type":"Feature","geometry":{"type":"Polygon","coordinates":[[[-63.9375,-30.0884],[-63.8543,-30.1077],[-63.8394,-30.1352],[-63.5319,-30.1864],[-63.537,-30.2802],[-63.3969,-30.2801],[-63.3923,-30.3283],[-63.3531,-30.3356],[-63.3227,-30.2164],[-63.043,-30.2658],[-62.5387,-30.3548],[-62.5583,-30.44],[-62.3464,-30.4766],[-62.3456,-30.3497],[-62.1607,-30.3861],[-62.1738,-30.3453],[-62.5201,-30.3419],[-62.5345,-30.312],[-62.5894,-30.2687],[-62.5962,-30.1641],[-62.5646,-30.1148],[-62.5565,-30.0628],[-62.6554,-30.0553],[-62.655,-30.0073],[-62.7239,-29.9908],[-62.7855,-29.9457],[-62.8005,-29.908],[-62.837,-29.8729],[-62.807,-29.8159],[-63.459,-29.7571],[-63.4807,-29.7257],[-63.4652,-29.6648],[-63.585,-29.6576],[-63.7033,-29.6628],[-63.7251,-29.6558],[-63.7719,-29.6435],[-63.7565,-29.7004],[-63.7926,-29.7988],[-63.8191,-29.8029],[-63.8195,-29.8609],[-63.8909,-29.8923],[-63.8957,-29.9605],[-63.9362,-30.0086],[-63.9375,-30.0884]]]},"properties":{"id":433,"departamento":"RIO SECO","cabecera":"VILLA DE MARIA","provincia":"CORDOBA"}}
]}