{"type":"FeatureCollection", "features": [
{"type":"Feature","geometry":{"type":"Polygon","coordinates":[[[-58.648,-27.3904],[-58.6692,-27.3592],[-58.7009,-27.3635],[-58.7456,-27.3822],[-58.7683,-27.3763],[-58.7935,-27.3932],[-58.8086,-27.4237],[-58.8573,-27.4672],[-58.8814,-27.4979],[-58.8812,-27.5287],[-58.8714,-27.5799],[-58.8832,-27.6061],[-58.8589,-27.599],[-58.7946,-27.5662],[-58.7482,-27.5548],[-58.735,-27.5444],[-58.6926,-27.5337],[-58.6171,-27.5395],[-58.6087,-27.4753],[-58.6008,-27.4513],[-58.6112,-27.4279],[-58.6319,-27.4068],[-58.648,-27.3904]]]},"properties":{"id":33,"departamento":"CAPITAL","cabecera":"CORRIENTES","provincia":"CORRIENTES"}},
{"type":"Feature","geometry":{"type":"Polygon","coordinates":[[[-57.7984,-27.3408],[-57.8272,-27.3275],[-57.856,-27.2836],[-57.8817,-27.27],[-57.9323,-27.2641],[-57.9763,-27.274],[-58.0099,-27.2594],[-58.0608,-27.2607],[-58.0882,-27.275],[-58.197,-27.28],[-58.2431,-27.262],[-58.2909,-27.275],[-58.3572,-27.2828],[-58.3475,-27.2964],[-58.3449,-27.3069],[-58.3449,-27.3443],[-58.3364,-27.3647],[-58.3157,-27.3887],[-58.2705,-27.4165],[-58.2304,-27.4165],[-58.1765,-27.3956],[-58.1312,-27.3695],[-58.086,-27.3626],[-58.0782,-27.3687],[-57.992,-27.38],[-57.9511,-27.4],[-57.9102,-27.4043],[-57.8692,-27.3984],[-57.8597,-27.3769],[-57.8319,-27.3618],[-57.8216,-27.3515],[-57.7984,-27.3408]]]},"properties":{"id":34,"departamento":"ITATI","cabecera":"ITATI","provincia":"CORRIENTES"}},
{"type":"Feature","geometry":{"type":"Polygon","coordinates":[[[-57.8692,-27.3984],[-57.8287,-27.4268],[-57.7917,-27.4295],[-57.7331,-27.4423],[-57.6949,-27.4598],[-57.6889,-27.503],[-57.6782,-27.5255],[-57.645,-27.5437],[-57.6418,-27.5658],[-57.6146,-27.5679],[-57.5864,-27.5922],[-57.5618,-27.5822],[-57.5443,-27.5651],[-57.4972,-27.5312],[-57.4444,-27.4994],[-57.4237,-27.4816],[-57.4069,-27.4598],[-57.3876,-27.4216],[-57.439,-27.4383],[-57.5075,-27.4442],[-57.5435,-27.433],[-57.5609,-27.4167],[-57.6098,-27.3957],[-57.6524,-27.3672],[-57.6706,-27.3408],[-57.7053,-27.3256],[-57.7308,-27.336],[-57.7984,-27.3408],[-57.8216,-27.3515],[-57.8319,-27.3618],[-57.8597,-27.3769],[-57.8692,-27.3984]]]},"properties":{"id":35,"departamento":"BERON DE ASTRADA","cabecera":"BERON DE ASTRADA","provincia":"CORRIENTES"}},
{"type":"Feature","geometry":{"type":"Polygon","coordinates":[[[-57.8287,-27.4268],[-57.8336,-27.4348],[-57.9181,-27.5244],[-57.9859,-27.5679],[-58.0055,-27.5949],[-58.0812,-27.6358],[-58.1369,-27.6575],[-58.1961,-27.6906],[-58.2944,-27.7367],[-58.3022,-27.7507],[-58.2944,-27.7768],[-58.2718,-27.7959],[-58.2396,-27.8029],[-58.1586,-27.7855],[-58.1251,-27.7703],[-58.0795,-27.7559],[-58.0568,-27.7707],[-58.0473,-27.7933],[-58.0673,-27.8116],[-58.0769,-27.8316],[-58.0742,-27.8507],[-58.0429,-27.8725],[-58.0168,-27.9247],[-57.9916,-27.9377],[-57.9202,-27.949],[-57.9051,-27.9644],[-57.7736,-27.9399],[-57.7403,-27.9154],[-57.7018,-27.8832],[-57.6688,-27.8125],[-57.6233,-27.7629],[-57.5769,-27.7193],[-57.5576,-27.6961],[-57.4811,-27.6383],[-57.4618,-27.6062],[-57.4106,-27.5609],[-57.376,-27.5459],[-57.3446,-27.5262],[-57.2839,-27.4813],[-57.243,-27.4634],[-57.2399,-27.4618],[-57.2796,-27.4303],[-57.3022,-27.4255],[-57.3265,-27.4098],[-57.3876,-27.4216],[-57.4069,-27.4598],[-57.4237,-27.4816],[-57.4444,-27.4994],[-57.4972,-27.5312],[-57.5443,-27.5651],[-57.5618,-27.5822],[-57.5864,-27.5922],[-57.6146,-27.5679],[-57.6418,-27.5658],[-57.645,-27.5437],[-57.6782,-27.5255],[-57.6889,-27.503],[-57.6949,-27.4598],[-57.7331,-27.4423],[-57.7917,-27.4295],[-57.8287,-27.4268]]]},"properties":{"id":36,"departamento":"GENERAL PAZ","cabecera":"NUESTRA SE¥ORA DEL ROSARIO DE CAA CATI","provincia":"CORRIENTES"}},
{"type":"Feature","geometry":{"type":"Polygon","coordinates":[[[-58.3025,-28.8235],[-58.3244,-28.8601],[-58.3679,-28.8947],[-58.3993,-28.9058],[-58.4688,-28.9082],[-58.5116,-28.919],[-58.5341,-28.9389],[-58.5508,-28.9725],[-58.5629,-29.0184],[-58.55,-29.018],[-58.5125,-29.0408],[-58.4661,-29.0751],[-58.45,-29.099],[-58.4027,-29.1429],[-58.3663,-29.19],[-58.339,-29.2346],[-58.3165,-29.2468],[-58.2389,-29.3167],[-58.1961,-29.3431],[-58.1432,-29.3685],[-58.0963,-29.397],[-58.0392,-29.4638],[-58.016,-29.4759],[-57.9266,-29.4781],[-57.8897,-29.4877],[-57.8615,-29.5277],[-57.8283,-29.5527],[-57.7897,-29.6494],[-57.7715,-29.6836],[-57.7387,-29.7047],[-57.693,-29.7158],[-57.6514,-29.7407],[-57.6296,-29.7647],[-57.6256,-29.7914],[-57.5685,-29.7605],[-57.5171,-29.6859],[-57.5021,-29.6438],[-57.4848,-29.612],[-57.4845,-29.5788],[-57.492,-29.5278],[-57.4622,-29.4956],[-57.4554,-29.4703],[-57.4736,-29.4428],[-57.4852,-29.4085],[-57.4798,-29.3825],[-57.4848,-29.3522],[-57.5137,-29.3268],[-57.5168,-29.2965],[-57.4968,-29.2415],[-57.4818,-29.2187],[-57.4773,-29.1887],[-57.4505,-29.1565],[-57.4581,-29.1479],[-57.4424,-29.1222],[-57.4238,-29.1108],[-57.3794,-29.0647],[-57.3487,-29.0429],[-57.2884,-28.9801],[-57.2789,-28.9609],[-57.2461,-28.9291],[-57.1882,-28.8816],[-57.1445,-28.806],[-57.1418,-28.7203],[-57.1484,-28.6043],[-57.1629,-28.5618],[-57.1693,-28.5008],[-57.1916,-28.4729],[-57.1892,-28.4723],[-57.1916,-28.4729],[-57.2162,-28.4805],[-57.2539,-28.4958],[-57.311,-28.5181],[-57.4201,-28.5431],[-57.446,-28.5471],[-57.4928,-28.5551],[-57.5169,-28.5596],[-57.5611,-28.5672],[-57.5744,-28.5732],[-57.6741,-28.6011],[-57.7753,-28.6176],[-57.8437,-28.6367],[-57.9107,-28.66],[-57.9641,-28.6682],[-58.0092,-28.66],[-58.0599,-28.6654],[-58.1132,-28.6805],[-58.1652,-28.7092],[-58.2268,-28.7516],[-58.3025,-28.8235]]]},"properties":{"id":27,"departamento":"MERCEDES","cabecera":"MERCEDES","provincia":"CORRIENTES"}},
{"type":"Feature","geometry":{"type":"Polygon","coordinates":[[[-57.9051,-27.9644],[-57.972,-27.977],[-58.0363,-28.0009],[-58.0705,-28.0281],[-58.1428,-28.0652],[-58.1549,-28.0795],[-58.1896,-28.0984],[-58.2424,-28.1141],[-58.3204,-28.1601],[-58.328,-28.1776],[-58.3314,-28.1905],[-58.3611,-28.2112],[-58.3748,-28.2333],[-58.4031,-28.2638],[-58.3526,-28.3248],[-58.3116,-28.385],[-58.302,-28.4055],[-58.395,-28.5054],[-58.4169,-28.5355],[-58.4429,-28.5574],[-58.4511,-28.5943],[-58.473,-28.6381],[-58.5031,-28.6613],[-58.5414,-28.6777],[-58.5483,-28.7065],[-58.5113,-28.753],[-58.4826,-28.7626],[-58.4388,-28.7544],[-58.3937,-28.7202],[-58.3636,-28.7379],[-58.3472,-28.7735],[-58.3025,-28.8235],[-58.2268,-28.7516],[-58.1652,-28.7092],[-58.1132,-28.6805],[-58.0599,-28.6654],[-58.0092,-28.66],[-57.9641,-28.6682],[-57.9107,-28.66],[-57.8437,-28.6367],[-57.7753,-28.6176],[-57.6741,-28.6011],[-57.5744,-28.5732],[-57.5767,-28.5681],[-57.5883,-28.552],[-57.6026,-28.5194],[-57.6135,-28.4766],[-57.6274,-28.4565],[-57.601,-28.3959],[-57.601,-28.3562],[-57.5957,-28.3316],[-57.6307,-28.3062],[-57.6321,-28.2601],[-57.6007,-28.2173],[-57.5918,-28.1648],[-57.6233,-28.1156],[-57.6348,-28.0881],[-57.6164,-28.0563],[-57.6542,-27.996],[-57.6999,-27.9432],[-57.7403,-27.9154],[-57.7736,-27.9399],[-57.9051,-27.9644]]]},"properties":{"id":28,"departamento":"CONCEPCION","cabecera":"CONCEPCION","provincia":"CORRIENTES"}},
{"type":"Feature","geometry":{"type":"Polygon","coordinates":[[[-58.3025,-28.8235],[-58.3472,-28.7735],[-58.3636,-28.7379],[-58.3937,-28.7202],[-58.4388,-28.7544],[-58.4826,-28.7626],[-58.5113,-28.753],[-58.5483,-28.7065],[-58.5414,-28.6777],[-58.5031,-28.6613],[-58.473,-28.6381],[-58.4511,-28.5943],[-58.4429,-28.5574],[-58.4169,-28.5355],[-58.395,-28.5054],[-58.302,-28.4055],[-58.3116,-28.385],[-58.3526,-28.3248],[-58.4031,-28.2638],[-58.433,-28.2922],[-58.4483,-28.2968],[-58.4721,-28.3215],[-58.5392,-28.3646],[-58.5831,-28.4075],[-58.6496,-28.4598],[-58.6789,-28.4828],[-58.7123,-28.531],[-58.7372,-28.5527],[-58.7758,-28.5752],[-58.8456,-28.632],[-58.8738,-28.6648],[-58.9159,-28.7048],[-58.9391,-28.7169],[-58.9805,-28.775],[-58.968,-28.7903],[-58.9405,-28.8039],[-58.9066,-28.8081],[-58.8572,-28.8071],[-58.8243,-28.8242],[-58.7847,-28.8592],[-58.739,-28.8838],[-58.7081,-28.8913],[-58.6211,-28.9345],[-58.5768,-28.9841],[-58.5633,-29.0184],[-58.5629,-29.0184],[-58.5508,-28.9725],[-58.5341,-28.9389],[-58.5116,-28.919],[-58.4688,-28.9082],[-58.3993,-28.9058],[-58.3679,-28.8947],[-58.3244,-28.8601],[-58.3025,-28.8235]]]},"properties":{"id":29,"departamento":"SAN ROQUE","cabecera":"SAN ROQUE","provincia":"CORRIENTES"}},
{"type":"Feature","geometry":{"type":"Polygon","coordinates":[[[-58.328,-28.1776],[-58.3614,-28.146],[-58.3628,-28.1363],[-58.335,-28.0935],[-58.3944,-27.9825],[-58.4138,-27.9648],[-58.4647,-27.9457],[-58.5033,-27.9432],[-58.6098,-27.9668],[-58.6544,-27.9811],[-58.7082,-28.0225],[-58.796,-28.0549],[-58.8126,-28.1049],[-58.8268,-28.1331],[-58.8577,-28.1592],[-58.9123,-28.1734],[-58.9544,-28.1777],[-59.0185,-28.2081],[-59.0855,-28.2199],[-59.0697,-28.2362],[-58.9883,-28.2855],[-58.9401,-28.2887],[-58.8964,-28.2787],[-58.8614,-28.2605],[-58.8308,-28.2269],[-58.8072,-28.2116],[-58.7894,-28.2369],[-58.7824,-28.2648],[-58.7606,-28.3054],[-58.7592,-28.3411],[-58.7306,-28.3943],[-58.7024,-28.399],[-58.6946,-28.4268],[-58.6682,-28.4529],[-58.6496,-28.4598],[-58.5831,-28.4075],[-58.5392,-28.3646],[-58.4721,-28.3215],[-58.4483,-28.2968],[-58.433,-28.2922],[-58.4031,-28.2638],[-58.3748,-28.2333],[-58.3611,-28.2112],[-58.3314,-28.1905],[-58.328,-28.1776]]]},"properties":{"id":30,"departamento":"SALADAS","cabecera":"SALADAS","provincia":"CORRIENTES"}},
{"type":"Feature","geometry":{"type":"Polygon","coordinates":[[[-58.1251,-27.7703],[-58.1613,-27.8006],[-58.1724,-27.8395],[-58.1945,-27.8692],[-58.2282,-27.8927],[-58.2849,-27.9122],[-58.3264,-27.9296],[-58.3517,-27.9303],[-58.3852,-27.9432],[-58.4138,-27.9648],[-58.3944,-27.9825],[-58.335,-28.0935],[-58.3628,-28.1363],[-58.3614,-28.146],[-58.328,-28.1776],[-58.3204,-28.1601],[-58.2424,-28.1141],[-58.1896,-28.0984],[-58.1549,-28.0795],[-58.1428,-28.0652],[-58.0705,-28.0281],[-58.0363,-28.0009],[-57.972,-27.977],[-57.9051,-27.9644],[-57.9202,-27.949],[-57.9916,-27.9377],[-58.0168,-27.9247],[-58.0429,-27.8725],[-58.0742,-27.8507],[-58.0769,-27.8316],[-58.0673,-27.8116],[-58.0473,-27.7933],[-58.0568,-27.7707],[-58.0795,-27.7559],[-58.1251,-27.7703]]]},"properties":{"id":31,"departamento":"MBURUCUYA","cabecera":"MBURUCUYA","provincia":"CORRIENTES"}},
{"type":"Feature","geometry":{"type":"Polygon","coordinates":[[[-58.6171,-27.5395],[-58.6056,-27.6427],[-58.5978,-27.6809],[-58.5642,-27.6655],[-58.5136,-27.6826],[-58.4945,-27.7137],[-58.4627,-27.7262],[-58.4152,-27.7333],[-58.392,-27.7451],[-58.386,-27.7897],[-58.3658,-27.8243],[-58.3333,-27.8336],[-58.3208,-27.8718],[-58.2849,-27.9122],[-58.2282,-27.8927],[-58.1945,-27.8692],[-58.1724,-27.8395],[-58.1613,-27.8006],[-58.1251,-27.7703],[-58.1586,-27.7855],[-58.2396,-27.8029],[-58.2718,-27.7959],[-58.2944,-27.7768],[-58.3022,-27.7507],[-58.2944,-27.7367],[-58.1961,-27.6906],[-58.1369,-27.6575],[-58.0812,-27.6358],[-58.0055,-27.5949],[-57.9859,-27.5679],[-57.9181,-27.5244],[-57.8336,-27.4348],[-57.8287,-27.4268],[-57.8692,-27.3984],[-57.9102,-27.4043],[-57.9511,-27.4],[-57.992,-27.38],[-58.0782,-27.3687],[-58.086,-27.3626],[-58.1312,-27.3695],[-58.1765,-27.3956],[-58.2304,-27.4165],[-58.2705,-27.4165],[-58.3157,-27.3887],[-58.3364,-27.3647],[-58.3723,-27.3454],[-58.4079,-27.344],[-58.5018,-27.374],[-58.5454,-27.4168],[-58.6008,-27.4513],[-58.6087,-27.4753],[-58.6171,-27.5395]]]},"properties":{"id":32,"departamento":"SAN LUIS DEL PALMAR","cabecera":"SAN LUIS DEL PALMAR","provincia":"CORRIENTES"}},
{"type":"Feature","geometry":{"type":"Polygon","coordinates":[[[-55.9813,-27.8716],[-56.0223,-27.8355],[-56.0453,-27.8293],[-56.114,-27.7936],[-56.1381,-27.7753],[-56.1626,-27.7659],[-56.1751,-27.7632],[-56.1823,-27.757],[-56.1908,-27.7592],[-56.2032,-27.7721],[-56.2153,-27.7878],[-56.2307,-27.7971],[-56.2396,-27.831],[-56.2566,-27.84],[-56.286,-27.8542],[-56.2945,-27.8828],[-56.3208,-27.8605],[-56.3427,-27.8578],[-56.3819,-27.8801],[-56.4147,-27.8806],[-56.4344,-27.8645],[-56.4714,-27.8355],[-56.4776,-27.8252],[-56.4973,-27.8007],[-56.5343,-27.7744],[-56.5606,-27.8096],[-56.58,-27.8529],[-56.626,-27.9198],[-56.6452,-27.9359],[-56.6599,-27.9653],[-56.686,-27.9854],[-56.7257,-28.0037],[-56.7368,-28.0322],[-56.756,-28.0621],[-56.7723,-28.1291],[-56.8058,-28.1563],[-56.8269,-28.1716],[-56.8275,-28.172],[-56.8158,-28.1797],[-56.7398,-28.1957],[-56.607,-28.2079],[-56.5629,-28.1904],[-56.5468,-28.2011],[-56.5376,-28.2236],[-56.4976,-28.2461],[-56.4883,-28.2942],[-56.4917,-28.3349],[-56.5072,-28.4042],[-56.4983,-28.4205],[-56.4719,-28.4284],[-56.4137,-28.4359],[-56.363,-28.4556],[-56.3487,-28.4881],[-56.3461,-28.5137],[-56.3264,-28.5698],[-56.3227,-28.5937],[-56.3427,-28.6144],[-56.3627,-28.6665],[-56.385,-28.6794],[-56.386,-28.6979],[-56.3714,-28.7122],[-56.34,-28.7215],[-56.3407,-28.7418],[-56.3236,-28.7772],[-56.307,-28.7929],[-56.2981,-28.8052],[-56.2854,-28.7893],[-56.2592,-28.7783],[-56.1919,-28.7736],[-56.1608,-28.7396],[-56.1482,-28.7157],[-56.1186,-28.6817],[-56.0517,-28.6257],[-56.0111,-28.6082],[-56.0023,-28.5785],[-56.0245,-28.5453],[-56.022,-28.5199],[-55.9971,-28.5002],[-55.9496,-28.4942],[-55.9132,-28.4818],[-55.8842,-28.4796],[-55.8812,-28.4696],[-55.9018,-28.4149],[-55.902,-28.4017],[-55.8783,-28.3612],[-55.8512,-28.355],[-55.8034,-28.3661],[-55.7574,-28.3686],[-55.739,-28.3767],[-55.7189,-28.4202],[-55.6917,-28.4176],[-55.6889,-28.3867],[-55.6686,-28.3416],[-55.6699,-28.3308],[-55.7038,-28.3103],[-55.7349,-28.2849],[-55.765,-28.2773],[-55.7825,-28.2539],[-55.7689,-28.2406],[-55.6916,-28.2172],[-55.6521,-28.1825],[-55.6266,-28.1709],[-55.6202,-28.1375],[-55.6451,-28.1308],[-55.6564,-28.115],[-55.6937,-28.0902],[-55.7167,-28.0809],[-55.7152,-28.0659],[-55.7582,-28.0609],[-55.7491,-28.0289],[-55.7767,-28.0071],[-55.788,-27.9809],[-55.8002,-27.9749],[-55.8133,-27.9774],[-55.8256,-27.9886],[-55.8539,-27.9818],[-55.8495,-27.9631],[-55.8738,-27.9332],[-55.9394,-27.9038],[-55.9813,-27.8716]]]},"properties":{"id":37,"departamento":"SANTO TOME","cabecera":"SANTO TOME","provincia":"CORRIENTES"}},
{"type":"Feature","geometry":{"type":"Polygon","coordinates":[[[-56.4983,-28.4205],[-56.549,-28.4641],[-56.5779,-28.5209],[-56.6259,-28.5726],[-56.6377,-28.5944],[-56.635,-28.6404],[-56.6236,-28.6704],[-56.6653,-28.7136],[-56.6587,-28.7764],[-56.648,-28.806],[-56.6468,-28.8489],[-56.6098,-28.9692],[-56.5806,-29.0177],[-56.5697,-29.0384],[-56.5643,-29.0794],[-56.5561,-29.0994],[-56.5631,-29.1172],[-56.5491,-29.1194],[-56.5171,-29.0972],[-56.4252,-29.0818],[-56.3988,-29.0258],[-56.4162,-29],[-56.4099,-28.9776],[-56.3905,-28.9551],[-56.3375,-28.9346],[-56.3019,-28.9011],[-56.2975,-28.8531],[-56.2981,-28.8052],[-56.307,-28.7929],[-56.3236,-28.7772],[-56.3407,-28.7418],[-56.34,-28.7215],[-56.3714,-28.7122],[-56.386,-28.6979],[-56.385,-28.6794],[-56.3627,-28.6665],[-56.3427,-28.6144],[-56.3227,-28.5937],[-56.3264,-28.5698],[-56.3461,-28.5137],[-56.3487,-28.4881],[-56.363,-28.4556],[-56.4137,-28.4359],[-56.4719,-28.4284],[-56.4983,-28.4205]]]},"properties":{"id":38,"departamento":"GENERAL ALVEAR","cabecera":"GENERAL ALVEAR","provincia":"CORRIENTES"}},
{"type":"Feature","geometry":{"type":"Polygon","coordinates":[[[-57.4505,-29.1565],[-57.3765,-29.1764],[-57.358,-29.1918],[-57.328,-29.2007],[-57.1836,-29.2203],[-57.1106,-29.2257],[-57.0714,-29.2232],[-57.0364,-29.23],[-57.0175,-29.2039],[-56.9955,-29.1946],[-56.9534,-29.1907],[-56.9302,-29.1943],[-56.8611,-29.1943],[-56.8336,-29.19],[-56.809,-29.2236],[-56.809,-29.2621],[-56.8044,-29.2792],[-56.8092,-29.3506],[-56.819,-29.4291],[-56.805,-29.4648],[-56.7778,-29.4394],[-56.7761,-29.3963],[-56.7478,-29.3727],[-56.7155,-29.3708],[-56.7013,-29.3625],[-56.6496,-29.2724],[-56.6537,-29.2265],[-56.6458,-29.2033],[-56.6078,-29.1653],[-56.5854,-29.1214],[-56.5631,-29.1172],[-56.5561,-29.0994],[-56.5643,-29.0794],[-56.5697,-29.0384],[-56.5806,-29.0177],[-56.6098,-28.9692],[-56.6468,-28.8489],[-56.648,-28.806],[-56.6587,-28.7764],[-56.6653,-28.7136],[-56.6236,-28.6704],[-56.635,-28.6404],[-56.6377,-28.5944],[-56.6259,-28.5726],[-56.5779,-28.5209],[-56.549,-28.4641],[-56.4983,-28.4205],[-56.5072,-28.4042],[-56.4917,-28.3349],[-56.4883,-28.2942],[-56.4976,-28.2461],[-56.5376,-28.2236],[-56.5468,-28.2011],[-56.5629,-28.1904],[-56.607,-28.2079],[-56.7398,-28.1957],[-56.8158,-28.1797],[-56.8275,-28.172],[-56.8316,-28.175],[-56.8624,-28.2129],[-56.8888,-28.2259],[-56.9149,-28.2562],[-56.963,-28.2937],[-56.988,-28.3075],[-57.0019,-28.3307],[-57.0251,-28.3459],[-57.0469,-28.3682],[-57.0779,-28.3865],[-57.1252,-28.4289],[-57.1453,-28.4391],[-57.1868,-28.4717],[-57.1916,-28.4729],[-57.1892,-28.4723],[-57.1916,-28.4729],[-57.1693,-28.5008],[-57.1629,-28.5618],[-57.1484,-28.6043],[-57.1418,-28.7203],[-57.1445,-28.806],[-57.1882,-28.8816],[-57.2461,-28.9291],[-57.2789,-28.9609],[-57.2884,-28.9801],[-57.3487,-29.0429],[-57.3794,-29.0647],[-57.4238,-29.1108],[-57.4424,-29.1222],[-57.4581,-29.1479],[-57.4505,-29.1565]]]},"properties":{"id":39,"departamento":"SAN MARTIN","cabecera":"LA CRUZ","provincia":"CORRIENTES"}},
{"type":"Feature","geometry":{"type":"Polygon","coordinates":[[[-57.6256,-29.7914],[-57.6291,-29.8339],[-57.6366,-29.8646],[-57.6587,-29.8892],[-57.6289,-29.9688],[-57.6138,-29.9959],[-57.6059,-30.0024],[-57.5588,-29.9999],[-57.5309,-29.9863],[-57.5017,-30.0052],[-57.4913,-30.0302],[-57.5277,-30.0502],[-57.5504,-30.082],[-57.5736,-30.0912],[-57.5722,-30.1466],[-57.5718,-30.1548],[-57.5693,-30.1727],[-57.549,-30.166],[-57.4873,-30.1288],[-57.4589,-30.1026],[-57.4459,-30.0716],[-57.4062,-30.0301],[-57.3531,-30.0085],[-57.3368,-29.9904],[-57.326,-29.965],[-57.3243,-29.9225],[-57.3288,-29.8947],[-57.3226,-29.8721],[-57.2895,-29.8253],[-57.2299,-29.7792],[-57.1699,-29.7812],[-57.1195,-29.7637],[-57.021,-29.6823],[-57.0059,-29.6561],[-56.9723,-29.6459],[-56.9712,-29.6077],[-56.9498,-29.5826],[-56.9311,-29.5723],[-56.8864,-29.524],[-56.8271,-29.4943],[-56.805,-29.4648],[-56.819,-29.4291],[-56.8092,-29.3506],[-56.8044,-29.2792],[-56.809,-29.2621],[-56.809,-29.2236],[-56.8336,-29.19],[-56.8611,-29.1943],[-56.9302,-29.1943],[-56.9534,-29.1907],[-56.9955,-29.1946],[-57.0175,-29.2039],[-57.0364,-29.23],[-57.0714,-29.2232],[-57.1106,-29.2257],[-57.1836,-29.2203],[-57.328,-29.2007],[-57.358,-29.1918],[-57.3765,-29.1764],[-57.4505,-29.1565],[-57.4773,-29.1887],[-57.4818,-29.2187],[-57.4968,-29.2415],[-57.5168,-29.2965],[-57.5137,-29.3268],[-57.4848,-29.3522],[-57.4798,-29.3825],[-57.4852,-29.4085],[-57.4736,-29.4428],[-57.4554,-29.4703],[-57.4622,-29.4956],[-57.492,-29.5278],[-57.4845,-29.5788],[-57.4848,-29.612],[-57.5021,-29.6438],[-57.5171,-29.6859],[-57.5685,-29.7605],[-57.6256,-29.7914]]]},"properties":{"id":40,"departamento":"PASO DE LOS LIBRES","cabecera":"PASO DE LOS LIBRES","provincia":"CORRIENTES"}},
{"type":"Feature","geometry":{"type":"Polygon","coordinates":[[[-57.6138,-29.9959],[-57.6253,-30.0009],[-57.7106,-29.9487],[-57.7516,-29.9448],[-57.7884,-29.932],[-57.8294,-29.8774],[-57.8589,-29.8317],[-57.8821,-29.8178],[-57.9124,-29.8245],[-57.9788,-29.8495],[-57.9915,-29.9405],[-57.9745,-29.9934],[-57.9749,-30.0112],[-58.0041,-30.0351],[-58.0147,-30.0647],[-58.015,-30.0937],[-58.0057,-30.1069],[-57.9982,-30.1415],[-58.0052,-30.2107],[-58.0184,-30.2425],[-58.0154,-30.3032],[-58.0173,-30.3685],[-58.0339,-30.4154],[-58.0441,-30.4299],[-58.0724,-30.4485],[-58.0688,-30.4757],[-58.0576,-30.497],[-58.0684,-30.5239],[-58.0687,-30.5448],[-58.0377,-30.567],[-58.0336,-30.598],[-58.0238,-30.6009],[-57.9749,-30.6375],[-57.9537,-30.6491],[-57.8948,-30.6694],[-57.851,-30.7005],[-57.84,-30.7226],[-57.8215,-30.7194],[-57.8095,-30.6953],[-57.8439,-30.6595],[-57.8487,-30.6184],[-57.8874,-30.5881],[-57.8892,-30.5102],[-57.8445,-30.4696],[-57.7957,-30.4476],[-57.7684,-30.4188],[-57.7372,-30.4075],[-57.6971,-30.384],[-57.6471,-30.346],[-57.6161,-30.2485],[-57.6521,-30.2023],[-57.6413,-30.1788],[-57.624,-30.1744],[-57.5881,-30.1795],[-57.5693,-30.1727],[-57.5718,-30.1548],[-57.5722,-30.1466],[-57.5736,-30.0912],[-57.5504,-30.082],[-57.5277,-30.0502],[-57.4913,-30.0302],[-57.5017,-30.0052],[-57.5309,-29.9863],[-57.5588,-29.9999],[-57.6059,-30.0024],[-57.6138,-29.9959]]]},"properties":{"id":41,"departamento":"MONTE CASEROS","cabecera":"MONTE CASEROS","provincia":"CORRIENTES"}},
{"type":"Feature","geometry":{"type":"Polygon","coordinates":[[[-58.5629,-29.0184],[-58.5633,-29.0184],[-58.593,-29.0319],[-58.6722,-29.1047],[-58.6909,-29.1311],[-58.7188,-29.1536],[-58.7598,-29.2032],[-58.7676,-29.2279],[-58.7878,-29.2493],[-58.8278,-29.3171],[-58.8355,-29.3474],[-58.8512,-29.3681],[-58.8615,-29.4063],[-58.8615,-29.4367],[-58.8341,-29.4463],[-58.8357,-29.4948],[-58.8264,-29.5302],[-58.7737,-29.5434],[-58.7368,-29.5438],[-58.6886,-29.5586],[-58.6717,-29.6238],[-58.6694,-29.6565],[-58.6723,-29.7257],[-58.6427,-29.7661],[-58.6849,-29.836],[-58.6771,-29.8473],[-58.6332,-29.845],[-58.599,-29.8349],[-58.5505,-29.8271],[-58.5248,-29.8333],[-58.5147,-29.857],[-58.4939,-29.8823],[-58.4698,-29.944],[-58.4451,-29.9965],[-58.4082,-30.0567],[-58.4042,-30.0921],[-58.4333,-30.1034],[-58.4799,-30.1298],[-58.5449,-30.1853],[-58.5254,-30.1891],[-58.4979,-30.207],[-58.4706,-30.2033],[-58.4353,-30.2306],[-58.4146,-30.235],[-58.3811,-30.2595],[-58.3465,-30.2713],[-58.2856,-30.2446],[-58.2456,-30.2708],[-58.2083,-30.2876],[-58.194,-30.3104],[-58.1924,-30.3352],[-58.1778,-30.3591],[-58.1312,-30.4047],[-58.0942,-30.4225],[-58.0719,-30.4254],[-58.0724,-30.4485],[-58.0441,-30.4299],[-58.0339,-30.4154],[-58.0173,-30.3685],[-58.0154,-30.3032],[-58.0184,-30.2425],[-58.0052,-30.2107],[-57.9982,-30.1415],[-58.0057,-30.1069],[-58.015,-30.0937],[-58.0147,-30.0647],[-58.0041,-30.0351],[-57.9749,-30.0112],[-57.9745,-29.9934],[-57.9915,-29.9405],[-57.9788,-29.8495],[-57.9124,-29.8245],[-57.8821,-29.8178],[-57.8589,-29.8317],[-57.8294,-29.8774],[-57.7884,-29.932],[-57.7516,-29.9448],[-57.7106,-29.9487],[-57.6253,-30.0009],[-57.6138,-29.9959],[-57.6289,-29.9688],[-57.6587,-29.8892],[-57.6366,-29.8646],[-57.6291,-29.8339],[-57.6256,-29.7914],[-57.6296,-29.7647],[-57.6514,-29.7407],[-57.693,-29.7158],[-57.7387,-29.7047],[-57.7715,-29.6836],[-57.7897,-29.6494],[-57.8283,-29.5527],[-57.8615,-29.5277],[-57.8897,-29.4877],[-57.9266,-29.4781],[-58.016,-29.4759],[-58.0392,-29.4638],[-58.0963,-29.397],[-58.1432,-29.3685],[-58.1961,-29.3431],[-58.2389,-29.3167],[-58.3165,-29.2468],[-58.339,-29.2346],[-58.3663,-29.19],[-58.4027,-29.1429],[-58.45,-29.099],[-58.4661,-29.0751],[-58.5125,-29.0408],[-58.55,-29.018],[-58.5629,-29.0184]]]},"properties":{"id":42,"departamento":"CURUZU CUATIA","cabecera":"CURUZU CUATIA","provincia":"CORRIENTES"}},
{"type":"Feature","geometry":{"type":"Polygon","coordinates":[[[-58.6717,-29.6238],[-58.683,-29.6282],[-58.7299,-29.6773],[-58.7624,-29.7038],[-58.7995,-29.7632],[-58.8345,-29.7994],[-58.858,-29.8165],[-58.9844,-29.8601],[-58.9889,-29.9],[-59.0044,-29.9512],[-59.0147,-30.0037],[-59.0156,-30.0433],[-59.0294,-30.1574],[-59.0444,-30.1758],[-59.0455,-30.189],[-59.038,-30.2278],[-59.0086,-30.219],[-58.9618,-30.2242],[-58.9127,-30.2474],[-58.8346,-30.2318],[-58.8198,-30.2171],[-58.7627,-30.2167],[-58.7408,-30.199],[-58.6679,-30.1646],[-58.6309,-30.1755],[-58.5765,-30.16],[-58.5449,-30.1853],[-58.4799,-30.1298],[-58.4333,-30.1034],[-58.4042,-30.0921],[-58.4082,-30.0567],[-58.4451,-29.9965],[-58.4698,-29.944],[-58.4939,-29.8823],[-58.5147,-29.857],[-58.5248,-29.8333],[-58.5505,-29.8271],[-58.599,-29.8349],[-58.6332,-29.845],[-58.6771,-29.8473],[-58.6849,-29.836],[-58.6427,-29.7661],[-58.6723,-29.7257],[-58.6694,-29.6565],[-58.6717,-29.6238]]]},"properties":{"id":43,"departamento":"SAUCE","cabecera":"SAUCE","provincia":"CORRIENTES"}},
{"type":"Feature","geometry":{"type":"Polygon","coordinates":[[[-58.8615,-29.4367],[-58.8901,-29.4843],[-58.901,-29.4933],[-59.0041,-29.5508],[-59.0484,-29.5951],[-59.0789,-29.6592],[-59.089,-29.6724],[-59.103,-29.7175],[-59.0945,-29.7381],[-59.144,-29.7618],[-59.2408,-29.7894],[-59.3008,-29.8088],[-59.3311,-29.8232],[-59.3681,-29.8325],[-59.4127,-29.8617],[-59.4295,-29.8846],[-59.4539,-29.9359],[-59.4567,-29.9577],[-59.4967,-30.0035],[-59.5716,-30.025],[-59.5973,-30.0795],[-59.6121,-30.1025],[-59.6313,-30.168],[-59.6259,-30.2115],[-59.6392,-30.242],[-59.6635,-30.2567],[-59.7073,-30.2667],[-59.7084,-30.2931],[-59.6935,-30.3131],[-59.6723,-30.3205],[-59.6717,-30.3387],[-59.6368,-30.3578],[-59.6338,-30.3852],[-59.6151,-30.4192],[-59.587,-30.4342],[-59.5658,-30.358],[-59.5461,-30.3399],[-59.4808,-30.3428],[-59.4638,-30.3258],[-59.4401,-30.3295],[-59.4293,-30.3176],[-59.3477,-30.3247],[-59.3255,-30.3521],[-59.2515,-30.3653],[-59.2281,-30.3635],[-59.193,-30.3322],[-59.1442,-30.3173],[-59.1312,-30.2875],[-59.0897,-30.2612],[-59.0637,-30.2308],[-59.038,-30.2278],[-59.0455,-30.189],[-59.0444,-30.1758],[-59.0294,-30.1574],[-59.0156,-30.0433],[-59.0147,-30.0037],[-59.0044,-29.9512],[-58.9889,-29.9],[-58.9844,-29.8601],[-58.858,-29.8165],[-58.8345,-29.7994],[-58.7995,-29.7632],[-58.7624,-29.7038],[-58.7299,-29.6773],[-58.683,-29.6282],[-58.6717,-29.6238],[-58.6886,-29.5586],[-58.7368,-29.5438],[-58.7737,-29.5434],[-58.8264,-29.5302],[-58.8357,-29.4948],[-58.8341,-29.4463],[-58.8615,-29.4367]]]},"properties":{"id":44,"departamento":"ESQUINA","cabecera":"ESQUINA","provincia":"CORRIENTES"}},
{"type":"Feature","geometry":{"type":"MultiPolygon","coordinates":[[[[-57.1916,-28.4729],[-57.1868,-28.4717],[-57.1453,-28.4391],[-57.1252,-28.4289],[-57.0779,-28.3865],[-57.0469,-28.3682],[-57.0251,-28.3459],[-57.0019,-28.3307],[-56.988,-28.3075],[-56.963,-28.2937],[-56.9149,-28.2562],[-56.8888,-28.2259],[-56.8624,-28.2129],[-56.8316,-28.175],[-56.8275,-28.172],[-56.8269,-28.1716],[-56.8058,-28.1563],[-56.7723,-28.1291],[-56.756,-28.0621],[-56.7368,-28.0322],[-56.7257,-28.0037],[-56.686,-27.9854],[-56.6599,-27.9653],[-56.6452,-27.9359],[-56.626,-27.9198],[-56.58,-27.8529],[-56.5606,-27.8096],[-56.5343,-27.7744],[-56.4973,-27.8007],[-56.4776,-27.8252],[-56.4714,-27.8355],[-56.4344,-27.8645],[-56.4147,-27.8806],[-56.3819,-27.8801],[-56.3427,-27.8578],[-56.3208,-27.8605],[-56.2945,-27.8828],[-56.286,-27.8542],[-56.2566,-27.84],[-56.2396,-27.831],[-56.2307,-27.7971],[-56.2153,-27.7878],[-56.2032,-27.7721],[-56.1908,-27.7592],[-56.1823,-27.757],[-56.1751,-27.7632],[-56.1626,-27.7659],[-56.1381,-27.7753],[-56.114,-27.7936],[-56.0453,-27.8293],[-56.0223,-27.8355],[-55.9813,-27.8716],[-55.9394,-27.9038],[-55.8738,-27.9332],[-55.8495,-27.9631],[-55.8539,-27.9818],[-55.8256,-27.9886],[-55.8133,-27.9774],[-55.8002,-27.9749],[-55.8209,-27.9521],[-55.8144,-27.9195],[-55.8322,-27.904],[-55.8281,-27.8542],[-55.8467,-27.8314],[-55.8315,-27.7939],[-55.9785,-27.5428],[-56.0291,-27.5025],[-56.0384,-27.4676],[-56.0552,-27.45],[-56.0547,-27.4194],[-56.0297,-27.3862],[-56.0386,-27.3447],[-56.0243,-27.3243],[-56.0616,-27.3062],[-56.0868,-27.3086],[-56.1494,-27.3279],[-56.1816,-27.3488],[-56.2111,-27.3827],[-56.2362,-27.4014],[-56.2842,-27.4085],[-56.2936,-27.4192],[-56.2843,-27.4619],[-56.2937,-27.4941],[-56.3196,-27.5177],[-56.3384,-27.524],[-56.3513,-27.5572],[-56.3522,-27.5775],[-56.3753,-27.6019],[-56.415,-27.6056],[-56.4361,-27.5882],[-56.4985,-27.5518],[-56.5063,-27.527],[-56.5387,-27.4907],[-56.5436,-27.4743],[-56.5683,-27.4498],[-56.5823,-27.449],[-56.607,-27.432],[-56.6496,-27.4608],[-56.6781,-27.4635],[-56.6888,-27.4545],[-56.7188,-27.4646],[-56.7171,-27.4969],[-56.6982,-27.5298],[-56.6793,-27.5461],[-56.6892,-27.579],[-56.7251,-27.5995],[-56.7472,-27.605],[-56.7959,-27.587],[-56.8292,-27.6054],[-56.8493,-27.6063],[-56.9031,-27.5852],[-56.9422,-27.5583],[-56.9532,-27.5346],[-56.9753,-27.5459],[-56.9967,-27.5625],[-57.0369,-27.5946],[-57.0654,-27.6062],[-57.081,-27.6285],[-57.0835,-27.666],[-57.1219,-27.6981],[-57.1629,-27.7271],[-57.195,-27.7414],[-57.2359,-27.7681],[-57.2738,-27.8168],[-57.301,-27.852],[-57.3213,-27.8939],[-57.3414,-27.9328],[-57.3632,-27.9983],[-57.3679,-28.0546],[-57.367,-28.0907],[-57.373,-28.1527],[-57.4047,-28.2219],[-57.4226,-28.2424],[-57.4464,-28.2634],[-57.4915,-28.2959],[-57.5419,-28.3285],[-57.5758,-28.337],[-57.5957,-28.3316],[-57.601,-28.3562],[-57.601,-28.3959],[-57.6274,-28.4565],[-57.6135,-28.4766],[-57.6026,-28.5194],[-57.5883,-28.552],[-57.5767,-28.5681],[-57.5744,-28.5732],[-57.5611,-28.5672],[-57.5169,-28.5596],[-57.4928,-28.5551],[-57.446,-28.5471],[-57.4201,-28.5431],[-57.311,-28.5181],[-57.2539,-28.4958],[-57.2162,-28.4805],[-57.1916,-28.4729]]],[[[-56.9163,-27.4232],[-56.9451,-27.431],[-56.9789,-27.4486],[-56.9918,-27.4646],[-57.0225,-27.4754],[-56.97,-27.4924],[-56.9558,-27.5115],[-56.9092,-27.5324],[-56.886,-27.5565],[-56.8734,-27.5811],[-56.8309,-27.5957],[-56.7998,-27.574],[-56.7486,-27.5613],[-56.7384,-27.5506],[-56.7254,-27.5116],[-56.766,-27.5036],[-56.8048,-27.4773],[-56.8397,-27.4594],[-56.8604,-27.4381],[-56.8832,-27.4251],[-56.9163,-27.4232]]],[[[-56.7154,-27.5771],[-56.6995,-27.5407],[-56.7163,-27.5198],[-56.7338,-27.5588],[-56.7536,-27.5738],[-56.7345,-27.5913],[-56.7154,-27.5771]]],[[[-56.8963,-27.5511],[-56.9108,-27.5387],[-56.923,-27.5572],[-56.8798,-27.5829],[-56.8963,-27.5511]]]]},"properties":{"id":45,"departamento":"ITUZAINGO","cabecera":"ITUZAINGO","provincia":"CORRIENTES"}},
{"type":"Feature","geometry":{"type":"Polygon","coordinates":[[[-57.7403,-27.9154],[-57.6999,-27.9432],[-57.6542,-27.996],[-57.6164,-28.0563],[-57.6348,-28.0881],[-57.6233,-28.1156],[-57.5918,-28.1648],[-57.6007,-28.2173],[-57.6321,-28.2601],[-57.6307,-28.3062],[-57.5957,-28.3316],[-57.5758,-28.337],[-57.5419,-28.3285],[-57.4915,-28.2959],[-57.4464,-28.2634],[-57.4226,-28.2424],[-57.4047,-28.2219],[-57.373,-28.1527],[-57.367,-28.0907],[-57.3679,-28.0546],[-57.3632,-27.9983],[-57.3414,-27.9328],[-57.3213,-27.8939],[-57.301,-27.852],[-57.2738,-27.8168],[-57.2359,-27.7681],[-57.195,-27.7414],[-57.1629,-27.7271],[-57.1219,-27.6981],[-57.0835,-27.666],[-57.081,-27.6285],[-57.0654,-27.6062],[-57.0369,-27.5946],[-56.9967,-27.5625],[-56.9753,-27.5459],[-56.9532,-27.5346],[-56.9657,-27.502],[-56.9799,-27.4934],[-57.0365,-27.4806],[-57.1018,-27.4847],[-57.1192,-27.4934],[-57.146,-27.4829],[-57.2254,-27.4704],[-57.2399,-27.4618],[-57.243,-27.4634],[-57.2839,-27.4813],[-57.3446,-27.5262],[-57.376,-27.5459],[-57.4106,-27.5609],[-57.4618,-27.6062],[-57.4811,-27.6383],[-57.5576,-27.6961],[-57.5769,-27.7193],[-57.6233,-27.7629],[-57.6688,-27.8125],[-57.7018,-27.8832],[-57.7403,-27.9154]]]},"properties":{"id":46,"departamento":"SAN MIGUEL","cabecera":"SAN MIGUEL","provincia":"CORRIENTES"}},
{"type":"Feature","geometry":{"type":"Polygon","coordinates":[[[-58.7676,-29.2279],[-58.7995,-29.2186],[-58.8381,-29.2329],[-58.8423,-29.2029],[-58.8163,-29.1583],[-58.8124,-29.1433],[-58.7685,-29.0808],[-58.777,-29.0701],[-58.8109,-29.0573],[-58.8506,-29.0566],[-58.8984,-29.0373],[-58.9235,-29.0391],[-58.9407,-29.0541],[-58.9931,-29.0455],[-59.0271,-29.048],[-59.1,-29.0387],[-59.1379,-29.043],[-59.1678,-29.0603],[-59.1725,-29.0605],[-59.2246,-29.0627],[-59.2753,-29.0996],[-59.3325,-29.1084],[-59.3582,-29.1279],[-59.3639,-29.1489],[-59.3968,-29.1905],[-59.4021,-29.2169],[-59.4334,-29.2215],[-59.4902,-29.2381],[-59.5087,-29.2508],[-59.5119,-29.3168],[-59.5162,-29.3377],[-59.5322,-29.3539],[-59.594,-29.3825],[-59.6052,-29.4088],[-59.58,-29.4598],[-59.5895,-29.5172],[-59.5902,-29.5698],[-59.5999,-29.5836],[-59.614,-29.6688],[-59.6104,-29.7149],[-59.6175,-29.7758],[-59.6585,-29.8299],[-59.6556,-29.8534],[-59.6197,-29.8786],[-59.6047,-29.9027],[-59.5926,-29.9398],[-59.5916,-29.9687],[-59.5664,-30.0081],[-59.5716,-30.025],[-59.4967,-30.0035],[-59.4567,-29.9577],[-59.4539,-29.9359],[-59.4295,-29.8846],[-59.4127,-29.8617],[-59.3681,-29.8325],[-59.3311,-29.8232],[-59.3008,-29.8088],[-59.2408,-29.7894],[-59.144,-29.7618],[-59.0945,-29.7381],[-59.103,-29.7175],[-59.089,-29.6724],[-59.0789,-29.6592],[-59.0484,-29.5951],[-59.0041,-29.5508],[-58.901,-29.4933],[-58.8901,-29.4843],[-58.8615,-29.4367],[-58.8615,-29.4063],[-58.8512,-29.3681],[-58.8355,-29.3474],[-58.8278,-29.3171],[-58.7878,-29.2493],[-58.7676,-29.2279]]]},"properties":{"id":47,"departamento":"GOYA","cabecera":"GOYA","provincia":"CORRIENTES"}},
{"type":"Feature","geometry":{"type":"Polygon","coordinates":[[[-58.9805,-28.775],[-59.031,-28.7407],[-59.0442,-28.7368],[-59.1213,-28.7475],[-59.1555,-28.785],[-59.1619,-28.8069],[-59.1581,-28.8774],[-59.1697,-28.9088],[-59.1952,-28.938],[-59.2095,-28.969],[-59.2088,-28.9982],[-59.1997,-29.0315],[-59.2246,-29.0627],[-59.1725,-29.0605],[-59.1678,-29.0603],[-59.1379,-29.043],[-59.1,-29.0387],[-59.0271,-29.048],[-58.9931,-29.0455],[-58.9407,-29.0541],[-58.9235,-29.0391],[-58.8984,-29.0373],[-58.8506,-29.0566],[-58.8109,-29.0573],[-58.777,-29.0701],[-58.7685,-29.0808],[-58.8124,-29.1433],[-58.8163,-29.1583],[-58.8423,-29.2029],[-58.8381,-29.2329],[-58.7995,-29.2186],[-58.7676,-29.2279],[-58.7598,-29.2032],[-58.7188,-29.1536],[-58.6909,-29.1311],[-58.6722,-29.1047],[-58.593,-29.0319],[-58.5633,-29.0184],[-58.5768,-28.9841],[-58.6211,-28.9345],[-58.7081,-28.8913],[-58.739,-28.8838],[-58.7847,-28.8592],[-58.8243,-28.8242],[-58.8572,-28.8071],[-58.9066,-28.8081],[-58.9405,-28.8039],[-58.968,-28.7903],[-58.9805,-28.775]]]},"properties":{"id":48,"departamento":"LAVALLE","cabecera":"LAVALLE","provincia":"CORRIENTES"}},
{"type":"Feature","geometry":{"type":"Polygon","coordinates":[[[-58.6496,-28.4598],[-58.6682,-28.4529],[-58.6946,-28.4268],[-58.7024,-28.399],[-58.7306,-28.3943],[-58.7592,-28.3411],[-58.7606,-28.3054],[-58.7824,-28.2648],[-58.7894,-28.2369],[-58.8072,-28.2116],[-58.8308,-28.2269],[-58.8614,-28.2605],[-58.8964,-28.2787],[-58.9401,-28.2887],[-58.9883,-28.2855],[-59.0697,-28.2362],[-59.0855,-28.2199],[-59.1019,-28.2154],[-59.1098,-28.2451],[-59.1024,-28.2696],[-59.1035,-28.3288],[-59.081,-28.3473],[-59.0779,-28.3988],[-59.086,-28.436],[-59.0696,-28.451],[-59.0489,-28.4893],[-59.0543,-28.5078],[-59.0843,-28.5392],[-59.0993,-28.5744],[-59.105,-28.6339],[-59.0781,-28.6649],[-59.0938,-28.6889],[-59.1022,-28.7158],[-59.1213,-28.7475],[-59.0442,-28.7368],[-59.031,-28.7407],[-58.9805,-28.775],[-58.9391,-28.7169],[-58.9159,-28.7048],[-58.8738,-28.6648],[-58.8456,-28.632],[-58.7758,-28.5752],[-58.7372,-28.5527],[-58.7123,-28.531],[-58.6789,-28.4828],[-58.6496,-28.4598]]]},"properties":{"id":49,"departamento":"BELLA VISTA","cabecera":"BELLA VISTA","provincia":"CORRIENTES"}},
{"type":"Feature","geometry":{"type":"Polygon","coordinates":[[[-58.8832,-27.6061],[-58.8691,-27.6235],[-58.8355,-27.6466],[-58.8188,-27.6812],[-58.8097,-27.7834],[-58.8235,-27.8395],[-58.8432,-27.8763],[-58.8435,-27.914],[-58.8293,-27.9619],[-58.8607,-28.021],[-58.8597,-28.0503],[-58.9268,-28.1097],[-58.9451,-28.1338],[-58.9632,-28.1395],[-59.0075,-28.1386],[-59.0534,-28.1268],[-59.0723,-28.1363],[-59.0892,-28.1816],[-59.0862,-28.1995],[-59.1019,-28.2154],[-59.0855,-28.2199],[-59.0185,-28.2081],[-58.9544,-28.1777],[-58.9123,-28.1734],[-58.8577,-28.1592],[-58.8268,-28.1331],[-58.8126,-28.1049],[-58.796,-28.0549],[-58.7082,-28.0225],[-58.6544,-27.9811],[-58.6098,-27.9668],[-58.5033,-27.9432],[-58.4647,-27.9457],[-58.4138,-27.9648],[-58.3852,-27.9432],[-58.3517,-27.9303],[-58.3264,-27.9296],[-58.2849,-27.9122],[-58.3208,-27.8718],[-58.3333,-27.8336],[-58.3658,-27.8243],[-58.386,-27.7897],[-58.392,-27.7451],[-58.4152,-27.7333],[-58.4627,-27.7262],[-58.4945,-27.7137],[-58.5136,-27.6826],[-58.5642,-27.6655],[-58.5978,-27.6809],[-58.6056,-27.6427],[-58.6171,-27.5395],[-58.6926,-27.5337],[-58.735,-27.5444],[-58.7482,-27.5548],[-58.7946,-27.5662],[-58.8589,-27.599],[-58.8832,-27.6061]]]},"properties":{"id":50,"departamento":"EMPEDRADO","cabecera":"EMPEDRADO","provincia":"CORRIENTES"}},
{"type":"Feature","geometry":{"type":"Polygon","coordinates":[[[-58.6008,-27.4513],[-58.5454,-27.4168],[-58.5018,-27.374],[-58.4079,-27.344],[-58.3723,-27.3454],[-58.3364,-27.3647],[-58.3449,-27.3443],[-58.3449,-27.3069],[-58.3475,-27.2964],[-58.3572,-27.2828],[-58.3729,-27.2908],[-58.4168,-27.2901],[-58.4766,-27.2709],[-58.5006,-27.2737],[-58.5111,-27.2887],[-58.5464,-27.294],[-58.5903,-27.3201],[-58.6165,-27.3186],[-58.6692,-27.3592],[-58.648,-27.3904],[-58.6319,-27.4068],[-58.6112,-27.4279],[-58.6008,-27.4513]]]},"properties":{"id":448,"departamento":"SAN COSME","cabecera":"SAN COSME","provincia":"CORRIENTES"}}
]}