{"type":"FeatureCollection", "features": [
{"type":"Feature","geometry":{"type":"Polygon","coordinates":[[[-57.9969,-31.1277],[-58.0655,-31.0839],[-58.1062,-31.0672],[-58.1668,-31.0524],[-58.2034,-31.0376],[-58.2184,-31.0237],[-58.222,-30.989],[-58.2209,-30.958],[-58.2295,-30.928],[-58.2525,-30.8994],[-58.266,-30.8893],[-58.2733,-30.8552],[-58.2813,-30.8461],[-58.3405,-30.8313],[-58.3756,-30.825],[-58.4012,-30.8316],[-58.4166,-30.8462],[-58.4283,-30.8703],[-58.4312,-30.8919],[-58.4467,-30.8999],[-58.4567,-30.9247],[-58.4679,-30.9313],[-58.4913,-30.9774],[-58.479,-31.0091],[-58.5062,-31.0334],[-58.5592,-31.0397],[-58.5721,-31.0637],[-58.5657,-31.0781],[-58.5207,-31.131],[-58.4752,-31.1683],[-58.4588,-31.1748],[-58.4147,-31.1816],[-58.416,-31.1885],[-58.4478,-31.2308],[-58.448,-31.2311],[-58.4413,-31.2441],[-58.4381,-31.2546],[-58.3951,-31.3171],[-58.389,-31.3387],[-58.4346,-31.3666],[-58.4313,-31.3988],[-58.3573,-31.4654],[-58.3251,-31.4723],[-58.3147,-31.4882],[-58.3122,-31.524],[-58.2748,-31.5171],[-58.2633,-31.5265],[-58.2674,-31.591],[-58.2418,-31.5916],[-58.2334,-31.6096],[-58.2767,-31.6518],[-58.2861,-31.6538],[-58.2726,-31.6732],[-58.2501,-31.6922],[-58.2403,-31.7095],[-58.2217,-31.7207],[-58.1819,-31.7245],[-58.1596,-31.7224],[-58.1242,-31.7052],[-58.0894,-31.7051],[-58.0851,-31.7035],[-58.0302,-31.7106],[-58.0131,-31.6868],[-58.0088,-31.6648],[-57.9806,-31.5844],[-57.987,-31.5662],[-58.005,-31.5446],[-58.0032,-31.5337],[-58.0251,-31.5151],[-58.0689,-31.4965],[-58.0824,-31.479],[-58.0797,-31.4525],[-58.0623,-31.4375],[-58.0179,-31.415],[-57.9845,-31.3944],[-57.9784,-31.382],[-57.9969,-31.3603],[-57.9819,-31.3353],[-57.9818,-31.3206],[-57.938,-31.2747],[-57.9132,-31.2132],[-57.9311,-31.2047],[-57.9616,-31.1573],[-57.9935,-31.1302],[-57.9969,-31.1277]]]},"properties":{"id":1,"departamento":"CONCORDIA","cabecera":"CONCORDIA","provincia":"ENTRE RIOS"}},
{"type":"Feature","geometry":{"type":"Polygon","coordinates":[[[-58.448,-31.2311],[-58.4499,-31.2343],[-58.5009,-31.2435],[-58.5325,-31.2431],[-58.5668,-31.237],[-58.5969,-31.2602],[-58.6441,-31.2692],[-58.6487,-31.2694],[-58.6525,-31.2676],[-58.6785,-31.2649],[-58.6799,-31.265],[-58.6759,-31.2787],[-58.6755,-31.2788],[-58.663,-31.2979],[-58.662,-31.3167],[-58.6206,-31.3701],[-58.6036,-31.3613],[-58.5678,-31.3772],[-58.5554,-31.4257],[-58.5311,-31.4434],[-58.4984,-31.4601],[-58.5064,-31.4879],[-58.498,-31.5433],[-58.5412,-31.5897],[-58.5532,-31.6136],[-58.5696,-31.6091],[-58.5755,-31.6237],[-58.5823,-31.6976],[-58.574,-31.7025],[-58.5854,-31.7441],[-58.6015,-31.7449],[-58.6122,-31.7626],[-58.6056,-31.7771],[-58.6404,-31.818],[-58.7071,-31.8089],[-58.7137,-31.8424],[-58.6784,-31.8492],[-58.6836,-31.8743],[-58.5882,-31.8887],[-58.604,-31.8708],[-58.578,-31.8379],[-58.5446,-31.8504],[-58.5405,-31.8392],[-58.5174,-31.8287],[-58.5231,-31.8068],[-58.505,-31.79],[-58.4813,-31.7966],[-58.4492,-31.7895],[-58.427,-31.8009],[-58.4113,-31.8267],[-58.3971,-31.8326],[-58.3774,-31.8283],[-58.3445,-31.8427],[-58.3184,-31.8395],[-58.334,-31.8109],[-58.3454,-31.8116],[-58.4018,-31.7669],[-58.4021,-31.7271],[-58.3536,-31.7314],[-58.3323,-31.6986],[-58.3229,-31.6951],[-58.2861,-31.6538],[-58.2767,-31.6518],[-58.2334,-31.6096],[-58.2418,-31.5916],[-58.2674,-31.591],[-58.2633,-31.5265],[-58.2748,-31.5171],[-58.3122,-31.524],[-58.3147,-31.4882],[-58.3251,-31.4723],[-58.3573,-31.4654],[-58.4313,-31.3988],[-58.4346,-31.3666],[-58.389,-31.3387],[-58.3951,-31.3171],[-58.4381,-31.2546],[-58.4413,-31.2441],[-58.448,-31.2311]]]},"properties":{"id":2,"departamento":"SAN SALVADOR","cabecera":"SAN SALVADOR","provincia":"ENTRE RIOS"}},
{"type":"Feature","geometry":{"type":"Polygon","coordinates":[[[-58.6799,-31.265],[-58.683,-31.2653],[-58.7136,-31.27],[-58.7343,-31.2627],[-58.7501,-31.2494],[-58.7856,-31.2474],[-58.7993,-31.2317],[-58.8331,-31.2229],[-58.8724,-31.2044],[-58.9036,-31.2184],[-58.9313,-31.2383],[-58.9683,-31.2519],[-58.9876,-31.299],[-59.0275,-31.3506],[-59.0472,-31.398],[-59.0695,-31.4369],[-59.099,-31.4338],[-59.1455,-31.3684],[-59.1604,-31.3405],[-59.1776,-31.328],[-59.2091,-31.2684],[-59.2477,-31.266],[-59.2488,-31.2579],[-59.2668,-31.2557],[-59.3079,-31.2849],[-59.3439,-31.3008],[-59.3918,-31.3122],[-59.4249,-31.343],[-59.4386,-31.3657],[-59.4559,-31.3699],[-59.4871,-31.4074],[-59.4905,-31.4223],[-59.511,-31.4383],[-59.5199,-31.4396],[-59.5361,-31.453],[-59.5904,-31.48],[-59.6033,-31.5643],[-59.5863,-31.5864],[-59.5537,-31.6074],[-59.5278,-31.6119],[-59.515,-31.6231],[-59.5153,-31.6383],[-59.5267,-31.6718],[-59.5693,-31.707],[-59.5753,-31.7368],[-59.5851,-31.7449],[-59.5993,-31.7734],[-59.5954,-31.7996],[-59.6205,-31.8363],[-59.6159,-31.8618],[-59.5755,-31.876],[-59.5429,-31.8968],[-59.5366,-31.9142],[-59.5686,-31.9419],[-59.5366,-31.9622],[-59.5144,-31.9571],[-59.509,-31.9687],[-59.4608,-31.9685],[-59.4397,-31.9615],[-59.4207,-31.9352],[-59.3816,-31.9266],[-59.363,-31.916],[-59.3176,-31.915],[-59.2975,-31.9059],[-59.2707,-31.9072],[-59.2558,-31.916],[-59.2253,-31.9223],[-59.2083,-31.9404],[-59.185,-31.9512],[-59.1619,-31.9684],[-59.1319,-31.9784],[-59.0912,-31.9822],[-59.08,-31.9877],[-59.0849,-32.0082],[-59.0801,-32.0225],[-59.0607,-32.0377],[-59.0305,-32.0346],[-58.9995,-32.0364],[-58.9841,-32.0444],[-58.9528,-32.0434],[-58.928,-32.0533],[-58.9036,-32.0479],[-58.8637,-32.0523],[-58.8424,-32.0482],[-58.8396,-32.0223],[-58.7908,-32.0129],[-58.7507,-32.0089],[-58.7179,-31.9768],[-58.707,-31.9722],[-58.7104,-31.9396],[-58.7225,-31.9199],[-58.7199,-31.8775],[-58.7137,-31.8424],[-58.7071,-31.8089],[-58.6404,-31.818],[-58.6056,-31.7771],[-58.6122,-31.7626],[-58.6015,-31.7449],[-58.5854,-31.7441],[-58.574,-31.7025],[-58.5823,-31.6976],[-58.5755,-31.6237],[-58.5696,-31.6091],[-58.5532,-31.6136],[-58.5412,-31.5897],[-58.498,-31.5433],[-58.5064,-31.4879],[-58.4984,-31.4601],[-58.5311,-31.4434],[-58.5554,-31.4257],[-58.5678,-31.3772],[-58.6036,-31.3613],[-58.6206,-31.3701],[-58.662,-31.3167],[-58.663,-31.2979],[-58.6755,-31.2788],[-58.6759,-31.2787],[-58.6799,-31.265]]]},"properties":{"id":4,"departamento":"VILLAGUAY","cabecera":"VILLAGUAY","provincia":"ENTRE RIOS"}},
{"type":"Feature","geometry":{"type":"Polygon","coordinates":[[[-58.2861,-31.6538],[-58.3229,-31.6951],[-58.3323,-31.6986],[-58.3536,-31.7314],[-58.4021,-31.7271],[-58.4018,-31.7669],[-58.3454,-31.8116],[-58.334,-31.8109],[-58.3184,-31.8395],[-58.3445,-31.8427],[-58.3774,-31.8283],[-58.3971,-31.8326],[-58.4113,-31.8267],[-58.427,-31.8009],[-58.4492,-31.7895],[-58.4813,-31.7966],[-58.505,-31.79],[-58.5231,-31.8068],[-58.5174,-31.8287],[-58.5405,-31.8392],[-58.5446,-31.8504],[-58.578,-31.8379],[-58.604,-31.8708],[-58.5882,-31.8887],[-58.6836,-31.8743],[-58.6784,-31.8492],[-58.7137,-31.8424],[-58.7199,-31.8775],[-58.7225,-31.9199],[-58.7104,-31.9396],[-58.707,-31.9722],[-58.6909,-31.9914],[-58.6913,-32.0111],[-58.6626,-32.0682],[-58.6458,-32.0906],[-58.6467,-32.1216],[-58.6409,-32.16],[-58.6302,-32.1765],[-58.5908,-32.186],[-58.5724,-32.1968],[-58.5654,-32.2274],[-58.5487,-32.222],[-58.5479,-32.1946],[-58.5237,-32.1871],[-58.5081,-32.1949],[-58.484,-32.1857],[-58.453,-32.1893],[-58.4176,-32.1841],[-58.4102,-32.1889],[-58.4146,-32.238],[-58.3765,-32.2448],[-58.3606,-32.2729],[-58.3315,-32.2585],[-58.3158,-32.2734],[-58.2927,-32.3062],[-58.2704,-32.3089],[-58.2491,-32.3281],[-58.2246,-32.3346],[-58.2199,-32.3537],[-58.2028,-32.3634],[-58.1991,-32.3615],[-58.175,-32.3668],[-58.1237,-32.3411],[-58.1038,-32.3107],[-58.0984,-32.288],[-58.1031,-32.2477],[-58.1244,-32.2269],[-58.157,-32.1874],[-58.1806,-32.1648],[-58.1828,-32.148],[-58.1678,-32.0924],[-58.1448,-32.0658],[-58.1379,-32.0314],[-58.1391,-31.9994],[-58.1518,-31.9816],[-58.1597,-31.9468],[-58.1694,-31.9318],[-58.1919,-31.92],[-58.2069,-31.8706],[-58.1968,-31.8571],[-58.1556,-31.8401],[-58.0912,-31.8238],[-58.0649,-31.798],[-58.0372,-31.7548],[-58.0393,-31.7373],[-58.0302,-31.7106],[-58.0851,-31.7035],[-58.0894,-31.7051],[-58.1242,-31.7052],[-58.1596,-31.7224],[-58.1819,-31.7245],[-58.2217,-31.7207],[-58.2403,-31.7095],[-58.2501,-31.6922],[-58.2726,-31.6732],[-58.2861,-31.6538]]]},"properties":{"id":3,"departamento":"COLON","cabecera":"COLON","provincia":"ENTRE RIOS"}},
{"type":"Feature","geometry":{"type":"Polygon","coordinates":[[[-58.448,-31.2311],[-58.4478,-31.2308],[-58.416,-31.1885],[-58.4147,-31.1816],[-58.4588,-31.1748],[-58.4752,-31.1683],[-58.5207,-31.131],[-58.5657,-31.0781],[-58.5721,-31.0637],[-58.5592,-31.0397],[-58.5062,-31.0334],[-58.479,-31.0091],[-58.4913,-30.9774],[-58.4679,-30.9313],[-58.4567,-30.9247],[-58.4467,-30.8999],[-58.4312,-30.8919],[-58.4283,-30.8703],[-58.4166,-30.8462],[-58.4012,-30.8316],[-58.4102,-30.8181],[-58.4505,-30.7949],[-58.4808,-30.7433],[-58.4961,-30.7118],[-58.5336,-30.6924],[-58.5474,-30.6606],[-58.5715,-30.6326],[-58.6114,-30.667],[-58.6451,-30.6766],[-58.6675,-30.6769],[-58.7154,-30.6671],[-58.7423,-30.6684],[-58.7707,-30.657],[-58.7874,-30.6451],[-58.8455,-30.6403],[-58.8652,-30.6252],[-58.8959,-30.6102],[-58.9214,-30.5885],[-58.9348,-30.5867],[-58.9599,-30.5717],[-58.9761,-30.5776],[-58.991,-30.5886],[-58.9965,-30.6149],[-59.0151,-30.6457],[-59.036,-30.6601],[-59.1018,-30.685],[-59.1529,-30.7154],[-59.2006,-30.7246],[-59.2103,-30.737],[-59.2768,-30.7433],[-59.2882,-30.7552],[-59.3414,-30.7754],[-59.3371,-30.7852],[-59.3095,-30.805],[-59.2861,-30.8337],[-59.277,-30.8809],[-59.3013,-30.9084],[-59.2924,-30.934],[-59.3191,-30.9537],[-59.3281,-30.9707],[-59.3142,-31.0074],[-59.2937,-31.0313],[-59.2937,-31.0657],[-59.2809,-31.0679],[-59.2791,-31.0853],[-59.2638,-31.1165],[-59.266,-31.1552],[-59.2749,-31.2007],[-59.2566,-31.2357],[-59.2534,-31.2429],[-59.2488,-31.2579],[-59.2477,-31.266],[-59.2091,-31.2684],[-59.1776,-31.328],[-59.1604,-31.3405],[-59.1455,-31.3684],[-59.099,-31.4338],[-59.0695,-31.4369],[-59.0472,-31.398],[-59.0275,-31.3506],[-58.9876,-31.299],[-58.9683,-31.2519],[-58.9313,-31.2383],[-58.9036,-31.2184],[-58.8724,-31.2044],[-58.8331,-31.2229],[-58.7993,-31.2317],[-58.7856,-31.2474],[-58.7501,-31.2494],[-58.7343,-31.2627],[-58.7136,-31.27],[-58.683,-31.2653],[-58.6799,-31.265],[-58.6785,-31.2649],[-58.6525,-31.2676],[-58.6487,-31.2694],[-58.6441,-31.2692],[-58.5969,-31.2602],[-58.5668,-31.237],[-58.5325,-31.2431],[-58.5009,-31.2435],[-58.4499,-31.2343],[-58.448,-31.2311]]]},"properties":{"id":5,"departamento":"FEDERAL","cabecera":"FEDERAL","provincia":"ENTRE RIOS"}},
{"type":"Feature","geometry":{"type":"Polygon","coordinates":[[[-59.6159,-31.8618],[-59.6356,-31.8601],[-59.6711,-31.8754],[-59.702,-31.8817],[-59.7486,-31.9056],[-59.7668,-31.906],[-59.8188,-31.8918],[-59.8471,-31.8795],[-59.8915,-31.8719],[-59.9079,-31.8757],[-59.9257,-31.9117],[-59.9488,-31.9355],[-59.996,-31.9588],[-60.0079,-31.9795],[-60.0151,-32.0135],[-60.0334,-32.0245],[-60.0624,-32.0137],[-60.0867,-31.9969],[-60.1045,-31.994],[-60.1323,-31.9807],[-60.1417,-31.963],[-60.1649,-31.9863],[-60.1734,-32.0042],[-60.2086,-32.0114],[-60.2477,-32.0379],[-60.2638,-32.0448],[-60.2567,-32.0646],[-60.2237,-32.0943],[-60.2178,-32.1283],[-60.2047,-32.1377],[-60.1653,-32.1258],[-60.1449,-32.164],[-60.1842,-32.1792],[-60.1908,-32.1947],[-60.1799,-32.2195],[-60.1514,-32.2277],[-60.1287,-32.2197],[-60.1166,-32.2357],[-60.1132,-32.2545],[-60.0736,-32.28],[-60.0589,-32.2999],[-60.0734,-32.3133],[-60.0329,-32.3248],[-60.0211,-32.3652],[-60.0265,-32.4115],[-60.0235,-32.458],[-59.9924,-32.5006],[-59.9636,-32.5116],[-59.9365,-32.5089],[-59.9092,-32.5119],[-59.8845,-32.5275],[-59.8342,-32.531],[-59.803,-32.5256],[-59.7784,-32.5343],[-59.7817,-32.5681],[-59.7767,-32.5877],[-59.7515,-32.5845],[-59.7009,-32.6028],[-59.6744,-32.6],[-59.6538,-32.585],[-59.6192,-32.5795],[-59.6035,-32.5514],[-59.591,-32.5406],[-59.532,-32.5342],[-59.5004,-32.5198],[-59.4786,-32.5194],[-59.4648,-32.4949],[-59.4613,-32.4759],[-59.4923,-32.4341],[-59.5039,-32.4278],[-59.5006,-32.3603],[-59.5283,-32.3593],[-59.5348,-32.3509],[-59.5204,-32.3268],[-59.5226,-32.2881],[-59.4984,-32.2016],[-59.4792,-32.1499],[-59.4787,-32.1227],[-59.4694,-32.1096],[-59.4331,-32.0803],[-59.4039,-32.0456],[-59.3922,-32.0247],[-59.3602,-31.9976],[-59.3445,-31.9699],[-59.3379,-31.9396],[-59.3176,-31.915],[-59.363,-31.916],[-59.3816,-31.9266],[-59.4207,-31.9352],[-59.4397,-31.9615],[-59.4608,-31.9685],[-59.509,-31.9687],[-59.5144,-31.9571],[-59.5366,-31.9622],[-59.5686,-31.9419],[-59.5366,-31.9142],[-59.5429,-31.8968],[-59.5755,-31.876],[-59.6159,-31.8618]]]},"properties":{"id":6,"departamento":"NOGOYA","cabecera":"NOGOYA","provincia":"ENTRE RIOS"}},
{"type":"Feature","geometry":{"type":"Polygon","coordinates":[[[-59.3176,-31.915],[-59.3379,-31.9396],[-59.3445,-31.9699],[-59.3602,-31.9976],[-59.3922,-32.0247],[-59.4039,-32.0456],[-59.4331,-32.0803],[-59.4694,-32.1096],[-59.4787,-32.1227],[-59.4792,-32.1499],[-59.4984,-32.2016],[-59.5226,-32.2881],[-59.5204,-32.3268],[-59.5348,-32.3509],[-59.5283,-32.3593],[-59.5006,-32.3603],[-59.5039,-32.4278],[-59.4923,-32.4341],[-59.4613,-32.4759],[-59.4648,-32.4949],[-59.4786,-32.5194],[-59.4781,-32.5385],[-59.4675,-32.551],[-59.432,-32.5679],[-59.4274,-32.5828],[-59.4119,-32.5966],[-59.4136,-32.6265],[-59.3879,-32.6265],[-59.3533,-32.6368],[-59.2737,-32.6753],[-59.2435,-32.6746],[-59.2044,-32.6953],[-59.1644,-32.7034],[-59.126,-32.7033],[-59.1188,-32.6614],[-59.1036,-32.6289],[-59.0975,-32.5984],[-59.0997,-32.5404],[-59.1124,-32.5301],[-59.1011,-32.4888],[-59.1067,-32.4502],[-59.1094,-32.4379],[-59.095,-32.4146],[-59.0996,-32.4035],[-59.088,-32.3743],[-59.093,-32.3485],[-59.0732,-32.3191],[-59.076,-32.2924],[-59.0869,-32.2759],[-59.09,-32.2529],[-59.1065,-32.246],[-59.1138,-32.232],[-59.106,-32.206],[-59.0858,-32.1714],[-59.0923,-32.1419],[-59.0865,-32.1075],[-59.0905,-32.0887],[-59.0605,-32.0506],[-59.0607,-32.0377],[-59.0801,-32.0225],[-59.0849,-32.0082],[-59.08,-31.9877],[-59.0912,-31.9822],[-59.1319,-31.9784],[-59.1619,-31.9684],[-59.185,-31.9512],[-59.2083,-31.9404],[-59.2253,-31.9223],[-59.2558,-31.916],[-59.2707,-31.9072],[-59.2975,-31.9059],[-59.3176,-31.915]]]},"properties":{"id":7,"departamento":"TALA","cabecera":"RISARIO DEL TALA","provincia":"ENTRE RIOS"}},
{"type":"Feature","geometry":{"type":"Polygon","coordinates":[[[-59.126,-32.7033],[-59.13,-32.7143],[-59.1232,-32.7451],[-59.1112,-32.7499],[-59.1227,-32.7681],[-59.115,-32.7988],[-59.1365,-32.821],[-59.1277,-32.8349],[-59.1421,-32.8528],[-59.154,-32.8819],[-59.1466,-32.9],[-59.1491,-32.9153],[-59.1847,-32.9395],[-59.1996,-32.9548],[-59.2,-32.9762],[-59.2183,-32.9889],[-59.2511,-33.04],[-59.2881,-33.074],[-59.2889,-33.1074],[-59.2954,-33.1463],[-59.2665,-33.1576],[-59.2329,-33.2421],[-59.2156,-33.278],[-59.165,-33.3663],[-59.1141,-33.3961],[-59.0872,-33.397],[-58.9514,-33.4603],[-58.8576,-33.4745],[-58.8242,-33.4368],[-58.8016,-33.4497],[-58.788,-33.4348],[-58.7641,-33.4509],[-58.7541,-33.4697],[-58.6484,-33.4376],[-58.6078,-33.4528],[-58.5976,-33.4398],[-58.5774,-33.4321],[-58.5432,-33.4487],[-58.5391,-33.4505],[-58.4814,-33.4892],[-58.4369,-33.5127],[-58.4337,-33.4932],[-58.4426,-33.446],[-58.4309,-33.4127],[-58.4316,-33.3633],[-58.3968,-33.313],[-58.3905,-33.2765],[-58.4098,-33.2335],[-58.4042,-33.1819],[-58.3697,-33.1285],[-58.3513,-33.1172],[-58.3126,-33.1062],[-58.2503,-33.1012],[-58.1694,-33.0725],[-58.1429,-33.0434],[-58.1067,-33.0258],[-58.1427,-33.0351],[-58.1586,-33.0338],[-58.1463,-33.0007],[-58.2674,-32.9995],[-58.2668,-32.8748],[-58.5063,-32.8782],[-58.4936,-32.8544],[-58.5009,-32.8143],[-58.4937,-32.7926],[-58.5042,-32.767],[-58.4997,-32.7401],[-58.5236,-32.7035],[-58.5195,-32.6841],[-58.5371,-32.6588],[-58.5276,-32.6329],[-58.5316,-32.6066],[-58.5252,-32.5728],[-58.5421,-32.5545],[-58.5903,-32.5465],[-58.6049,-32.5317],[-58.6449,-32.5129],[-58.7182,-32.5478],[-58.7539,-32.5485],[-58.7731,-32.559],[-58.8304,-32.5477],[-58.8495,-32.5373],[-58.879,-32.5131],[-58.9048,-32.5128],[-58.9142,-32.4954],[-58.9407,-32.4753],[-58.9492,-32.4968],[-58.97,-32.5108],[-59.021,-32.4856],[-59.0712,-32.4669],[-59.1067,-32.4502],[-59.1011,-32.4888],[-59.1124,-32.5301],[-59.0997,-32.5404],[-59.0975,-32.5984],[-59.1036,-32.6289],[-59.1188,-32.6614],[-59.126,-32.7033]]]},"properties":{"id":8,"departamento":"GUALEGUAYCHU","cabecera":"GUALEGUAYCHU","provincia":"ENTRE RIOS"}},
{"type":"Feature","geometry":{"type":"Polygon","coordinates":[[[-59.2954,-33.1463],[-59.3154,-33.1668],[-59.3119,-33.182],[-59.3253,-33.1924],[-59.3458,-33.195],[-59.3803,-33.2184],[-59.4023,-33.2214],[-59.429,-33.2153],[-59.4777,-33.2243],[-59.5143,-33.2201],[-59.5338,-33.2124],[-59.5518,-33.1973],[-59.5736,-33.2043],[-59.6145,-33.246],[-59.6283,-33.2706],[-59.6528,-33.3026],[-59.6454,-33.3121],[-59.6193,-33.3219],[-59.6387,-33.3381],[-59.6242,-33.3603],[-59.5594,-33.3793],[-59.5536,-33.4054],[-59.5354,-33.427],[-59.4794,-33.4447],[-59.4524,-33.4499],[-59.3735,-33.5347],[-59.3274,-33.5534],[-59.3269,-33.5651],[-59.3114,-33.5932],[-59.2828,-33.6184],[-59.2742,-33.6321],[-59.2543,-33.6835],[-59.2524,-33.687],[-59.223,-33.7217],[-59.188,-33.7458],[-59.1859,-33.7963],[-59.217,-33.8047],[-59.2169,-33.8143],[-59.178,-33.8064],[-59.1386,-33.8438],[-59.1126,-33.8483],[-59.0663,-33.8329],[-59.0403,-33.8364],[-59.0288,-33.8463],[-59.0041,-33.8418],[-58.9888,-33.8461],[-58.9779,-33.8704],[-58.9396,-33.8735],[-58.8998,-33.891],[-58.8713,-33.9334],[-58.8549,-33.9472],[-58.8306,-33.9553],[-58.7904,-33.9452],[-58.7637,-33.9453],[-58.7335,-33.9665],[-58.684,-34.0193],[-58.6505,-34.0367],[-58.6305,-34.0398],[-58.596,-34.0355],[-58.5786,-34.0272],[-58.5532,-34.0267],[-58.4773,-34.0026],[-58.4193,-34.0038],[-58.3874,-33.9854],[-58.4048,-33.9639],[-58.4237,-33.9161],[-58.4331,-33.8292],[-58.4375,-33.7613],[-58.4339,-33.7231],[-58.4475,-33.6873],[-58.4741,-33.6521],[-58.4941,-33.5881],[-58.4774,-33.5642],[-58.4468,-33.5433],[-58.4369,-33.5127],[-58.4814,-33.4892],[-58.5391,-33.4505],[-58.5432,-33.4487],[-58.5774,-33.4321],[-58.5976,-33.4398],[-58.6078,-33.4528],[-58.6484,-33.4376],[-58.7541,-33.4697],[-58.7641,-33.4509],[-58.788,-33.4348],[-58.8016,-33.4497],[-58.8242,-33.4368],[-58.8576,-33.4745],[-58.9514,-33.4603],[-59.0872,-33.397],[-59.1141,-33.3961],[-59.165,-33.3663],[-59.2156,-33.278],[-59.2329,-33.2421],[-59.2665,-33.1576],[-59.2954,-33.1463]]]},"properties":{"id":9,"departamento":"ISLAS DEL IBICUY","cabecera":"VILLA PARANACITO","provincia":"ENTRE RIOS"}},
{"type":"Feature","geometry":{"type":"Polygon","coordinates":[[[-59.7767,-32.5877],[-59.7877,-32.6002],[-59.8084,-32.6953],[-59.8035,-32.726],[-59.8096,-32.7682],[-59.8241,-32.801],[-59.8478,-32.8115],[-59.8815,-32.8429],[-59.9018,-32.8926],[-59.873,-32.9114],[-59.8672,-32.9253],[-59.8896,-32.9347],[-59.9077,-32.9227],[-59.9526,-32.9046],[-60.0054,-32.9185],[-60.0276,-32.9322],[-60.0371,-32.9453],[-60.0275,-32.9625],[-60.0056,-32.9603],[-60.0063,-32.9836],[-60.0455,-32.9935],[-60.0362,-33.0064],[-59.9997,-33.004],[-59.9582,-33.024],[-59.9332,-33.0241],[-59.9002,-33.037],[-59.8928,-33.0591],[-59.8714,-33.0844],[-59.8525,-33.0877],[-59.8445,-33.0681],[-59.8289,-33.0768],[-59.8264,-33.1071],[-59.7876,-33.126],[-59.7942,-33.1481],[-59.8347,-33.1793],[-59.8332,-33.2176],[-59.8122,-33.2327],[-59.8163,-33.2436],[-59.8592,-33.2723],[-59.886,-33.2733],[-59.9014,-33.2593],[-59.9034,-33.2361],[-59.9285,-33.2344],[-59.921,-33.2648],[-59.9368,-33.2729],[-59.958,-33.2683],[-59.9631,-33.2416],[-59.9835,-33.2393],[-60.0108,-33.2704],[-60.0315,-33.2772],[-60.0376,-33.267],[-60.0375,-33.2324],[-60.0672,-33.2508],[-60.0898,-33.2491],[-60.1318,-33.2199],[-60.1525,-33.2265],[-60.1668,-33.2468],[-60.1883,-33.2403],[-60.1984,-33.2277],[-60.2152,-33.2255],[-60.2286,-33.2456],[-60.2537,-33.2076],[-60.2572,-33.205],[-60.2869,-33.1866],[-60.3031,-33.1835],[-60.2883,-33.1976],[-60.2869,-33.2166],[-60.2988,-33.2266],[-60.2978,-33.2423],[-60.2282,-33.2804],[-60.2007,-33.2922],[-60.1905,-33.3032],[-60.1696,-33.349],[-60.1381,-33.3591],[-60.1111,-33.373],[-60.0871,-33.3944],[-60.0722,-33.4247],[-60.0448,-33.4475],[-59.9994,-33.4701],[-59.9428,-33.4725],[-59.9235,-33.4801],[-59.9076,-33.501],[-59.8761,-33.5156],[-59.8393,-33.5214],[-59.8094,-33.544],[-59.8077,-33.5885],[-59.7886,-33.6046],[-59.7498,-33.6193],[-59.7246,-33.6229],[-59.6953,-33.6108],[-59.6644,-33.6175],[-59.6364,-33.6425],[-59.6314,-33.6778],[-59.6081,-33.695],[-59.5827,-33.6789],[-59.5548,-33.651],[-59.5313,-33.6354],[-59.5042,-33.6336],[-59.4757,-33.6584],[-59.4678,-33.7043],[-59.449,-33.7245],[-59.4253,-33.7326],[-59.3777,-33.7365],[-59.3336,-33.7294],[-59.3072,-33.7293],[-59.2543,-33.7223],[-59.2354,-33.74],[-59.2517,-33.7726],[-59.2548,-33.7939],[-59.2423,-33.8075],[-59.2169,-33.8143],[-59.217,-33.8047],[-59.1859,-33.7963],[-59.188,-33.7458],[-59.223,-33.7217],[-59.2524,-33.687],[-59.2543,-33.6835],[-59.2742,-33.6321],[-59.2828,-33.6184],[-59.3114,-33.5932],[-59.3269,-33.5651],[-59.3274,-33.5534],[-59.3735,-33.5347],[-59.4524,-33.4499],[-59.4794,-33.4447],[-59.5354,-33.427],[-59.5536,-33.4054],[-59.5594,-33.3793],[-59.6242,-33.3603],[-59.6387,-33.3381],[-59.6193,-33.3219],[-59.6454,-33.3121],[-59.6528,-33.3026],[-59.6283,-33.2706],[-59.6145,-33.246],[-59.5736,-33.2043],[-59.5518,-33.1973],[-59.5338,-33.2124],[-59.5143,-33.2201],[-59.4777,-33.2243],[-59.429,-33.2153],[-59.4023,-33.2214],[-59.3803,-33.2184],[-59.3458,-33.195],[-59.3253,-33.1924],[-59.3119,-33.182],[-59.3154,-33.1668],[-59.2954,-33.1463],[-59.2889,-33.1074],[-59.2881,-33.074],[-59.2511,-33.04],[-59.2183,-32.9889],[-59.2,-32.9762],[-59.1996,-32.9548],[-59.1847,-32.9395],[-59.1491,-32.9153],[-59.1466,-32.9],[-59.154,-32.8819],[-59.1421,-32.8528],[-59.1277,-32.8349],[-59.1365,-32.821],[-59.115,-32.7988],[-59.1227,-32.7681],[-59.1112,-32.7499],[-59.1232,-32.7451],[-59.13,-32.7143],[-59.126,-32.7033],[-59.1644,-32.7034],[-59.2044,-32.6953],[-59.2435,-32.6746],[-59.2737,-32.6753],[-59.3533,-32.6368],[-59.3879,-32.6265],[-59.4136,-32.6265],[-59.4119,-32.5966],[-59.4274,-32.5828],[-59.432,-32.5679],[-59.4675,-32.551],[-59.4781,-32.5385],[-59.4786,-32.5194],[-59.5004,-32.5198],[-59.532,-32.5342],[-59.591,-32.5406],[-59.6035,-32.5514],[-59.6192,-32.5795],[-59.6538,-32.585],[-59.6744,-32.6],[-59.7009,-32.6028],[-59.7515,-32.5845],[-59.7767,-32.5877]]]},"properties":{"id":10,"departamento":"GUALEGUAY","cabecera":"GUALEGUAY","provincia":"ENTRE RIOS"}},
{"type":"Feature","geometry":{"type":"Polygon","coordinates":[[[-57.9132,-31.2132],[-57.912,-31.1789],[-57.9199,-31.1396],[-57.9163,-31.1233],[-57.9,-31.1084],[-57.8723,-31.072],[-57.8643,-31.0548],[-57.8627,-31.0272],[-57.8846,-30.9889],[-57.8961,-30.9531],[-57.9138,-30.9326],[-57.9123,-30.9158],[-57.886,-30.9078],[-57.8468,-30.9203],[-57.8226,-30.9089],[-57.7996,-30.8554],[-57.8062,-30.834],[-57.7978,-30.7826],[-57.8118,-30.753],[-57.8094,-30.7295],[-57.8215,-30.7194],[-57.84,-30.7226],[-57.851,-30.7005],[-57.8948,-30.6694],[-57.9537,-30.6491],[-57.9749,-30.6375],[-58.0238,-30.6009],[-58.0336,-30.598],[-58.0377,-30.567],[-58.0578,-30.559],[-58.0687,-30.5448],[-58.0684,-30.5239],[-58.0576,-30.497],[-58.0736,-30.4817],[-58.0719,-30.4254],[-58.0942,-30.4225],[-58.1312,-30.4047],[-58.1402,-30.4063],[-58.1534,-30.3852],[-58.1778,-30.3591],[-58.1924,-30.3352],[-58.194,-30.3104],[-58.2083,-30.2876],[-58.2456,-30.2708],[-58.2593,-30.2585],[-58.2725,-30.2761],[-58.2748,-30.2794],[-58.2921,-30.305],[-58.3076,-30.3088],[-58.3521,-30.3014],[-58.3726,-30.3137],[-58.3279,-30.3319],[-58.3274,-30.3406],[-58.3539,-30.3588],[-58.3727,-30.3807],[-58.3892,-30.4082],[-58.4023,-30.4187],[-58.4141,-30.4555],[-58.443,-30.5072],[-58.4409,-30.5333],[-58.4546,-30.5577],[-58.4692,-30.5723],[-58.5048,-30.5884],[-58.5544,-30.6057],[-58.5715,-30.6326],[-58.5474,-30.6606],[-58.5336,-30.6924],[-58.4961,-30.7118],[-58.4808,-30.7433],[-58.4505,-30.7949],[-58.4102,-30.8181],[-58.4012,-30.8316],[-58.3756,-30.825],[-58.3405,-30.8313],[-58.2813,-30.8461],[-58.2733,-30.8552],[-58.266,-30.8893],[-58.2525,-30.8994],[-58.2295,-30.928],[-58.2209,-30.958],[-58.222,-30.989],[-58.2184,-31.0237],[-58.2034,-31.0376],[-58.1668,-31.0524],[-58.1062,-31.0672],[-58.0655,-31.0839],[-57.9969,-31.1277],[-57.9935,-31.1302],[-57.9616,-31.1573],[-57.9311,-31.2047],[-57.9132,-31.2132]]]},"properties":{"id":11,"departamento":"FEDERACION","cabecera":"FEDERACION","provincia":"ENTRE RIOS"}},
{"type":"Feature","geometry":{"type":"Polygon","coordinates":[[[-59.2488,-31.2579],[-59.2534,-31.2429],[-59.2566,-31.2357],[-59.2749,-31.2007],[-59.266,-31.1552],[-59.2638,-31.1165],[-59.2791,-31.0853],[-59.2809,-31.0679],[-59.2937,-31.0657],[-59.2937,-31.0313],[-59.3142,-31.0074],[-59.3281,-30.9707],[-59.3191,-30.9537],[-59.2924,-30.934],[-59.3013,-30.9084],[-59.277,-30.8809],[-59.2861,-30.8337],[-59.3095,-30.805],[-59.3371,-30.7852],[-59.3414,-30.7754],[-59.2882,-30.7552],[-59.2768,-30.7433],[-59.2103,-30.737],[-59.2006,-30.7246],[-59.1529,-30.7154],[-59.1018,-30.685],[-59.036,-30.6601],[-59.0151,-30.6457],[-58.9965,-30.6149],[-58.991,-30.5886],[-58.9761,-30.5776],[-58.9478,-30.5494],[-58.9559,-30.52],[-58.9862,-30.4968],[-59.0355,-30.4708],[-59.0599,-30.443],[-59.0613,-30.4007],[-59.068,-30.3822],[-59.085,-30.3614],[-59.1165,-30.3466],[-59.1433,-30.3455],[-59.1477,-30.3454],[-59.1628,-30.3384],[-59.1726,-30.3226],[-59.193,-30.3322],[-59.2229,-30.354],[-59.2281,-30.3635],[-59.2515,-30.3653],[-59.2993,-30.3576],[-59.3032,-30.3475],[-59.3255,-30.3521],[-59.3477,-30.3247],[-59.4293,-30.3176],[-59.4401,-30.3295],[-59.4638,-30.3258],[-59.4808,-30.3428],[-59.5461,-30.3399],[-59.5656,-30.3481],[-59.5658,-30.358],[-59.587,-30.4342],[-59.6151,-30.4192],[-59.6338,-30.3852],[-59.6368,-30.3578],[-59.6575,-30.3528],[-59.6717,-30.3387],[-59.6844,-30.356],[-59.6826,-30.383],[-59.699,-30.4153],[-59.7034,-30.4426],[-59.6798,-30.4605],[-59.6538,-30.4878],[-59.6503,-30.501],[-59.6459,-30.597],[-59.6735,-30.6363],[-59.6764,-30.6594],[-59.6631,-30.682],[-59.6366,-30.7013],[-59.6399,-30.7278],[-59.6652,-30.7489],[-59.6994,-30.7691],[-59.7049,-30.8174],[-59.7161,-30.8462],[-59.7348,-30.8766],[-59.7541,-30.8961],[-59.8182,-30.9425],[-59.8261,-30.9717],[-59.8396,-30.9865],[-59.8779,-31.0562],[-59.9254,-31.1051],[-59.9479,-31.1094],[-59.9634,-31.1199],[-59.9821,-31.1534],[-59.9383,-31.1979],[-59.9356,-31.2207],[-59.9362,-31.2245],[-59.9366,-31.2439],[-59.9063,-31.2866],[-59.8793,-31.3766],[-59.8796,-31.396],[-59.8674,-31.4167],[-59.8694,-31.4466],[-59.8429,-31.4777],[-59.8244,-31.4369],[-59.7941,-31.414],[-59.7449,-31.4098],[-59.7048,-31.4157],[-59.6356,-31.4335],[-59.6262,-31.4412],[-59.6434,-31.4686],[-59.6459,-31.4917],[-59.6377,-31.5051],[-59.5904,-31.48],[-59.5361,-31.453],[-59.5199,-31.4396],[-59.511,-31.4383],[-59.4905,-31.4223],[-59.4871,-31.4074],[-59.4559,-31.3699],[-59.4386,-31.3657],[-59.4249,-31.343],[-59.3918,-31.3122],[-59.3439,-31.3008],[-59.3079,-31.2849],[-59.2668,-31.2557],[-59.2488,-31.2579]]]},"properties":{"id":12,"departamento":"LA PAZ","cabecera":"LA PAZ","provincia":"ENTRE RIOS"}},
{"type":"Feature","geometry":{"type":"Polygon","coordinates":[[[-58.5715,-30.6326],[-58.5544,-30.6057],[-58.5048,-30.5884],[-58.4692,-30.5723],[-58.4546,-30.5577],[-58.4409,-30.5333],[-58.443,-30.5072],[-58.4141,-30.4555],[-58.4023,-30.4187],[-58.3892,-30.4082],[-58.3727,-30.3807],[-58.3539,-30.3588],[-58.3274,-30.3406],[-58.3279,-30.3319],[-58.3726,-30.3137],[-58.3521,-30.3014],[-58.3076,-30.3088],[-58.2921,-30.305],[-58.2748,-30.2794],[-58.2725,-30.2761],[-58.2593,-30.2585],[-58.2856,-30.2446],[-58.2984,-30.2468],[-58.3322,-30.268],[-58.3465,-30.2713],[-58.3811,-30.2595],[-58.4146,-30.235],[-58.4353,-30.2306],[-58.4706,-30.2033],[-58.4979,-30.207],[-58.5254,-30.1891],[-58.5529,-30.1858],[-58.5765,-30.16],[-58.6309,-30.1755],[-58.6441,-30.1662],[-58.6679,-30.1646],[-58.7408,-30.199],[-58.7477,-30.2127],[-58.7627,-30.2167],[-58.8198,-30.2171],[-58.8346,-30.2318],[-58.8735,-30.2385],[-58.8796,-30.2461],[-58.9127,-30.2474],[-58.9393,-30.2311],[-58.9902,-30.2193],[-59.0637,-30.2308],[-59.0897,-30.2612],[-59.1312,-30.2875],[-59.1442,-30.3173],[-59.1726,-30.3226],[-59.1628,-30.3384],[-59.1477,-30.3454],[-59.1433,-30.3455],[-59.1165,-30.3466],[-59.085,-30.3614],[-59.068,-30.3822],[-59.0613,-30.4007],[-59.0599,-30.443],[-59.0355,-30.4708],[-58.9862,-30.4968],[-58.9559,-30.52],[-58.9478,-30.5494],[-58.9761,-30.5776],[-58.9599,-30.5717],[-58.9348,-30.5867],[-58.9214,-30.5885],[-58.8959,-30.6102],[-58.8652,-30.6252],[-58.8455,-30.6403],[-58.7874,-30.6451],[-58.7707,-30.657],[-58.7423,-30.6684],[-58.7154,-30.6671],[-58.6675,-30.6769],[-58.6451,-30.6766],[-58.6114,-30.667],[-58.5715,-30.6326]]]},"properties":{"id":13,"departamento":"FELICIANO","cabecera":"SAN JOSE DE FELICIANO","provincia":"ENTRE RIOS"}},
{"type":"Feature","geometry":{"type":"Polygon","coordinates":[[[-60.1908,-32.1947],[-60.2162,-32.2006],[-60.2935,-32.2088],[-60.3025,-32.2375],[-60.3221,-32.2587],[-60.3423,-32.3058],[-60.3541,-32.3111],[-60.3992,-32.3075],[-60.4307,-32.3221],[-60.4446,-32.3422],[-60.4461,-32.3689],[-60.4223,-32.4059],[-60.4317,-32.4215],[-60.4544,-32.4245],[-60.477,-32.4365],[-60.4674,-32.4662],[-60.4911,-32.4778],[-60.5009,-32.519],[-60.5159,-32.543],[-60.5115,-32.554],[-60.5224,-32.5785],[-60.5407,-32.5956],[-60.5787,-32.6065],[-60.6113,-32.6264],[-60.6748,-32.6274],[-60.6846,-32.6492],[-60.6873,-32.6524],[-60.7103,-32.6712],[-60.7239,-32.6703],[-60.7199,-32.6936],[-60.7221,-32.747],[-60.716,-32.7736],[-60.6943,-32.8056],[-60.6589,-32.8312],[-60.665,-32.8551],[-60.6793,-32.867],[-60.6762,-32.8996],[-60.6502,-32.9267],[-60.6257,-32.9413],[-60.6169,-32.9539],[-60.6105,-32.9913],[-60.5859,-33.0248],[-60.5647,-33.0422],[-60.5349,-33.0778],[-60.5132,-33.1129],[-60.4934,-33.1314],[-60.4406,-33.1569],[-60.4242,-33.174],[-60.3825,-33.1892],[-60.3357,-33.1768],[-60.3031,-33.1835],[-60.2869,-33.1866],[-60.2572,-33.205],[-60.2537,-33.2076],[-60.2286,-33.2456],[-60.2152,-33.2255],[-60.1984,-33.2277],[-60.1883,-33.2403],[-60.1668,-33.2468],[-60.1525,-33.2265],[-60.1318,-33.2199],[-60.0898,-33.2491],[-60.0672,-33.2508],[-60.0375,-33.2324],[-60.0376,-33.267],[-60.0315,-33.2772],[-60.0108,-33.2704],[-59.9835,-33.2393],[-59.9631,-33.2416],[-59.958,-33.2683],[-59.9368,-33.2729],[-59.921,-33.2648],[-59.9285,-33.2344],[-59.9034,-33.2361],[-59.9014,-33.2593],[-59.886,-33.2733],[-59.8592,-33.2723],[-59.8163,-33.2436],[-59.8122,-33.2327],[-59.8332,-33.2176],[-59.8347,-33.1793],[-59.7942,-33.1481],[-59.7876,-33.126],[-59.8264,-33.1071],[-59.8289,-33.0768],[-59.8445,-33.0681],[-59.8525,-33.0877],[-59.8714,-33.0844],[-59.8928,-33.0591],[-59.9002,-33.037],[-59.9332,-33.0241],[-59.9582,-33.024],[-59.9997,-33.004],[-60.0362,-33.0064],[-60.0455,-32.9935],[-60.0063,-32.9836],[-60.0056,-32.9603],[-60.0275,-32.9625],[-60.0371,-32.9453],[-60.0276,-32.9322],[-60.0054,-32.9185],[-59.9526,-32.9046],[-59.9077,-32.9227],[-59.8896,-32.9347],[-59.8672,-32.9253],[-59.873,-32.9114],[-59.9018,-32.8926],[-59.8815,-32.8429],[-59.8478,-32.8115],[-59.8241,-32.801],[-59.8096,-32.7682],[-59.8035,-32.726],[-59.8084,-32.6953],[-59.7877,-32.6002],[-59.7767,-32.5877],[-59.7817,-32.5681],[-59.7784,-32.5343],[-59.803,-32.5256],[-59.8342,-32.531],[-59.8845,-32.5275],[-59.9092,-32.5119],[-59.9365,-32.5089],[-59.9636,-32.5116],[-59.9924,-32.5006],[-60.0235,-32.458],[-60.0265,-32.4115],[-60.0211,-32.3652],[-60.0329,-32.3248],[-60.0734,-32.3133],[-60.0589,-32.2999],[-60.0736,-32.28],[-60.1132,-32.2545],[-60.1166,-32.2357],[-60.1287,-32.2197],[-60.1514,-32.2277],[-60.1799,-32.2195],[-60.1908,-32.1947]]]},"properties":{"id":14,"departamento":"VICTORIA","cabecera":"VICTORIA","provincia":"ENTRE RIOS"}},
{"type":"Feature","geometry":{"type":"Polygon","coordinates":[[[-60.2638,-32.0448],[-60.2775,-32.0457],[-60.3025,-32.0616],[-60.3247,-32.0573],[-60.3506,-32.0785],[-60.384,-32.0663],[-60.3877,-32.0346],[-60.4032,-32.0264],[-60.4107,-32.0092],[-60.4075,-31.991],[-60.391,-31.9875],[-60.3766,-31.9749],[-60.3904,-31.946],[-60.422,-31.9291],[-60.4506,-31.9473],[-60.4855,-31.94],[-60.4927,-31.9271],[-60.5352,-31.9139],[-60.5532,-31.9119],[-60.5553,-31.8866],[-60.5685,-31.8838],[-60.5622,-31.8467],[-60.5828,-31.8425],[-60.5785,-31.8233],[-60.616,-31.812],[-60.6654,-31.8034],[-60.6693,-31.8024],[-60.6734,-31.8302],[-60.6626,-31.8445],[-60.6529,-31.8971],[-60.6601,-31.9183],[-60.6719,-31.9302],[-60.7197,-31.9588],[-60.7235,-31.9776],[-60.7045,-32.0004],[-60.6844,-32.0121],[-60.6637,-32.0384],[-60.656,-32.0671],[-60.6586,-32.0802],[-60.6802,-32.1028],[-60.6947,-32.1288],[-60.7001,-32.169],[-60.6904,-32.1971],[-60.6737,-32.224],[-60.6735,-32.2449],[-60.6828,-32.2865],[-60.6823,-32.324],[-60.7121,-32.3257],[-60.7216,-32.3421],[-60.7116,-32.3931],[-60.7238,-32.4561],[-60.748,-32.4826],[-60.7762,-32.507],[-60.7474,-32.5543],[-60.7439,-32.5861],[-60.7521,-32.6222],[-60.7239,-32.6703],[-60.7103,-32.6712],[-60.6873,-32.6524],[-60.6846,-32.6492],[-60.6748,-32.6274],[-60.6113,-32.6264],[-60.5787,-32.6065],[-60.5407,-32.5956],[-60.5224,-32.5785],[-60.5115,-32.554],[-60.5159,-32.543],[-60.5009,-32.519],[-60.4911,-32.4778],[-60.4674,-32.4662],[-60.477,-32.4365],[-60.4544,-32.4245],[-60.4317,-32.4215],[-60.4223,-32.4059],[-60.4461,-32.3689],[-60.4446,-32.3422],[-60.4307,-32.3221],[-60.3992,-32.3075],[-60.3541,-32.3111],[-60.3423,-32.3058],[-60.3221,-32.2587],[-60.3025,-32.2375],[-60.2935,-32.2088],[-60.2162,-32.2006],[-60.1908,-32.1947],[-60.1842,-32.1792],[-60.1449,-32.164],[-60.1653,-32.1258],[-60.2047,-32.1377],[-60.2178,-32.1283],[-60.2237,-32.0943],[-60.2567,-32.0646],[-60.2638,-32.0448]]]},"properties":{"id":15,"departamento":"DIAMANTE","cabecera":"DIAMANTE","provincia":"ENTRE RIOS"}},
{"type":"Feature","geometry":{"type":"Polygon","coordinates":[[[-59.0607,-32.0377],[-59.0605,-32.0506],[-59.0905,-32.0887],[-59.0865,-32.1075],[-59.0923,-32.1419],[-59.0858,-32.1714],[-59.106,-32.206],[-59.1138,-32.232],[-59.1065,-32.246],[-59.09,-32.2529],[-59.0869,-32.2759],[-59.076,-32.2924],[-59.0732,-32.3191],[-59.093,-32.3485],[-59.088,-32.3743],[-59.0996,-32.4035],[-59.095,-32.4146],[-59.1094,-32.4379],[-59.1067,-32.4502],[-59.0712,-32.4669],[-59.021,-32.4856],[-58.97,-32.5108],[-58.9492,-32.4968],[-58.9407,-32.4753],[-58.9142,-32.4954],[-58.9048,-32.5128],[-58.879,-32.5131],[-58.8495,-32.5373],[-58.8304,-32.5477],[-58.7731,-32.559],[-58.7539,-32.5485],[-58.7182,-32.5478],[-58.6449,-32.5129],[-58.6049,-32.5317],[-58.5903,-32.5465],[-58.5421,-32.5545],[-58.5252,-32.5728],[-58.5316,-32.6066],[-58.5276,-32.6329],[-58.5371,-32.6588],[-58.5195,-32.6841],[-58.5236,-32.7035],[-58.4997,-32.7401],[-58.5042,-32.767],[-58.4937,-32.7926],[-58.5009,-32.8143],[-58.4936,-32.8544],[-58.5063,-32.8782],[-58.2668,-32.8748],[-58.2674,-32.9995],[-58.1463,-33.0007],[-58.1586,-33.0338],[-58.1427,-33.0351],[-58.1067,-33.0258],[-58.0844,-33.0024],[-58.0894,-32.9548],[-58.1102,-32.9322],[-58.1165,-32.9131],[-58.1153,-32.8801],[-58.1221,-32.8614],[-58.1205,-32.811],[-58.1341,-32.7828],[-58.1389,-32.7568],[-58.1498,-32.7314],[-58.1451,-32.6695],[-58.1498,-32.6324],[-58.1597,-32.5997],[-58.1612,-32.569],[-58.1872,-32.5329],[-58.1873,-32.5156],[-58.2037,-32.4651],[-58.1941,-32.4111],[-58.184,-32.3779],[-58.175,-32.3668],[-58.1991,-32.3615],[-58.2028,-32.3634],[-58.2199,-32.3537],[-58.2246,-32.3346],[-58.2491,-32.3281],[-58.2704,-32.3089],[-58.2927,-32.3062],[-58.3158,-32.2734],[-58.3315,-32.2585],[-58.3606,-32.2729],[-58.3765,-32.2448],[-58.4146,-32.238],[-58.4102,-32.1889],[-58.4176,-32.1841],[-58.453,-32.1893],[-58.484,-32.1857],[-58.5081,-32.1949],[-58.5237,-32.1871],[-58.5479,-32.1946],[-58.5487,-32.222],[-58.5654,-32.2274],[-58.5724,-32.1968],[-58.5908,-32.186],[-58.6302,-32.1765],[-58.6409,-32.16],[-58.6467,-32.1216],[-58.6458,-32.0906],[-58.6626,-32.0682],[-58.6913,-32.0111],[-58.6909,-31.9914],[-58.707,-31.9722],[-58.7179,-31.9768],[-58.7507,-32.0089],[-58.7908,-32.0129],[-58.8396,-32.0223],[-58.8424,-32.0482],[-58.8637,-32.0523],[-58.9036,-32.0479],[-58.928,-32.0533],[-58.9528,-32.0434],[-58.9841,-32.0444],[-58.9995,-32.0364],[-59.0305,-32.0346],[-59.0607,-32.0377]]]},"properties":{"id":16,"departamento":"URUGUAY","cabecera":"CONCEPCIÒN DEL URUGUAY","provincia":"ENTRE RIOS"}},
{"type":"Feature","geometry":{"type":"Polygon","coordinates":[[[-59.5904,-31.48],[-59.6377,-31.5051],[-59.6459,-31.4917],[-59.6434,-31.4686],[-59.6262,-31.4412],[-59.6356,-31.4335],[-59.7048,-31.4157],[-59.7449,-31.4098],[-59.7941,-31.414],[-59.8244,-31.4369],[-59.8429,-31.4777],[-59.8694,-31.4466],[-59.8674,-31.4167],[-59.8796,-31.396],[-59.8793,-31.3766],[-59.9063,-31.2866],[-59.9366,-31.2439],[-59.9362,-31.2245],[-59.9356,-31.2207],[-59.9383,-31.1979],[-59.9821,-31.1534],[-59.9887,-31.2066],[-60.0014,-31.2369],[-60.0255,-31.2591],[-60.1056,-31.2899],[-60.1057,-31.3108],[-60.0869,-31.3398],[-60.0961,-31.3706],[-60.1384,-31.4134],[-60.1394,-31.4372],[-60.1491,-31.4483],[-60.1813,-31.4607],[-60.2071,-31.4652],[-60.2188,-31.4757],[-60.2195,-31.4933],[-60.2302,-31.5183],[-60.2579,-31.5357],[-60.2993,-31.5336],[-60.3257,-31.5419],[-60.3399,-31.5552],[-60.3269,-31.5788],[-60.3276,-31.6021],[-60.3573,-31.6266],[-60.3963,-31.643],[-60.4438,-31.6756],[-60.4676,-31.6983],[-60.5374,-31.6999],[-60.591,-31.7109],[-60.6388,-31.742],[-60.6437,-31.7633],[-60.6364,-31.7746],[-60.6409,-31.7918],[-60.6693,-31.8024],[-60.6654,-31.8034],[-60.616,-31.812],[-60.5785,-31.8233],[-60.5828,-31.8425],[-60.5622,-31.8467],[-60.5685,-31.8838],[-60.5553,-31.8866],[-60.5532,-31.9119],[-60.5352,-31.9139],[-60.4927,-31.9271],[-60.4855,-31.94],[-60.4506,-31.9473],[-60.422,-31.9291],[-60.3904,-31.946],[-60.3766,-31.9749],[-60.391,-31.9875],[-60.4075,-31.991],[-60.4107,-32.0092],[-60.4032,-32.0264],[-60.3877,-32.0346],[-60.384,-32.0663],[-60.3506,-32.0785],[-60.3247,-32.0573],[-60.3025,-32.0616],[-60.2775,-32.0457],[-60.2638,-32.0448],[-60.2477,-32.0379],[-60.2086,-32.0114],[-60.1734,-32.0042],[-60.1649,-31.9863],[-60.1417,-31.963],[-60.1323,-31.9807],[-60.1045,-31.994],[-60.0867,-31.9969],[-60.0624,-32.0137],[-60.0334,-32.0245],[-60.0151,-32.0135],[-60.0079,-31.9795],[-59.996,-31.9588],[-59.9488,-31.9355],[-59.9257,-31.9117],[-59.9079,-31.8757],[-59.8915,-31.8719],[-59.8471,-31.8795],[-59.8188,-31.8918],[-59.7668,-31.906],[-59.7486,-31.9056],[-59.702,-31.8817],[-59.6711,-31.8754],[-59.6356,-31.8601],[-59.6159,-31.8618],[-59.6205,-31.8363],[-59.5954,-31.7996],[-59.5993,-31.7734],[-59.5851,-31.7449],[-59.5753,-31.7368],[-59.5693,-31.707],[-59.5267,-31.6718],[-59.5153,-31.6383],[-59.515,-31.6231],[-59.5278,-31.6119],[-59.5537,-31.6074],[-59.5863,-31.5864],[-59.6033,-31.5643],[-59.5904,-31.48]]]},"properties":{"id":17,"departamento":"PARANA","cabecera":"PARANA","provincia":"ENTRE RIOS"}}
]}