{"type":"FeatureCollection", "features": [
{"type":"Feature","geometry":{"type":"Polygon","coordinates":[[[-61.8516,-23.0971],[-61.8623,-23.0868],[-61.8738,-23.0925],[-61.8834,-23.0851],[-61.886,-23.0762],[-61.8999,-23.0756],[-61.9122,-23.0689],[-61.9273,-23.0715],[-61.938,-23.0685],[-61.938,-23.0508],[-61.9542,-23.0325],[-61.9764,-23.0271],[-61.9859,-23.0181],[-61.9938,-22.9916],[-62.003,-22.9893],[-62.0084,-22.9621],[-61.9982,-22.9465],[-61.9996,-22.9313],[-62.012,-22.932],[-62.0207,-22.9172],[-62.0241,-22.9043],[-62.0366,-22.8857],[-62.0398,-22.871],[-62.0524,-22.8621],[-62.0773,-22.8328],[-62.091,-22.8201],[-62.0991,-22.8047],[-62.1136,-22.8052],[-62.115,-22.7934],[-62.1338,-22.7806],[-62.1387,-22.7613],[-62.1476,-22.7536],[-62.1625,-22.7488],[-62.1654,-22.7259],[-62.1771,-22.7209],[-62.1802,-22.7093],[-62.1883,-22.7003],[-62.1991,-22.7096],[-62.2038,-22.6959],[-62.1991,-22.6924],[-62.1806,-22.6952],[-62.1832,-22.6787],[-62.1993,-22.6796],[-62.1998,-22.6597],[-62.193,-22.6502],[-62.1929,-22.6272],[-62.2067,-22.644],[-62.2117,-22.6272],[-62.2513,-22.6095],[-62.2546,-22.5995],[-62.2635,-22.5947],[-62.2441,-22.5796],[-62.2454,-22.5711],[-62.2337,-22.5666],[-62.2364,-22.5438],[-62.2424,-22.5343],[-62.2512,-22.5316],[-62.2516,-22.5186],[-62.2565,-22.5112],[-62.28,-22.5051],[-62.2831,-22.5167],[-62.2918,-22.517],[-62.2871,-22.5006],[-62.2931,-22.4894],[-62.29,-22.475],[-62.3004,-22.4722],[-62.3132,-22.4837],[-62.3216,-22.4807],[-62.3376,-22.4558],[-62.3423,-22.4539],[-62.3422,-22.6781],[-62.3422,-22.7985],[-62.342,-23.4954],[-62.2832,-23.4955],[-61.8439,-23.4929],[-61.8499,-23.1921],[-61.8514,-23.1145],[-61.8516,-23.0971]]]},"properties":{"id":273,"departamento":"RAMON LISTA","cabecera":"GENERAL MOSCONI","provincia":"FORMOSA"}},
{"type":"Feature","geometry":{"type":"Polygon","coordinates":[[[-57.8278,-25.759],[-57.8183,-25.751],[-57.8066,-25.752],[-57.79,-25.7606],[-57.7743,-25.7563],[-57.7589,-25.7393],[-57.7376,-25.7267],[-57.7275,-25.7148],[-57.7337,-25.7058],[-57.7605,-25.7078],[-57.7683,-25.6892],[-57.7573,-25.676],[-57.7541,-25.6641],[-57.7394,-25.6468],[-57.7192,-25.6451],[-57.6914,-25.6601],[-57.6825,-25.6614],[-57.6711,-25.6531],[-57.678,-25.6015],[-57.6665,-25.5941],[-57.6552,-25.5967],[-57.6416,-25.6101],[-57.6228,-25.6169],[-57.6097,-25.6059],[-57.6051,-25.587],[-57.6074,-25.5713],[-57.6012,-25.5662],[-57.5846,-25.5706],[-57.5757,-25.5593],[-57.5711,-25.5404],[-57.5809,-25.5134],[-57.5808,-25.5055],[-57.5721,-25.4942],[-57.5613,-25.47],[-57.5576,-25.446],[-57.5797,-25.4217],[-57.5955,-25.4011],[-57.616,-25.3876],[-57.6393,-25.384],[-57.6522,-25.3648],[-57.6704,-25.3482],[-57.6819,-25.3422],[-57.6925,-25.323],[-57.7,-25.3218],[-57.6974,-25.2837],[-57.7095,-25.2861],[-57.7213,-25.2781],[-57.7279,-25.2472],[-57.7358,-25.2476],[-57.7359,-25.2342],[-57.7515,-25.2277],[-57.7555,-25.2086],[-57.7483,-25.207],[-57.7587,-25.1875],[-57.7523,-25.1815],[-57.7756,-25.1618],[-57.7797,-25.1526],[-57.7923,-25.1519],[-57.8159,-25.1429],[-57.8256,-25.1312],[-57.8396,-25.1261],[-57.8491,-25.1048],[-57.8483,-25.0976],[-57.8659,-25.083],[-57.887,-25.0769],[-57.8963,-25.0801],[-57.9225,-25.0735],[-57.937,-25.0749],[-57.9523,-25.0808],[-57.9565,-25.0727],[-57.9737,-25.0826],[-57.9876,-25.0803],[-57.9996,-25.0667],[-57.9953,-25.0589],[-58.007,-25.0354],[-58.0144,-25.0389],[-58.0313,-25.0359],[-58.0399,-25.042],[-58.0705,-25.041],[-58.0768,-25.0377],[-58.0837,-25.0156],[-58.1115,-25.0153],[-58.1369,-25.0095],[-58.1375,-24.995],[-58.1506,-24.9806],[-58.1509,-24.9749],[-58.1687,-24.9687],[-58.194,-24.9681],[-58.1975,-24.9556],[-58.2054,-24.9481],[-58.2175,-24.9504],[-58.2215,-24.9361],[-58.2367,-24.9268],[-58.2568,-24.9351],[-58.2723,-24.9456],[-58.2793,-24.9551],[-58.2891,-24.9562],[-58.2959,-24.9743],[-58.3089,-24.9792],[-58.3294,-24.9977],[-58.3344,-24.9988],[-58.3461,-24.9845],[-58.3464,-24.9746],[-58.3703,-24.9584],[-58.3809,-24.9552],[-58.3802,-25.077],[-58.379,-25.2807],[-58.3784,-25.393],[-58.4874,-25.3933],[-58.6052,-25.3943],[-58.6051,-25.4707],[-58.605,-25.5831],[-58.4918,-25.5856],[-58.2212,-25.588],[-58.2206,-25.5604],[-58.2017,-25.574],[-58.1901,-25.5777],[-58.1527,-25.5629],[-58.1379,-25.5725],[-58.0748,-25.591],[-58.0423,-25.6054],[-58.034,-25.6129],[-58.0293,-25.6345],[-58.0356,-25.6583],[-58.0261,-25.6725],[-58.0206,-25.6873],[-57.9896,-25.7025],[-57.9793,-25.7128],[-57.9591,-25.7185],[-57.9261,-25.7326],[-57.9087,-25.7375],[-57.8724,-25.7388],[-57.8492,-25.7451],[-57.8328,-25.7525],[-57.8278,-25.759]]]},"properties":{"id":274,"departamento":"PILCOMAYO","cabecera":"CLORINDA","provincia":"FORMOSA"}},
{"type":"Feature","geometry":{"type":"Polygon","coordinates":[[[-58.605,-25.5831],[-58.6047,-25.7772],[-58.9259,-25.7786],[-58.9261,-25.9594],[-58.926,-26.1853],[-58.7577,-26.1836],[-58.7567,-26.1573],[-58.5687,-26.1592],[-58.569,-26.1735],[-58.5054,-26.1736],[-58.5041,-26.3434],[-58.4843,-26.3439],[-58.3384,-26.3485],[-58.3329,-26.3467],[-58.2674,-26.3442],[-58.2146,-26.3851],[-58.1945,-26.3699],[-58.1769,-26.3654],[-58.1646,-26.357],[-58.158,-26.3436],[-58.1543,-26.3179],[-58.1648,-26.3005],[-58.1682,-26.2816],[-58.1624,-26.2653],[-58.1212,-26.2488],[-58.1106,-26.2431],[-58.1047,-26.2332],[-58.1065,-26.2236],[-58.1297,-26.2094],[-58.156,-26.1897],[-58.1435,-26.1808],[-58.1284,-26.1883],[-58.1188,-26.1863],[-58.1175,-26.1555],[-58.1118,-26.1449],[-58.1007,-26.1366],[-58.0893,-26.1179],[-58.0701,-26.1097],[-58.0529,-26.1136],[-58.0238,-26.1091],[-57.994,-26.0922],[-57.9538,-26.0723],[-57.932,-26.0505],[-57.9228,-26.0362],[-57.8983,-26.0226],[-57.8749,-26.0174],[-57.8543,-26.0088],[-57.8509,-25.9957],[-57.8575,-25.9849],[-57.8918,-25.9655],[-57.896,-25.9576],[-57.8871,-25.9329],[-57.8498,-25.9224],[-57.8429,-25.9174],[-57.8419,-25.8993],[-57.8671,-25.8845],[-57.8727,-25.874],[-57.8664,-25.8604],[-57.8461,-25.849],[-57.8195,-25.8473],[-57.805,-25.8356],[-57.7975,-25.822],[-57.7974,-25.8108],[-57.8044,-25.7979],[-57.8207,-25.779],[-57.8278,-25.759],[-57.8328,-25.7525],[-57.8492,-25.7451],[-57.8724,-25.7388],[-57.9087,-25.7375],[-57.9261,-25.7326],[-57.9591,-25.7185],[-57.9793,-25.7128],[-57.9896,-25.7025],[-58.0206,-25.6873],[-58.0261,-25.6725],[-58.0356,-25.6583],[-58.0293,-25.6345],[-58.034,-25.6129],[-58.0423,-25.6054],[-58.0748,-25.591],[-58.1379,-25.5725],[-58.1527,-25.5629],[-58.1901,-25.5777],[-58.2017,-25.574],[-58.2206,-25.5604],[-58.2212,-25.588],[-58.4918,-25.5856],[-58.605,-25.5831]]]},"properties":{"id":275,"departamento":"FORMOSA","cabecera":"FORMOSA","provincia":"FORMOSA"}},
{"type":"Feature","geometry":{"type":"Polygon","coordinates":[[[-58.6051,-25.4707],[-58.8895,-25.2829],[-59.0536,-25.174],[-59.2722,-25.3376],[-59.6351,-25.6075],[-59.6363,-25.895],[-59.6367,-26.0102],[-59.6366,-26.1199],[-59.6188,-26.1173],[-59.5955,-26.131],[-59.5848,-26.1218],[-59.5767,-26.1378],[-59.5672,-26.1489],[-59.5473,-26.1509],[-59.5355,-26.1413],[-59.5283,-26.149],[-59.516,-26.1452],[-59.5092,-26.1592],[-59.4976,-26.1537],[-59.4774,-26.1623],[-59.4669,-26.152],[-59.4348,-26.1536],[-59.4147,-26.1676],[-59.4198,-26.1781],[-59.4187,-26.1962],[-59.4103,-26.2071],[-59.4139,-26.225],[-59.4022,-26.2325],[-59.4035,-26.24],[-59.3952,-26.2496],[-59.3993,-26.2562],[-59.3811,-26.268],[-59.3961,-26.2738],[-59.3846,-26.2805],[-59.3863,-26.2971],[-59.4011,-26.2935],[-59.4025,-26.3009],[-59.3884,-26.3031],[-59.3792,-26.3121],[-59.3779,-26.3208],[-59.3637,-26.3281],[-59.3575,-26.338],[-59.3454,-26.328],[-59.3335,-26.3357],[-59.3143,-26.3189],[-59.3086,-26.3404],[-59.2976,-26.3358],[-59.2927,-26.3434],[-59.2777,-26.3498],[-59.2652,-26.3477],[-59.2504,-26.3391],[-59.242,-26.3427],[-59.2265,-26.3394],[-59.2019,-26.3266],[-59.1926,-26.3297],[-59.1846,-26.3063],[-59.1715,-26.3091],[-59.1676,-26.2986],[-59.1421,-26.3005],[-59.1366,-26.3058],[-59.1551,-26.315],[-59.1324,-26.3312],[-59.1176,-26.3249],[-59.1172,-26.3408],[-59.0914,-26.3501],[-59.0685,-26.3742],[-59.0429,-26.3653],[-59.0241,-26.3812],[-59.0062,-26.3754],[-58.9857,-26.38],[-58.9749,-26.3885],[-58.9745,-26.1858],[-58.926,-26.1853],[-58.9261,-25.9594],[-58.9259,-25.7786],[-58.6047,-25.7772],[-58.605,-25.5831],[-58.6051,-25.4707]]]},"properties":{"id":362,"departamento":"PIRANE","cabecera":"PIRANE","provincia":"FORMOSA"}},
{"type":"Feature","geometry":{"type":"Polygon","coordinates":[[[-59.0536,-25.174],[-58.8912,-25.052],[-58.8913,-24.9932],[-58.8917,-24.7672],[-58.8915,-24.7118],[-58.904,-24.7004],[-58.9388,-24.6824],[-58.9406,-24.6778],[-58.9661,-24.6684],[-58.9718,-24.6588],[-58.9837,-24.6566],[-58.9927,-24.6609],[-59.0022,-24.6576],[-59.0232,-24.6569],[-59.0357,-24.6425],[-59.0456,-24.642],[-59.0551,-24.6285],[-59.0779,-24.6183],[-59.0981,-24.6139],[-59.1132,-24.62],[-59.1292,-24.6127],[-59.1338,-24.6029],[-59.1517,-24.5972],[-59.1556,-24.5844],[-59.1716,-24.5782],[-59.1857,-24.5598],[-59.201,-24.5563],[-59.2404,-24.5423],[-59.2416,-24.5362],[-59.2563,-24.5165],[-59.2866,-24.5148],[-59.2954,-24.5103],[-59.2994,-24.5004],[-59.3136,-24.4973],[-59.3183,-24.4891],[-59.3383,-24.487],[-59.3506,-24.4782],[-59.3571,-24.451],[-59.3659,-24.4476],[-59.3752,-24.42],[-59.3939,-24.4124],[-59.4121,-24.4121],[-59.4231,-24.4048],[-59.4282,-24.3914],[-59.4416,-24.387],[-59.4577,-24.3699],[-59.4598,-24.3543],[-59.4715,-24.3466],[-59.4721,-24.3325],[-59.5366,-24.294],[-59.6244,-24.2433],[-59.7272,-24.183],[-59.8321,-24.1242],[-59.9509,-24.0563],[-60.039,-24.0079],[-60.0495,-24.0103],[-60.0733,-24.0076],[-60.0885,-24.0204],[-60.1025,-24.0168],[-60.105,-24.0233],[-60.1236,-24.0306],[-60.162,-24.0388],[-60.1833,-24.0413],[-60.2657,-24.0418],[-60.2977,-24.0376],[-60.3279,-24.0285],[-60.3368,-24.0189],[-60.363,-24.0184],[-60.521,-24.1767],[-60.6131,-24.2685],[-60.8242,-24.4792],[-60.8754,-24.5303],[-61.139,-24.793],[-61.1442,-24.7989],[-61.143,-24.809],[-61.1074,-24.8348],[-61.0943,-24.8341],[-61.0933,-24.8485],[-61.0738,-24.8564],[-61.0788,-24.8633],[-61.0721,-24.8752],[-61.0645,-24.8762],[-61.0471,-24.8902],[-61.0315,-24.8878],[-61.0309,-24.8994],[-61.0141,-24.9245],[-61,-24.9223],[-60.998,-24.934],[-60.9798,-24.9444],[-60.9725,-24.9419],[-60.9586,-24.955],[-60.9462,-24.9566],[-60.9367,-24.9665],[-60.9382,-24.9876],[-60.9252,-25.0053],[-60.9057,-25.0085],[-60.9007,-25.0192],[-60.8772,-25.0191],[-60.8763,-25.0344],[-60.8331,-25.0324],[-60.8316,-25.0514],[-60.8164,-25.0715],[-60.8028,-25.065],[-60.782,-25.0711],[-60.7676,-25.0715],[-60.7541,-25.0767],[-60.7657,-25.0873],[-60.7553,-25.1],[-60.7442,-25.0907],[-60.7356,-25.1004],[-60.7382,-25.1145],[-60.7176,-25.1248],[-60.7109,-25.1205],[-60.6943,-25.1235],[-60.6579,-25.111],[-60.6596,-25.1245],[-60.6708,-25.1478],[-60.6525,-25.1527],[-60.6646,-25.1597],[-60.6412,-25.1639],[-60.6261,-25.1771],[-60.6248,-25.1664],[-60.6117,-25.1604],[-60.6005,-25.1731],[-60.5921,-25.1687],[-60.5619,-25.1926],[-60.5511,-25.1934],[-60.5512,-25.1721],[-60.5469,-25.1671],[-60.5296,-25.1718],[-60.5172,-25.1842],[-60.4953,-25.2194],[-60.4835,-25.222],[-60.4876,-25.2317],[-60.475,-25.2373],[-60.4507,-25.2564],[-60.4195,-25.3179],[-60.4074,-25.3085],[-60.3968,-25.3313],[-60.384,-25.3239],[-60.3484,-25.3386],[-60.3554,-25.3501],[-60.353,-25.3628],[-60.3451,-25.3773],[-60.3345,-25.3791],[-60.3286,-25.3677],[-60.3199,-25.3778],[-60.3359,-25.3929],[-60.3221,-25.4017],[-60.3046,-25.4224],[-60.2899,-25.4262],[-60.2826,-25.4332],[-60.2802,-25.456],[-60.2748,-25.469],[-60.2584,-25.4631],[-60.2529,-25.4754],[-60.244,-25.4692],[-60.2283,-25.4801],[-60.2284,-25.4885],[-60.2363,-25.5015],[-60.2267,-25.5027],[-60.223,-25.5257],[-60.228,-25.5384],[-60.2399,-25.5525],[-60.2387,-25.5607],[-60.2223,-25.5649],[-60.2132,-25.5795],[-60.223,-25.5899],[-60.2199,-25.5998],[-60.199,-25.6007],[-60.197,-25.6095],[-60.1815,-25.6343],[-60.1892,-25.6481],[-60.1729,-25.6539],[-60.161,-25.6445],[-60.1424,-25.6419],[-60.121,-25.6575],[-60.0945,-25.6714],[-60.062,-25.6813],[-60.0447,-25.6826],[-60.045,-25.6942],[-60.0239,-25.6958],[-60.0189,-25.7137],[-60.0092,-25.7364],[-59.9825,-25.7207],[-59.9809,-25.7384],[-59.9861,-25.7485],[-59.9704,-25.7604],[-59.9643,-25.7735],[-59.9463,-25.7636],[-59.9306,-25.766],[-59.919,-25.7775],[-59.9255,-25.7908],[-59.9188,-25.7933],[-59.9077,-25.7846],[-59.904,-25.7988],[-59.895,-25.7961],[-59.8843,-25.805],[-59.8696,-25.8354],[-59.8713,-25.8458],[-59.8577,-25.8461],[-59.8437,-25.856],[-59.8361,-25.876],[-59.8257,-25.8719],[-59.8167,-25.8811],[-59.8246,-25.8916],[-59.7948,-25.8967],[-59.7883,-25.9097],[-59.7786,-25.9158],[-59.7555,-25.9189],[-59.7517,-25.929],[-59.7579,-25.938],[-59.7514,-25.9632],[-59.7303,-25.9792],[-59.7213,-25.991],[-59.7251,-25.9998],[-59.7074,-25.9986],[-59.6961,-26.0065],[-59.6822,-26.0004],[-59.6723,-26.0028],[-59.6752,-26.0154],[-59.6786,-26.0541],[-59.6679,-26.0773],[-59.6825,-26.0895],[-59.6693,-26.1125],[-59.655,-26.1157],[-59.6571,-26.1347],[-59.6328,-26.1364],[-59.6366,-26.1199],[-59.6367,-26.0102],[-59.6363,-25.895],[-59.6351,-25.6075],[-59.2722,-25.3376],[-59.0536,-25.174]]]},"properties":{"id":363,"departamento":"PATIÑO","cabecera":"COMANDANTE FONTANA","provincia":"FORMOSA"}},
{"type":"Feature","geometry":{"type":"Polygon","coordinates":[[[-61.8439,-23.4929],[-61.8365,-23.866],[-61.8338,-24.0068],[-61.8337,-24.1631],[-61.8348,-24.3194],[-61.8135,-24.3136],[-61.8092,-24.322],[-61.7939,-24.3343],[-61.7855,-24.3305],[-61.7853,-24.3167],[-61.7717,-24.3119],[-61.7619,-24.3146],[-61.7437,-24.3394],[-61.7199,-24.336],[-61.7296,-24.3464],[-61.7325,-24.3585],[-61.7171,-24.3635],[-61.711,-24.3701],[-61.7125,-24.3819],[-61.7038,-24.3939],[-61.6976,-24.4134],[-61.6759,-24.4229],[-61.6598,-24.4228],[-61.6552,-24.4327],[-61.6397,-24.4346],[-61.6311,-24.4239],[-61.61,-24.4237],[-61.6075,-24.4483],[-61.5871,-24.4391],[-61.582,-24.4537],[-61.5964,-24.4793],[-61.5763,-24.4952],[-61.5449,-24.5095],[-61.525,-24.5132],[-61.521,-24.5239],[-61.5262,-24.5337],[-61.5176,-24.5486],[-61.5047,-24.5566],[-61.4865,-24.5748],[-61.4674,-24.6069],[-61.4557,-24.6117],[-61.4443,-24.6067],[-61.4359,-24.6163],[-61.4275,-24.6181],[-61.4014,-24.6126],[-61.3812,-24.6137],[-61.3829,-24.6271],[-61.3731,-24.6401],[-61.3694,-24.6233],[-61.3569,-24.6331],[-61.3418,-24.6395],[-61.3,-24.6267],[-61.2905,-24.6261],[-61.2761,-24.6392],[-61.2689,-24.6229],[-61.2557,-24.6241],[-61.251,-24.6438],[-61.2434,-24.6493],[-61.232,-24.6397],[-61.2193,-24.6528],[-61.2029,-24.6554],[-61.1982,-24.6643],[-61.2107,-24.6753],[-61.2044,-24.6846],[-61.2084,-24.6967],[-61.198,-24.7037],[-61.1836,-24.7211],[-61.1735,-24.7107],[-61.1574,-24.7097],[-61.1738,-24.7336],[-61.1561,-24.7402],[-61.1483,-24.7569],[-61.1596,-24.7645],[-61.1573,-24.7817],[-61.1457,-24.791],[-61.1442,-24.7989],[-61.139,-24.793],[-60.8754,-24.5303],[-60.8242,-24.4792],[-60.6131,-24.2685],[-60.521,-24.1767],[-60.363,-24.0184],[-60.38,-24.0159],[-60.3837,-23.9973],[-60.3902,-23.9911],[-60.4126,-23.9822],[-60.4419,-23.9588],[-60.4653,-23.9532],[-60.4775,-23.9473],[-60.4864,-23.9481],[-60.5082,-23.9674],[-60.5497,-23.9628],[-60.5563,-23.952],[-60.5774,-23.9493],[-60.5892,-23.9361],[-60.5943,-23.913],[-60.6117,-23.9004],[-60.6261,-23.9013],[-60.6327,-23.9063],[-60.6545,-23.9031],[-60.6574,-23.8972],[-60.6842,-23.892],[-60.6905,-23.8997],[-60.7148,-23.884],[-60.7334,-23.8805],[-60.7406,-23.873],[-60.7745,-23.8759],[-60.7907,-23.8652],[-60.7952,-23.878],[-60.811,-23.8699],[-60.8314,-23.8711],[-60.8465,-23.8669],[-60.8552,-23.8466],[-60.8663,-23.8472],[-60.9052,-23.823],[-60.9079,-23.8119],[-60.9291,-23.7992],[-60.9407,-23.7973],[-60.9441,-23.8076],[-60.982,-23.805],[-60.9936,-23.7877],[-61.0185,-23.7684],[-61.0146,-23.7536],[-61.0374,-23.7376],[-61.0407,-23.7246],[-61.0598,-23.7012],[-61.0805,-23.6872],[-61.0875,-23.6735],[-61.0856,-23.6652],[-61.0992,-23.6612],[-61.1007,-23.6542],[-61.093,-23.6335],[-61.102,-23.6252],[-61.0902,-23.6155],[-61.1023,-23.601],[-61.1287,-23.5881],[-61.1348,-23.5775],[-61.1463,-23.5791],[-61.1685,-23.5564],[-61.185,-23.5436],[-61.1958,-23.5431],[-61.2156,-23.5477],[-61.2259,-23.5458],[-61.2471,-23.536],[-61.2517,-23.528],[-61.2736,-23.5059],[-61.2897,-23.4977],[-61.2848,-23.4854],[-61.3072,-23.4827],[-61.3183,-23.4668],[-61.3409,-23.4637],[-61.3497,-23.4582],[-61.3527,-23.4475],[-61.3774,-23.4518],[-61.4,-23.444],[-61.4207,-23.4435],[-61.4264,-23.4336],[-61.4415,-23.4253],[-61.4535,-23.4148],[-61.4582,-23.4204],[-61.479,-23.4147],[-61.494,-23.4209],[-61.5068,-23.4055],[-61.5112,-23.3941],[-61.5195,-23.3872],[-61.5256,-23.3659],[-61.5172,-23.3504],[-61.5286,-23.3461],[-61.552,-23.3497],[-61.5655,-23.3421],[-61.5688,-23.3281],[-61.5766,-23.3159],[-61.5746,-23.306],[-61.5878,-23.3071],[-61.6106,-23.2847],[-61.6387,-23.2792],[-61.6719,-23.2871],[-61.687,-23.2659],[-61.7002,-23.2592],[-61.7088,-23.2465],[-61.7265,-23.2416],[-61.7367,-23.2323],[-61.7393,-23.2036],[-61.7464,-23.1794],[-61.7667,-23.1653],[-61.7938,-23.1662],[-61.7974,-23.1584],[-61.8124,-23.153],[-61.8264,-23.1292],[-61.8489,-23.1036],[-61.8516,-23.0971],[-61.8514,-23.1145],[-61.8499,-23.1921],[-61.8439,-23.4929]]]},"properties":{"id":364,"departamento":"BERMEJO","cabecera":"LAGUNA YEMA","provincia":"FORMOSA"}},
{"type":"Feature","geometry":{"type":"Polygon","coordinates":[[[-58.3809,-24.9552],[-58.3932,-24.9509],[-58.3976,-24.939],[-58.4137,-24.9197],[-58.4303,-24.9209],[-58.4332,-24.9135],[-58.4278,-24.8986],[-58.4436,-24.8775],[-58.4719,-24.8617],[-58.4958,-24.8583],[-58.504,-24.848],[-58.5266,-24.8409],[-58.5374,-24.8475],[-58.5589,-24.8257],[-58.565,-24.8276],[-58.5816,-24.8184],[-58.6033,-24.8208],[-58.6173,-24.8265],[-58.6553,-24.8198],[-58.6629,-24.8257],[-58.6758,-24.8261],[-58.6873,-24.8083],[-58.7073,-24.8085],[-58.7145,-24.7865],[-58.7281,-24.7703],[-58.7402,-24.7763],[-58.7676,-24.771],[-58.7723,-24.7724],[-58.8052,-24.7692],[-58.819,-24.7596],[-58.829,-24.7466],[-58.8545,-24.7293],[-58.8694,-24.7255],[-58.8767,-24.7304],[-58.8915,-24.7118],[-58.8917,-24.7672],[-58.8913,-24.9932],[-58.8912,-25.052],[-59.0536,-25.174],[-58.8895,-25.2829],[-58.6051,-25.4707],[-58.6052,-25.3943],[-58.4874,-25.3933],[-58.3784,-25.393],[-58.379,-25.2807],[-58.3802,-25.077],[-58.3809,-24.9552]]]},"properties":{"id":360,"departamento":"PILAGAS","cabecera":"EL ESPINILLO","provincia":"FORMOSA"}},
{"type":"Feature","geometry":{"type":"Polygon","coordinates":[[[-58.926,-26.1853],[-58.9745,-26.1858],[-58.9749,-26.3885],[-58.9591,-26.3972],[-58.9393,-26.4331],[-58.9295,-26.4328],[-58.9253,-26.4439],[-58.9163,-26.4506],[-58.9098,-26.4626],[-58.8947,-26.4691],[-58.8658,-26.4751],[-58.8583,-26.4941],[-58.8568,-26.5089],[-58.8456,-26.5192],[-58.8233,-26.525],[-58.797,-26.519],[-58.7961,-26.535],[-58.7706,-26.5387],[-58.7607,-26.5689],[-58.7526,-26.5836],[-58.7515,-26.5967],[-58.7408,-26.6045],[-58.7201,-26.6021],[-58.6955,-26.594],[-58.682,-26.6174],[-58.6843,-26.6262],[-58.6745,-26.6421],[-58.6596,-26.6504],[-58.6532,-26.6594],[-58.6421,-26.6556],[-58.6254,-26.6643],[-58.611,-26.6815],[-58.5939,-26.6883],[-58.5798,-26.6859],[-58.5705,-26.7036],[-58.5691,-26.7277],[-58.558,-26.729],[-58.5497,-26.7488],[-58.5343,-26.7382],[-58.5329,-26.7579],[-58.5213,-26.757],[-58.5073,-26.7731],[-58.4975,-26.7893],[-58.4873,-26.7843],[-58.4856,-26.806],[-58.4737,-26.8003],[-58.4789,-26.8229],[-58.4735,-26.8253],[-58.4589,-26.8174],[-58.4451,-26.8184],[-58.4463,-26.8319],[-58.4278,-26.8248],[-58.4223,-26.8353],[-58.408,-26.8364],[-58.4007,-26.8312],[-58.393,-26.8424],[-58.3966,-26.8605],[-58.3794,-26.8718],[-58.3646,-26.8659],[-58.338,-26.874],[-58.3277,-26.8717],[-58.3184,-26.857],[-58.319,-26.8463],[-58.3359,-26.8229],[-58.3306,-26.8089],[-58.3129,-26.8105],[-58.2854,-26.798],[-58.2842,-26.7865],[-58.2962,-26.7684],[-58.2906,-26.758],[-58.2734,-26.7628],[-58.2572,-26.7634],[-58.2452,-26.7481],[-58.2563,-26.7187],[-58.2554,-26.6746],[-58.2632,-26.6551],[-58.2544,-26.6452],[-58.2422,-26.6462],[-58.222,-26.6563],[-58.2108,-26.6576],[-58.1927,-26.6527],[-58.1919,-26.6431],[-58.206,-26.6302],[-58.211,-26.6204],[-58.1983,-26.6088],[-58.1934,-26.5943],[-58.1983,-26.5678],[-58.2051,-26.5571],[-58.2237,-26.5399],[-58.2226,-26.5292],[-58.2067,-26.5034],[-58.2083,-26.4959],[-58.231,-26.4818],[-58.2325,-26.4703],[-58.2257,-26.4661],[-58.189,-26.4655],[-58.1813,-26.4544],[-58.1998,-26.4406],[-58.2217,-26.4154],[-58.2223,-26.3999],[-58.2146,-26.3851],[-58.2674,-26.3442],[-58.3329,-26.3467],[-58.3384,-26.3485],[-58.4843,-26.3439],[-58.5041,-26.3434],[-58.5054,-26.1736],[-58.569,-26.1735],[-58.5687,-26.1592],[-58.7567,-26.1573],[-58.7577,-26.1836],[-58.926,-26.1853]]]},"properties":{"id":361,"departamento":"LAISHI","cabecera":"SAN FRANCISCO DE LAISHI","provincia":"FORMOSA"}},
{"type":"Feature","geometry":{"type":"Polygon","coordinates":[[[-62.342,-23.4954],[-62.3419,-23.846],[-62.3419,-24.1079],[-62.3339,-24.0867],[-62.3194,-24.0886],[-62.3115,-24.1013],[-62.3153,-24.1186],[-62.2799,-24.1279],[-62.2739,-24.1343],[-62.2573,-24.1393],[-62.2178,-24.145],[-62.2139,-24.1507],[-62.1768,-24.1665],[-62.1656,-24.1735],[-62.1677,-24.1811],[-62.1806,-24.1893],[-62.1749,-24.1973],[-62.1627,-24.1971],[-62.1383,-24.1875],[-62.1376,-24.2174],[-62.0883,-24.202],[-62.0764,-24.2013],[-62.077,-24.212],[-62.0858,-24.2253],[-62.08,-24.2286],[-62.0599,-24.2132],[-62.0538,-24.2153],[-62.0421,-24.2372],[-62.0076,-24.233],[-61.9908,-24.2458],[-61.9827,-24.243],[-61.9868,-24.2294],[-61.9648,-24.231],[-61.9575,-24.2344],[-61.9522,-24.2562],[-61.9339,-24.273],[-61.9078,-24.2594],[-61.904,-24.2778],[-61.9203,-24.2839],[-61.9174,-24.2982],[-61.9051,-24.3048],[-61.8888,-24.2742],[-61.8794,-24.2905],[-61.8793,-24.3073],[-61.8661,-24.3101],[-61.8462,-24.3049],[-61.848,-24.322],[-61.8348,-24.3194],[-61.8337,-24.1631],[-61.8338,-24.0068],[-61.8365,-23.866],[-61.8439,-23.4929],[-62.2832,-23.4955],[-62.342,-23.4954]]]},"properties":{"id":426,"departamento":"MATACOS","cabecera":"INGENIERO JUAREZ","provincia":"FORMOSA"}}
]}