{"type":"FeatureCollection", "features": [
{"type":"Feature","geometry":{"type":"Polygon","coordinates":[[[-68.6879,-32.8293],[-68.7117,-32.8365],[-68.7189,-32.8413],[-68.7408,-32.8454],[-68.7584,-32.8542],[-68.7813,-32.856],[-68.7964,-32.8603],[-68.8195,-32.8721],[-68.8246,-32.8744],[-68.8366,-32.9026],[-68.8367,-32.9216],[-68.8247,-32.9201],[-68.8027,-32.9254],[-68.7411,-32.9398],[-68.7209,-32.9466],[-68.7128,-32.9519],[-68.705,-32.9686],[-68.6905,-32.9482],[-68.6747,-32.9354],[-68.6722,-32.9275],[-68.6604,-32.9138],[-68.6636,-32.8943],[-68.6487,-32.8726],[-68.6502,-32.8566],[-68.6503,-32.8399],[-68.6617,-32.8329],[-68.6879,-32.8293]]]},"properties":{"id":221,"departamento":"GUAYMALLEN","cabecera":"VILLA NUEVA","provincia":"MENDOZA"}},
{"type":"Feature","geometry":{"type":"Polygon","coordinates":[[[-67.9577,-32.8432],[-68.1222,-32.8368],[-68.1246,-32.9983],[-68.1853,-32.9985],[-68.2831,-33.0545],[-68.2869,-33.1869],[-68.2883,-33.2306],[-68.2893,-33.3318],[-68.2865,-33.351],[-68.2805,-33.3605],[-68.2903,-33.4614],[-68.2924,-33.9991],[-68.2922,-34.018],[-68.3066,-34.0207],[-68.326,-34.0157],[-68.3445,-34.0206],[-68.3555,-34.0199],[-68.3677,-34.026],[-68.3793,-34.0218],[-68.4181,-34.0359],[-68.4371,-34.0393],[-68.446,-34.0374],[-68.4551,-34.0397],[-68.4526,-34.2108],[-68.4433,-34.2169],[-68.4254,-34.2209],[-68.4076,-34.2158],[-68.3989,-34.2088],[-68.395,-34.1982],[-68.3707,-34.1946],[-68.3483,-34.1788],[-68.3358,-34.1802],[-68.3195,-34.1738],[-68.2983,-34.171],[-68.2764,-34.1745],[-68.2558,-34.1746],[-68.2254,-34.187],[-68.2014,-34.2052],[-68.1949,-34.2015],[-68.172,-34.2092],[-68.1638,-34.2063],[-68.1346,-34.206],[-68.126,-34.2103],[-68.0938,-34.2102],[-68.089,-34.2048],[-68.0785,-34.2078],[-68.0719,-34.2039],[-68.0568,-34.207],[-68.0419,-34.2051],[-68.0239,-34.198],[-68.0068,-34.2013],[-67.6468,-34.1993],[-67.5636,-34.1],[-67.5003,-34.0995],[-67.4997,-33.7677],[-67.7041,-33.7713],[-67.7086,-33.449],[-67.7171,-33.4443],[-67.6679,-33.3462],[-67.6552,-33.3461],[-67.5808,-33.0472],[-67.7638,-33.0135],[-67.9575,-32.9935],[-67.9577,-32.8432]]]},"properties":{"id":222,"departamento":"SANTA ROSA","cabecera":"SANTA ROSA","provincia":"MENDOZA"}},
{"type":"Feature","geometry":{"type":"Polygon","coordinates":[[[-68.8027,-32.9254],[-68.8075,-32.9346],[-68.8287,-32.9584],[-68.8323,-32.967],[-68.815,-32.9709],[-68.8249,-32.9883],[-68.8317,-33.0073],[-68.8412,-33.0244],[-68.8542,-33.0226],[-68.8642,-33.0471],[-68.8513,-33.0513],[-68.8452,-33.0587],[-68.8325,-33.0629],[-68.8097,-33.0623],[-68.7861,-33.0538],[-68.7789,-33.0597],[-68.7603,-33.0664],[-68.7487,-33.0746],[-68.7529,-33.0815],[-68.7371,-33.089],[-68.7127,-33.1086],[-68.7001,-33.1142],[-68.6839,-33.1159],[-68.658,-33.1086],[-68.6336,-33.0984],[-68.6188,-33.0964],[-68.5984,-33.0899],[-68.5876,-33.0751],[-68.5844,-33.0459],[-68.5759,-33.0301],[-68.5652,-33.028],[-68.5602,-33.01],[-68.5413,-32.9926],[-68.5414,-32.986],[-68.5277,-32.9743],[-68.5212,-32.9728],[-68.5066,-32.958],[-68.4935,-32.9559],[-68.4933,-32.9437],[-68.4835,-32.9356],[-68.4651,-32.9117],[-68.4641,-32.8791],[-68.4552,-32.8675],[-68.6034,-32.8371],[-68.6149,-32.8433],[-68.6502,-32.8566],[-68.6487,-32.8726],[-68.6636,-32.8943],[-68.6604,-32.9138],[-68.6722,-32.9275],[-68.6747,-32.9354],[-68.6905,-32.9482],[-68.705,-32.9686],[-68.7128,-32.9519],[-68.7209,-32.9466],[-68.7411,-32.9398],[-68.8027,-32.9254]]]},"properties":{"id":223,"departamento":"MAIPU","cabecera":"MAIPU","provincia":"MENDOZA"}},
{"type":"Feature","geometry":{"type":"Polygon","coordinates":[[[-68.8195,-32.8721],[-68.8316,-32.8604],[-68.8576,-32.8616],[-68.9573,-32.8616],[-68.9572,-32.9015],[-68.8997,-32.901],[-68.8853,-32.8977],[-68.8366,-32.9026],[-68.8246,-32.8744],[-68.8195,-32.8721]]]},"properties":{"id":224,"departamento":"CAPITAL","cabecera":"MENDOZA","provincia":"MENDOZA"}},
{"type":"Feature","geometry":{"type":"Polygon","coordinates":[[[-68.8366,-32.9026],[-68.8853,-32.8977],[-68.8997,-32.901],[-68.9572,-32.9015],[-68.9572,-32.9584],[-68.9016,-32.9552],[-68.8858,-32.959],[-68.8641,-32.9588],[-68.8522,-32.9567],[-68.8287,-32.9584],[-68.8075,-32.9346],[-68.8027,-32.9254],[-68.8247,-32.9201],[-68.8367,-32.9216],[-68.8366,-32.9026]]]},"properties":{"id":225,"departamento":"GODOY CRUZ","cabecera":"GODOY CRUZ","provincia":"MENDOZA"}},
{"type":"Feature","geometry":{"type":"Polygon","coordinates":[[[-68.2869,-33.1869],[-68.3253,-33.1631],[-68.3612,-33.1395],[-68.4236,-33.1085],[-68.4478,-33.0976],[-68.4903,-33.0866],[-68.5078,-33.1068],[-68.5139,-33.1048],[-68.5292,-33.0907],[-68.5491,-33.0841],[-68.5652,-33.0711],[-68.577,-33.084],[-68.5811,-33.0731],[-68.5776,-33.0527],[-68.5708,-33.0443],[-68.5717,-33.0369],[-68.5652,-33.028],[-68.5759,-33.0301],[-68.5844,-33.0459],[-68.5876,-33.0751],[-68.5984,-33.0899],[-68.6188,-33.0964],[-68.6298,-33.1309],[-68.6441,-33.1446],[-68.6445,-33.1535],[-68.6552,-33.1778],[-68.6557,-33.1922],[-68.6643,-33.2135],[-68.6758,-33.2274],[-68.6846,-33.2473],[-68.6715,-33.2345],[-68.6639,-33.2186],[-68.6383,-33.202],[-68.6433,-33.194],[-68.6284,-33.1836],[-68.6071,-33.1735],[-68.5964,-33.1734],[-68.5758,-33.1676],[-68.5514,-33.1527],[-68.5364,-33.1532],[-68.4807,-33.1489],[-68.4555,-33.1594],[-68.4398,-33.1633],[-68.426,-33.1749],[-68.4134,-33.1806],[-68.3989,-33.1943],[-68.3786,-33.2071],[-68.3411,-33.2161],[-68.3285,-33.2234],[-68.2883,-33.2306],[-68.2869,-33.1869]]]},"properties":{"id":226,"departamento":"JUNIN","cabecera":"JUNIN","provincia":"MENDOZA"}},
{"type":"Feature","geometry":{"type":"Polygon","coordinates":[[[-68.2883,-33.2306],[-68.3285,-33.2234],[-68.3411,-33.2161],[-68.3786,-33.2071],[-68.3989,-33.1943],[-68.4134,-33.1806],[-68.426,-33.1749],[-68.4398,-33.1633],[-68.4555,-33.1594],[-68.4807,-33.1489],[-68.5364,-33.1532],[-68.5514,-33.1527],[-68.5758,-33.1676],[-68.5964,-33.1734],[-68.6071,-33.1735],[-68.6284,-33.1836],[-68.6433,-33.194],[-68.6383,-33.202],[-68.6639,-33.2186],[-68.6715,-33.2345],[-68.6846,-33.2473],[-68.6902,-33.2584],[-68.7015,-33.2632],[-68.7109,-33.2759],[-68.7222,-33.2966],[-68.7237,-33.3108],[-68.7192,-33.3278],[-68.7257,-33.3389],[-68.7568,-33.3601],[-68.7587,-33.3627],[-68.7704,-33.3718],[-68.7758,-33.3846],[-68.7866,-33.3922],[-68.7978,-33.3904],[-68.8188,-33.3971],[-68.8523,-33.4104],[-68.8745,-33.4299],[-68.8756,-33.4376],[-68.8892,-33.4532],[-68.9063,-33.4546],[-68.9272,-33.466],[-68.9494,-33.4739],[-68.9905,-33.4996],[-68.9912,-33.5176],[-68.9974,-33.5393],[-69.0058,-33.5513],[-69.0055,-33.5646],[-69.0003,-33.5757],[-68.571,-33.7248],[-68.5935,-33.4863],[-68.2903,-33.4614],[-68.2805,-33.3605],[-68.2865,-33.351],[-68.2893,-33.3318],[-68.2883,-33.2306]]]},"properties":{"id":227,"departamento":"RIVADAVIA","cabecera":"RIVADAVIA","provincia":"MENDOZA"}},
{"type":"Feature","geometry":{"type":"Polygon","coordinates":[[[-66.7645,-34.5375],[-66.7738,-34.5213],[-66.7765,-34.5051],[-66.7882,-34.4975],[-66.792,-34.4898],[-66.8036,-34.4945],[-66.8142,-34.4883],[-66.8352,-34.4922],[-66.8444,-34.4905],[-66.8631,-34.5077],[-66.8703,-34.5111],[-66.8899,-34.5042],[-66.8986,-34.5152],[-66.9124,-34.5125],[-66.9224,-34.5149],[-66.9422,-34.5351],[-66.9852,-34.5452],[-67.0062,-34.5481],[-67.0171,-34.5566],[-67.0272,-34.554],[-67.0488,-34.5574],[-67.0645,-34.5575],[-67.0743,-34.5722],[-67.0875,-34.5714],[-67.1028,-34.5619],[-67.1452,-34.5657],[-67.1501,-34.5581],[-67.1794,-34.5593],[-67.189,-34.5649],[-67.2071,-34.5628],[-67.2114,-34.5547],[-67.2265,-34.5471],[-67.2372,-34.5508],[-67.2475,-34.542],[-67.2744,-34.5397],[-67.283,-34.5359],[-67.3134,-34.5359],[-67.3289,-34.5409],[-67.334,-34.5476],[-67.3644,-34.5465],[-67.3766,-34.5386],[-67.3889,-34.5394],[-67.4005,-34.5478],[-67.4137,-34.547],[-67.4259,-34.5571],[-67.44,-34.5484],[-67.4483,-34.5505],[-67.4942,-34.552],[-67.4991,-34.5464],[-67.5273,-34.5406],[-67.5377,-34.5347],[-67.5493,-34.5373],[-67.559,-34.531],[-67.5703,-34.5372],[-67.591,-34.5326],[-67.6005,-34.5348],[-67.6177,-34.5281],[-67.6314,-34.527],[-67.6383,-34.5324],[-67.6395,-34.5422],[-67.6333,-34.5596],[-67.6364,-34.5708],[-67.6481,-34.5855],[-67.6642,-34.6205],[-67.6658,-34.6526],[-67.6721,-34.6756],[-67.6707,-34.6856],[-67.6785,-34.7056],[-67.6844,-34.7378],[-67.68,-34.7612],[-67.6874,-34.8059],[-67.7088,-34.9086],[-67.7202,-34.9591],[-67.7215,-34.9751],[-67.7093,-34.9795],[-67.7091,-34.9916],[-67.7134,-34.9982],[-67.7067,-35.0052],[-67.6953,-35.0067],[-67.698,-35.0267],[-67.7055,-35.0494],[-67.7109,-35.0543],[-67.7001,-35.0723],[-67.6987,-35.0823],[-67.711,-35.09],[-67.7176,-35.0998],[-67.7077,-35.1032],[-67.7128,-35.1278],[-67.7294,-35.1496],[-67.7221,-35.1529],[-67.7129,-35.1741],[-67.7256,-35.1807],[-67.7314,-35.1924],[-67.7299,-35.2065],[-67.7129,-35.2063],[-67.7111,-35.2269],[-67.6993,-35.2478],[-67.6903,-35.2466],[-67.6785,-35.2527],[-67.68,-35.2696],[-67.6698,-35.2747],[-67.6656,-35.2855],[-67.6692,-35.2963],[-67.6592,-35.299],[-67.658,-35.3074],[-67.6478,-35.3121],[-67.6452,-35.3264],[-67.6585,-35.3377],[-67.6486,-35.3559],[-67.6511,-35.3702],[-67.6469,-35.3896],[-67.6334,-35.3916],[-67.6225,-35.4161],[-67.6139,-35.4188],[-67.6144,-35.4276],[-67.6015,-35.4369],[-67.5994,-35.4476],[-67.5919,-35.4578],[-67.574,-35.4595],[-67.5679,-35.4747],[-67.5478,-35.4837],[-67.5429,-35.4944],[-67.5295,-35.5021],[-67.5061,-35.5494],[-67.4943,-35.5487],[-67.4785,-35.5635],[-67.4825,-35.5692],[-67.4755,-35.5778],[-67.4779,-35.5895],[-67.4716,-35.5934],[-67.4542,-35.6145],[-67.4386,-35.6236],[-67.428,-35.6341],[-67.4341,-35.6395],[-67.4203,-35.6536],[-67.4133,-35.6536],[-67.4085,-35.6715],[-67.4031,-35.6801],[-67.4163,-35.6998],[-67.4059,-35.7265],[-67.3875,-35.746],[-67.3798,-35.7593],[-67.3688,-35.7668],[-67.3644,-35.7755],[-67.3442,-35.7885],[-67.3365,-35.797],[-67.3368,-35.7993],[-67.3355,-35.8063],[-67.3201,-35.8158],[-67.3017,-35.8306],[-67.2874,-35.8295],[-67.2831,-35.8477],[-67.2704,-35.8579],[-67.2705,-35.8668],[-67.2597,-35.8758],[-67.253,-35.8874],[-67.2529,-35.8968],[-67.2339,-35.9125],[-67.2372,-35.9235],[-67.228,-35.9317],[-67.2271,-35.9395],[-67.2171,-35.9524],[-67.2038,-35.9797],[-67.193,-35.9873],[-67.1949,-35.9995],[-67.1202,-35.9995],[-66.6379,-35.9995],[-66.6253,-35.9801],[-66.6194,-35.9643],[-66.6224,-35.954],[-66.6182,-35.9478],[-66.6284,-35.9375],[-66.6277,-35.9137],[-66.6191,-35.9026],[-66.6272,-35.8971],[-66.6208,-35.8834],[-66.6222,-35.8484],[-66.6045,-35.8277],[-66.5903,-35.7947],[-66.5903,-35.7851],[-66.5817,-35.7699],[-66.5839,-35.757],[-66.5799,-35.7203],[-66.5806,-35.7038],[-66.57,-35.694],[-66.5584,-35.6726],[-66.5614,-35.663],[-66.5591,-35.6524],[-66.5482,-35.6373],[-66.5627,-35.6245],[-66.5638,-35.6092],[-66.5696,-35.6003],[-66.5706,-35.5821],[-66.5632,-35.5734],[-66.5398,-35.563],[-66.533,-35.5435],[-66.5258,-35.5406],[-66.5276,-35.5177],[-66.5228,-35.5074],[-66.5249,-35.4903],[-66.5174,-35.4701],[-66.5254,-35.4607],[-66.5226,-35.4512],[-66.5296,-35.4467],[-66.5228,-35.4288],[-66.5242,-35.4159],[-66.5084,-35.3964],[-66.5146,-35.389],[-66.5067,-35.3756],[-66.5064,-35.3536],[-66.4985,-35.3431],[-66.5002,-35.3314],[-66.4957,-35.3099],[-66.5083,-35.302],[-66.518,-35.2868],[-66.5158,-35.2716],[-66.5025,-35.2538],[-66.4867,-35.2392],[-66.49,-35.2292],[-66.4879,-35.2183],[-66.4984,-35.1923],[-66.4927,-35.1836],[-66.4971,-35.1734],[-66.4942,-35.1568],[-66.4868,-35.1535],[-66.4786,-35.1404],[-66.487,-35.1222],[-66.4987,-35.1065],[-66.4891,-35.0948],[-66.5049,-35.093],[-66.5057,-35.0833],[-66.5161,-35.0777],[-66.5125,-35.0714],[-66.5214,-35.064],[-66.5163,-35.0581],[-66.5269,-35.0495],[-66.5204,-35.0425],[-66.5256,-35.0289],[-66.5224,-35.0218],[-66.5393,-35.011],[-66.5363,-34.9824],[-66.5464,-34.968],[-66.5338,-34.96],[-66.5259,-34.9509],[-66.526,-34.9428],[-66.5376,-34.9268],[-66.54,-34.9169],[-66.5527,-34.9172],[-66.5553,-34.911],[-66.5545,-34.8908],[-66.5455,-34.8832],[-66.5514,-34.8713],[-66.5645,-34.8278],[-66.6033,-34.8009],[-66.5958,-34.7898],[-66.6086,-34.7738],[-66.622,-34.7672],[-66.6408,-34.7651],[-66.6516,-34.7573],[-66.6527,-34.7481],[-66.6411,-34.7377],[-66.6391,-34.7226],[-66.6454,-34.713],[-66.6552,-34.7089],[-66.6822,-34.6901],[-66.6907,-34.6913],[-66.6919,-34.6732],[-66.6987,-34.653],[-66.7062,-34.6394],[-66.7041,-34.6233],[-66.7262,-34.6111],[-66.7333,-34.6008],[-66.729,-34.5869],[-66.7372,-34.5786],[-66.7586,-34.5663],[-66.7578,-34.558],[-66.7661,-34.551],[-66.7645,-34.5375]]]},"properties":{"id":228,"departamento":"GENERAL ALVEAR","cabecera":"GENERAL ALVEAR","provincia":"MENDOZA"}},
{"type":"Feature","geometry":{"type":"Polygon","coordinates":[[[-67.9577,-32.8432],[-67.9579,-32.7256],[-68.3282,-32.7208],[-68.3391,-32.7354],[-68.3415,-32.7458],[-68.3609,-32.7584],[-68.3653,-32.7656],[-68.3763,-32.77],[-68.3832,-32.7773],[-68.3947,-32.7814],[-68.4031,-32.7889],[-68.4124,-32.7883],[-68.4272,-32.7995],[-68.4436,-32.8006],[-68.442,-32.8115],[-68.4509,-32.8124],[-68.4609,-32.8231],[-68.4589,-32.831],[-68.4658,-32.84],[-68.4649,-32.8553],[-68.4552,-32.8675],[-68.4641,-32.8791],[-68.4651,-32.9117],[-68.4835,-32.9356],[-68.4933,-32.9437],[-68.4935,-32.9559],[-68.5066,-32.958],[-68.5212,-32.9728],[-68.5277,-32.9743],[-68.5414,-32.986],[-68.5413,-32.9926],[-68.5602,-33.01],[-68.5652,-33.028],[-68.5717,-33.0369],[-68.5708,-33.0443],[-68.5776,-33.0527],[-68.5811,-33.0731],[-68.577,-33.084],[-68.5652,-33.0711],[-68.5491,-33.0841],[-68.5292,-33.0907],[-68.5139,-33.1048],[-68.5078,-33.1068],[-68.4903,-33.0866],[-68.4478,-33.0976],[-68.4236,-33.1085],[-68.3612,-33.1395],[-68.3253,-33.1631],[-68.2869,-33.1869],[-68.2831,-33.0545],[-68.1853,-32.9985],[-68.1246,-32.9983],[-68.1222,-32.8368],[-67.9577,-32.8432]]]},"properties":{"id":220,"departamento":"SAN MARTIN","cabecera":"SAN MARTIN","provincia":"MENDOZA"}},
{"type":"Feature","geometry":{"type":"Polygon","coordinates":[[[-67.5003,-34.0995],[-67.1506,-34.1087],[-67.1543,-34.294],[-66.8102,-34.2957],[-66.797,-34.3005],[-66.7829,-34.3025],[-66.7766,-34.2981],[-66.7865,-34.2694],[-66.8015,-34.2586],[-66.7884,-34.2529],[-66.7828,-34.2312],[-66.7622,-34.2281],[-66.7524,-34.2348],[-66.7454,-34.2308],[-66.7458,-34.2213],[-66.7257,-34.2219],[-66.7197,-34.2099],[-66.7272,-34.2025],[-66.7195,-34.1905],[-66.7303,-34.1833],[-66.7194,-34.1677],[-66.7124,-34.1523],[-66.7151,-34.146],[-66.7264,-34.1463],[-66.7328,-34.1399],[-66.7227,-34.1318],[-66.7251,-34.1218],[-66.7127,-34.1012],[-66.7117,-34.0811],[-66.7176,-34.0717],[-66.713,-34.0662],[-66.7132,-34.0531],[-66.6997,-34.0468],[-66.7012,-34.0342],[-66.7075,-34.023],[-66.6913,-34.0114],[-66.687,-34.0023],[-66.6636,-33.9859],[-66.6721,-33.9707],[-66.6664,-33.961],[-66.6896,-33.9373],[-66.7097,-33.9368],[-66.7284,-33.9281],[-66.728,-33.9221],[-66.7365,-33.9113],[-66.75,-33.9147],[-66.7652,-33.8958],[-66.7848,-33.8876],[-66.7927,-33.8807],[-66.8006,-33.8626],[-66.8108,-33.8628],[-66.8395,-33.8476],[-66.8539,-33.8442],[-66.8743,-33.8315],[-66.8836,-33.8033],[-66.8808,-33.7876],[-66.8844,-33.7679],[-66.9252,-33.7443],[-66.9491,-33.7323],[-66.9612,-33.7182],[-66.9742,-33.6891],[-66.9814,-33.6892],[-67.0036,-33.6685],[-66.9985,-33.6561],[-67.0041,-33.6522],[-67.0041,-33.63],[-67.0087,-33.6183],[-67.0265,-33.6061],[-67.0368,-33.6075],[-67.0371,-33.5968],[-67.0584,-33.5736],[-67.0702,-33.5649],[-67.0653,-33.5516],[-67.0932,-33.5388],[-67.0914,-33.5279],[-67.0986,-33.5164],[-67.0961,-33.5046],[-67.1151,-33.488],[-67.121,-33.4741],[-67.1316,-33.4714],[-67.1313,-33.4498],[-67.1459,-33.44],[-67.1437,-33.4267],[-67.1527,-33.4126],[-67.1494,-33.4003],[-67.1498,-33.3802],[-67.1574,-33.3722],[-67.1524,-33.3272],[-67.1598,-33.319],[-67.1627,-33.3086],[-67.169,-33.3047],[-67.1772,-33.2749],[-67.1747,-33.2645],[-67.1808,-33.2487],[-67.1776,-33.2374],[-67.1777,-33.2106],[-67.1826,-33.2056],[-67.1764,-33.1879],[-67.1774,-33.1785],[-67.1686,-33.1698],[-67.1719,-33.1523],[-67.1841,-33.1307],[-67.1846,-33.1199],[-67.1962,-33.1179],[-67.5808,-33.0472],[-67.6552,-33.3461],[-67.6679,-33.3462],[-67.7171,-33.4443],[-67.7086,-33.449],[-67.7041,-33.7713],[-67.4997,-33.7677],[-67.5003,-34.0995]]]},"properties":{"id":229,"departamento":"LA PAZ","cabecera":"LA PAZ","provincia":"MENDOZA"}},
{"type":"Feature","geometry":{"type":"Polygon","coordinates":[[[-68.4526,-34.2108],[-68.4681,-34.2093],[-68.4833,-34.2146],[-68.501,-34.2147],[-68.5072,-34.2092],[-68.5166,-34.2111],[-68.5316,-34.2215],[-68.5458,-34.219],[-68.5645,-34.2267],[-68.5825,-34.2299],[-68.5838,-34.2351],[-68.6121,-34.2364],[-68.6191,-34.2422],[-68.6374,-34.2367],[-68.6502,-34.2366],[-68.683,-34.2446],[-68.6855,-34.2484],[-68.7099,-34.2553],[-68.7148,-34.2616],[-68.7471,-34.256],[-68.7537,-34.2582],[-68.8104,-34.3688],[-69.005,-34.3182],[-69.0533,-34.5775],[-69.0941,-34.5834],[-69.1009,-34.5928],[-69.0973,-34.6006],[-69.1088,-34.6049],[-69.1303,-34.6216],[-69.1433,-34.6214],[-69.1621,-34.6303],[-69.1848,-34.6378],[-69.2028,-34.6352],[-69.2124,-34.6369],[-69.2405,-34.6477],[-69.2573,-34.6484],[-69.2754,-34.6539],[-69.2908,-34.6616],[-69.3141,-34.6624],[-69.3375,-34.6789],[-69.3664,-34.6896],[-69.3899,-34.6941],[-69.4057,-34.6933],[-69.4252,-34.6993],[-69.4564,-34.696],[-69.4699,-34.6907],[-69.5075,-34.659],[-69.5124,-34.6492],[-69.5283,-34.641],[-69.5352,-34.6288],[-69.5469,-34.6181],[-69.551,-34.6066],[-69.5669,-34.6001],[-69.5838,-34.5813],[-69.5959,-34.5753],[-69.6015,-34.558],[-69.6199,-34.5435],[-69.6206,-34.5381],[-69.6365,-34.5289],[-69.6419,-34.5214],[-69.6573,-34.5159],[-69.6628,-34.5099],[-69.6804,-34.5006],[-69.685,-34.4932],[-69.7121,-34.4794],[-69.7306,-34.4767],[-69.7561,-34.4777],[-69.7717,-34.4656],[-69.7749,-34.4596],[-69.7767,-34.44],[-69.7873,-34.419],[-69.7875,-34.4136],[-69.799,-34.3995],[-69.8336,-34.3809],[-69.8708,-34.3545],[-69.8744,-34.3532],[-69.8837,-34.3451],[-69.8943,-34.3423],[-69.9057,-34.3342],[-69.9087,-34.3274],[-69.9465,-34.2992],[-69.9626,-34.281],[-69.9718,-34.2629],[-69.9717,-34.2506],[-69.9842,-34.2556],[-69.9871,-34.2614],[-70.0029,-34.262],[-70.0127,-34.2686],[-70.0185,-34.28],[-70.0322,-34.2927],[-70.0224,-34.3084],[-70.0153,-34.3326],[-70.0166,-34.3543],[-70.0237,-34.3631],[-70.0235,-34.3751],[-70.0089,-34.3944],[-70.0124,-34.413],[-70.0225,-34.4166],[-70.0298,-34.4253],[-70.0413,-34.4243],[-70.0472,-34.4312],[-70.0531,-34.4488],[-70.0676,-34.4555],[-70.0795,-34.4713],[-70.1015,-34.4828],[-70.1149,-34.4768],[-70.1272,-34.4846],[-70.1295,-34.5016],[-70.1403,-34.5164],[-70.1481,-34.5359],[-70.1576,-34.5499],[-70.1684,-34.5576],[-70.1689,-34.5652],[-70.1792,-34.5759],[-70.1863,-34.575],[-70.1956,-34.5825],[-70.1912,-34.5916],[-70.204,-34.5961],[-70.2051,-34.6043],[-70.2144,-34.6095],[-70.2249,-34.6432],[-70.2214,-34.6607],[-70.214,-34.663],[-70.2125,-34.6748],[-70.2411,-34.6878],[-70.2189,-34.693],[-70.1815,-34.705],[-70.1633,-34.7189],[-70.1467,-34.7405],[-70.1109,-34.748],[-70.0885,-34.7472],[-70.0747,-34.7572],[-70.0648,-34.768],[-70.0624,-34.7683],[-70.0378,-34.7902],[-70.0292,-34.793],[-70.0227,-34.8016],[-70.0106,-34.8088],[-70.0031,-34.8085],[-69.9872,-34.8199],[-69.9619,-34.8263],[-69.9494,-34.835],[-69.9391,-34.838],[-69.933,-34.8463],[-69.9205,-34.8489],[-69.905,-34.8622],[-69.875,-34.8709],[-69.8685,-34.8795],[-69.8549,-34.889],[-69.8242,-34.9035],[-69.8156,-34.9034],[-69.8061,-34.9106],[-69.784,-34.9216],[-69.7614,-34.9365],[-69.749,-34.9381],[-69.7349,-34.9489],[-69.7132,-34.9516],[-69.7068,-34.9565],[-69.6839,-34.965],[-69.6665,-34.9781],[-69.654,-34.9923],[-69.6432,-35.0145],[-69.6445,-35.0217],[-69.6304,-35.0447],[-69.6299,-35.0505],[-69.6194,-35.0647],[-69.6087,-35.0841],[-69.6012,-35.0849],[-69.5816,-35.0949],[-69.5695,-35.1076],[-69.5629,-35.1215],[-69.5655,-35.1256],[-69.559,-35.1433],[-69.5489,-35.151],[-69.5461,-35.1632],[-69.5538,-35.1788],[-69.5512,-35.1866],[-69.541,-35.1932],[-69.5405,-35.2073],[-69.5132,-35.2272],[-69.5002,-35.2295],[-69.489,-35.237],[-69.4648,-35.2467],[-69.4347,-35.2526],[-69.4257,-35.257],[-69.4108,-35.257],[-69.3889,-35.262],[-69.3757,-35.2684],[-69.3608,-35.2681],[-69.3427,-35.2733],[-69.3377,-35.2668],[-69.3237,-35.2678],[-69.3179,-35.2617],[-69.2962,-35.2627],[-69.2864,-35.2579],[-69.271,-35.2567],[-69.0884,-35.2957],[-68.7451,-35.3676],[-68.486,-35.5793],[-68.3772,-35.7902],[-68.2692,-35.9996],[-67.1949,-35.9995],[-67.193,-35.9873],[-67.2038,-35.9797],[-67.2171,-35.9524],[-67.2271,-35.9395],[-67.228,-35.9317],[-67.2372,-35.9235],[-67.2339,-35.9125],[-67.2529,-35.8968],[-67.253,-35.8874],[-67.2597,-35.8758],[-67.2705,-35.8668],[-67.2704,-35.8579],[-67.2831,-35.8477],[-67.2874,-35.8295],[-67.3017,-35.8306],[-67.3201,-35.8158],[-67.3355,-35.8063],[-67.3368,-35.7993],[-67.3365,-35.797],[-67.3442,-35.7885],[-67.3644,-35.7755],[-67.3688,-35.7668],[-67.3798,-35.7593],[-67.3875,-35.746],[-67.4059,-35.7265],[-67.4163,-35.6998],[-67.4031,-35.6801],[-67.4085,-35.6715],[-67.4133,-35.6536],[-67.4203,-35.6536],[-67.4341,-35.6395],[-67.428,-35.6341],[-67.4386,-35.6236],[-67.4542,-35.6145],[-67.4716,-35.5934],[-67.4779,-35.5895],[-67.4755,-35.5778],[-67.4825,-35.5692],[-67.4785,-35.5635],[-67.4943,-35.5487],[-67.5061,-35.5494],[-67.5295,-35.5021],[-67.5429,-35.4944],[-67.5478,-35.4837],[-67.5679,-35.4747],[-67.574,-35.4595],[-67.5919,-35.4578],[-67.5994,-35.4476],[-67.6015,-35.4369],[-67.6144,-35.4276],[-67.6139,-35.4188],[-67.6225,-35.4161],[-67.6334,-35.3916],[-67.6469,-35.3896],[-67.6511,-35.3702],[-67.6486,-35.3559],[-67.6585,-35.3377],[-67.6452,-35.3264],[-67.6478,-35.3121],[-67.658,-35.3074],[-67.6592,-35.299],[-67.6692,-35.2963],[-67.6656,-35.2855],[-67.6698,-35.2747],[-67.68,-35.2696],[-67.6785,-35.2527],[-67.6903,-35.2466],[-67.6993,-35.2478],[-67.7111,-35.2269],[-67.7129,-35.2063],[-67.7299,-35.2065],[-67.7314,-35.1924],[-67.7256,-35.1807],[-67.7129,-35.1741],[-67.7221,-35.1529],[-67.7294,-35.1496],[-67.7128,-35.1278],[-67.7077,-35.1032],[-67.7176,-35.0998],[-67.711,-35.09],[-67.6987,-35.0823],[-67.7001,-35.0723],[-67.7109,-35.0543],[-67.7055,-35.0494],[-67.698,-35.0267],[-67.6953,-35.0067],[-67.7067,-35.0052],[-67.7134,-34.9982],[-67.7091,-34.9916],[-67.7093,-34.9795],[-67.7215,-34.9751],[-67.7202,-34.9591],[-67.7088,-34.9086],[-67.6874,-34.8059],[-67.68,-34.7612],[-67.6844,-34.7378],[-67.6785,-34.7056],[-67.6707,-34.6856],[-67.6721,-34.6756],[-67.6658,-34.6526],[-67.6642,-34.6205],[-67.6481,-34.5855],[-67.6364,-34.5708],[-67.6333,-34.5596],[-67.6395,-34.5422],[-67.6383,-34.5324],[-67.6314,-34.527],[-67.6177,-34.5281],[-67.6005,-34.5348],[-67.591,-34.5326],[-67.5703,-34.5372],[-67.559,-34.531],[-67.5493,-34.5373],[-67.5377,-34.5347],[-67.5273,-34.5406],[-67.4991,-34.5464],[-67.4942,-34.552],[-67.4483,-34.5505],[-67.44,-34.5484],[-67.4259,-34.5571],[-67.4137,-34.547],[-67.4005,-34.5478],[-67.3889,-34.5394],[-67.3766,-34.5386],[-67.3644,-34.5465],[-67.334,-34.5476],[-67.3289,-34.5409],[-67.3134,-34.5359],[-67.283,-34.5359],[-67.2744,-34.5397],[-67.2475,-34.542],[-67.2372,-34.5508],[-67.2265,-34.5471],[-67.2114,-34.5547],[-67.2071,-34.5628],[-67.189,-34.5649],[-67.1794,-34.5593],[-67.1501,-34.5581],[-67.1452,-34.5657],[-67.1028,-34.5619],[-67.0875,-34.5714],[-67.0743,-34.5722],[-67.0645,-34.5575],[-67.0488,-34.5574],[-67.0272,-34.554],[-67.0171,-34.5566],[-67.0062,-34.5481],[-66.9852,-34.5452],[-66.9422,-34.5351],[-66.9224,-34.5149],[-66.9124,-34.5125],[-66.8986,-34.5152],[-66.8899,-34.5042],[-66.8703,-34.5111],[-66.8631,-34.5077],[-66.8444,-34.4905],[-66.8352,-34.4922],[-66.8142,-34.4883],[-66.8036,-34.4945],[-66.792,-34.4898],[-66.7882,-34.4975],[-66.7765,-34.5051],[-66.7738,-34.5213],[-66.7645,-34.5375],[-66.7572,-34.5344],[-66.7569,-34.5125],[-66.7648,-34.4967],[-66.7583,-34.4835],[-66.7595,-34.4762],[-66.7531,-34.4555],[-66.7583,-34.4344],[-66.7734,-34.4245],[-66.7882,-34.4218],[-66.7955,-34.413],[-66.7775,-34.4114],[-66.773,-34.4042],[-66.7768,-34.3934],[-66.7657,-34.3888],[-66.7712,-34.3752],[-66.7845,-34.3791],[-66.7918,-34.3639],[-66.8131,-34.3438],[-66.8026,-34.3381],[-66.8037,-34.3063],[-66.797,-34.3005],[-66.8102,-34.2957],[-67.1543,-34.294],[-67.1506,-34.1087],[-67.5003,-34.0995],[-67.5636,-34.1],[-67.6468,-34.1993],[-68.0068,-34.2013],[-68.0239,-34.198],[-68.0419,-34.2051],[-68.0568,-34.207],[-68.0719,-34.2039],[-68.0785,-34.2078],[-68.089,-34.2048],[-68.0938,-34.2102],[-68.126,-34.2103],[-68.1346,-34.206],[-68.1638,-34.2063],[-68.172,-34.2092],[-68.1949,-34.2015],[-68.2014,-34.2052],[-68.2254,-34.187],[-68.2558,-34.1746],[-68.2764,-34.1745],[-68.2983,-34.171],[-68.3195,-34.1738],[-68.3358,-34.1802],[-68.3483,-34.1788],[-68.3707,-34.1946],[-68.395,-34.1982],[-68.3989,-34.2088],[-68.4076,-34.2158],[-68.4254,-34.2209],[-68.4433,-34.2169],[-68.4526,-34.2108]]]},"properties":{"id":230,"departamento":"SAN RAFAEL","cabecera":"SAN RAFAEL","provincia":"MENDOZA"}},
{"type":"Feature","geometry":{"type":"Polygon","coordinates":[[[-68.7978,-33.3904],[-68.8102,-33.3846],[-68.8419,-33.3631],[-68.8613,-33.3604],[-68.8977,-33.344],[-68.905,-33.3446],[-68.9218,-33.337],[-68.9051,-33.2917],[-68.9898,-33.2773],[-69.0162,-33.2637],[-69.0414,-33.2534],[-69.0712,-33.2461],[-69.0926,-33.2356],[-69.1141,-33.2133],[-69.1434,-33.1992],[-69.1556,-33.1778],[-69.1864,-33.1484],[-69.1898,-33.1384],[-69.2004,-33.1223],[-69.2075,-33.1176],[-69.2287,-33.1133],[-69.2504,-33.112],[-69.2714,-33.1074],[-69.3118,-33.094],[-69.348,-33.0866],[-69.3851,-33.082],[-69.3969,-33.071],[-69.4129,-33.0654],[-69.414,-33.0443],[-69.4382,-33.0107],[-69.4505,-33.0103],[-69.4651,-33.017],[-69.5008,-33.0209],[-69.5137,-33.0315],[-69.7633,-33.3356],[-69.7697,-33.3434],[-69.7702,-33.3595],[-69.7559,-33.3611],[-69.7087,-33.3662],[-69.3533,-33.4052],[-69.3245,-33.4252],[-69.304,-33.437],[-69.2698,-33.4493],[-69.2493,-33.469],[-69.2279,-33.4793],[-69.1782,-33.484],[-69.1583,-33.4926],[-69.1498,-33.492],[-69.1411,-33.4995],[-69.0894,-33.5151],[-69.0798,-33.5146],[-69.0551,-33.5235],[-69.0426,-33.535],[-69.0296,-33.5418],[-69.0079,-33.545],[-68.9974,-33.5393],[-68.9912,-33.5176],[-68.9905,-33.4996],[-68.9494,-33.4739],[-68.9272,-33.466],[-68.9063,-33.4546],[-68.8892,-33.4532],[-68.8756,-33.4376],[-68.8745,-33.4299],[-68.8523,-33.4104],[-68.8188,-33.3971],[-68.7978,-33.3904]]]},"properties":{"id":346,"departamento":"TUPUNGATO","cabecera":"TUPUNGATO","provincia":"MENDOZA"}},
{"type":"Feature","geometry":{"type":"Polygon","coordinates":[[[-68.9974,-33.5393],[-69.0079,-33.545],[-69.0296,-33.5418],[-69.0426,-33.535],[-69.0551,-33.5235],[-69.0798,-33.5146],[-69.0894,-33.5151],[-69.1411,-33.4995],[-69.1498,-33.492],[-69.1583,-33.4926],[-69.1782,-33.484],[-69.2279,-33.4793],[-69.2493,-33.469],[-69.2698,-33.4493],[-69.304,-33.437],[-69.3245,-33.4252],[-69.3533,-33.4052],[-69.7087,-33.3662],[-69.7559,-33.3611],[-69.7702,-33.3595],[-69.7776,-33.383],[-69.7948,-33.3964],[-69.8071,-33.3963],[-69.7976,-33.4112],[-69.7987,-33.4248],[-69.8073,-33.4244],[-69.82,-33.4309],[-69.8146,-33.4438],[-69.822,-33.4526],[-69.8156,-33.47],[-69.8301,-33.477],[-69.8317,-33.5028],[-69.8357,-33.5171],[-69.8544,-33.5246],[-69.8605,-33.5334],[-69.8721,-33.5397],[-69.8735,-33.558],[-69.8688,-33.5657],[-69.8653,-33.5832],[-69.8678,-33.5954],[-69.8732,-33.5995],[-69.8799,-33.6199],[-69.8747,-33.6242],[-69.8744,-33.6415],[-69.8711,-33.6549],[-69.879,-33.659],[-69.8851,-33.6825],[-69.8741,-33.6931],[-69.8648,-33.7161],[-69.8747,-33.7272],[-69.877,-33.7368],[-69.9006,-33.7603],[-69.9044,-33.7784],[-69.8958,-33.7887],[-69.8969,-33.8313],[-69.8624,-33.8384],[-69.8341,-33.8509],[-69.822,-33.8545],[-69.7966,-33.8578],[-69.7693,-33.8538],[-69.7511,-33.8486],[-69.7339,-33.8484],[-69.6926,-33.8628],[-69.6731,-33.8571],[-69.6599,-33.8576],[-69.6437,-33.8527],[-69.6181,-33.8504],[-69.5755,-33.8534],[-69.537,-33.865],[-69.5183,-33.8651],[-69.4346,-33.8491],[-69.4113,-33.8523],[-69.3899,-33.8605],[-69.3665,-33.863],[-69.3457,-33.8542],[-69.3399,-33.8334],[-69.3307,-33.8172],[-69.3043,-33.7937],[-69.2912,-33.7876],[-69.2474,-33.7798],[-69.2318,-33.7738],[-69.203,-33.7505],[-69.1964,-33.7487],[-69.1843,-33.7312],[-69.1731,-33.7234],[-69.1569,-33.7173],[-69.1516,-33.7103],[-69.1031,-33.6791],[-69.0903,-33.6736],[-69.0729,-33.6705],[-69.0628,-33.6613],[-69.0575,-33.6422],[-69.0499,-33.6417],[-68.9981,-33.6001],[-69.0013,-33.5932],[-69.0003,-33.5757],[-69.0055,-33.5646],[-69.0058,-33.5513],[-68.9974,-33.5393]]]},"properties":{"id":348,"departamento":"TUNUYAN","cabecera":"TUNUYAN","provincia":"MENDOZA"}},
{"type":"Feature","geometry":{"type":"Polygon","coordinates":[[[-68.8287,-32.9584],[-68.8522,-32.9567],[-68.8641,-32.9588],[-68.8954,-32.9907],[-68.9163,-33.0046],[-68.9277,-33.0062],[-68.9448,-33.0156],[-68.9722,-33.0252],[-68.9803,-33.0359],[-68.9998,-33.0393],[-69.0456,-33.0424],[-69.0505,-33.0465],[-69.0857,-33.0506],[-69.1016,-33.0396],[-69.1158,-33.012],[-69.1265,-33.0022],[-69.1268,-32.9956],[-69.1441,-32.989],[-69.1672,-32.9705],[-69.1834,-32.9492],[-69.1964,-32.9463],[-69.2071,-32.9342],[-69.2213,-32.9259],[-69.2338,-32.9261],[-69.2377,-32.9179],[-69.2591,-32.919],[-69.2636,-32.9075],[-69.2619,-32.8787],[-69.2672,-32.8692],[-69.2648,-32.8508],[-69.2892,-32.8303],[-69.298,-32.8262],[-69.3003,-32.8066],[-69.3122,-32.7944],[-69.3146,-32.7542],[-69.3201,-32.7492],[-69.3315,-32.7193],[-69.3442,-32.6938],[-69.3543,-32.6893],[-69.3599,-32.6782],[-69.3738,-32.6645],[-69.3837,-32.6488],[-69.3991,-32.6332],[-69.4149,-32.6224],[-69.4358,-32.6195],[-69.4569,-32.6213],[-69.4732,-32.6269],[-69.4892,-32.6375],[-69.5087,-32.6632],[-69.5318,-32.7063],[-69.5327,-32.7156],[-69.5421,-32.7267],[-69.5685,-32.739],[-69.5716,-32.751],[-69.5872,-32.7606],[-69.5916,-32.7691],[-69.614,-32.7854],[-69.6331,-32.7862],[-69.6479,-32.7924],[-69.6638,-32.8062],[-69.6936,-32.8212],[-69.7305,-32.8337],[-69.7438,-32.8446],[-69.7527,-32.8559],[-69.7705,-32.8675],[-69.7998,-32.8578],[-69.8387,-32.8394],[-69.8945,-32.8248],[-69.91,-32.8267],[-69.918,-32.8232],[-69.9459,-32.8255],[-69.9681,-32.8228],[-69.9803,-32.8246],[-70.0038,-32.819],[-70.0261,-32.823],[-70.0504,-32.8107],[-70.0538,-32.8108],[-70.0642,-32.8137],[-70.0841,-32.8114],[-70.0777,-32.823],[-70.066,-32.8256],[-70.0519,-32.8374],[-70.0556,-32.8574],[-70.0363,-32.8735],[-70.0009,-32.8841],[-69.9891,-32.8978],[-69.9913,-32.9123],[-70.004,-32.9232],[-70.0067,-32.9317],[-69.9995,-32.9434],[-70.008,-32.953],[-70.0188,-32.9558],[-70.0269,-32.9698],[-70.021,-32.9823],[-70.0202,-33.0035],[-70.0308,-33.0204],[-70.0584,-33.0287],[-70.0816,-33.0297],[-70.0793,-33.0372],[-70.0936,-33.0508],[-70.0752,-33.0623],[-70.0667,-33.0885],[-70.0705,-33.0948],[-70.0659,-33.103],[-70.076,-33.1172],[-70.0513,-33.1373],[-70.055,-33.147],[-70.0646,-33.1534],[-70.0565,-33.1717],[-70.0641,-33.1791],[-70.0594,-33.193],[-70.063,-33.2058],[-70.0536,-33.2262],[-70.027,-33.2318],[-70.0264,-33.2463],[-70.0336,-33.2538],[-70.0378,-33.2696],[-70.0259,-33.2767],[-70.0112,-33.2813],[-70.0063,-33.2883],[-70.0103,-33.3016],[-70.0077,-33.3154],[-70.0023,-33.3228],[-69.9683,-33.3085],[-69.9676,-33.2994],[-69.9497,-33.281],[-69.9165,-33.2661],[-69.8844,-33.2773],[-69.8748,-33.2751],[-69.8594,-33.2824],[-69.8401,-33.2712],[-69.8316,-33.2735],[-69.815,-33.2879],[-69.7981,-33.2883],[-69.7897,-33.3085],[-69.7789,-33.3212],[-69.7697,-33.3434],[-69.7633,-33.3356],[-69.5137,-33.0315],[-69.5008,-33.0209],[-69.4651,-33.017],[-69.4505,-33.0103],[-69.4382,-33.0107],[-69.414,-33.0443],[-69.4129,-33.0654],[-69.3969,-33.071],[-69.3851,-33.082],[-69.348,-33.0866],[-69.3118,-33.094],[-69.2714,-33.1074],[-69.2504,-33.112],[-69.2287,-33.1133],[-69.2075,-33.1176],[-69.2004,-33.1223],[-69.1898,-33.1384],[-69.1864,-33.1484],[-69.1556,-33.1778],[-69.1434,-33.1992],[-69.1141,-33.2133],[-69.0926,-33.2356],[-69.0712,-33.2461],[-69.0414,-33.2534],[-69.0162,-33.2637],[-68.9898,-33.2773],[-68.9051,-33.2917],[-68.9218,-33.337],[-68.905,-33.3446],[-68.8977,-33.344],[-68.8613,-33.3604],[-68.8419,-33.3631],[-68.8102,-33.3846],[-68.7978,-33.3904],[-68.7866,-33.3922],[-68.7758,-33.3846],[-68.7704,-33.3718],[-68.7587,-33.3627],[-68.7568,-33.3601],[-68.7257,-33.3389],[-68.7192,-33.3278],[-68.7237,-33.3108],[-68.7222,-33.2966],[-68.7109,-33.2759],[-68.7015,-33.2632],[-68.6902,-33.2584],[-68.6846,-33.2473],[-68.6758,-33.2274],[-68.6643,-33.2135],[-68.6557,-33.1922],[-68.6552,-33.1778],[-68.6445,-33.1535],[-68.6441,-33.1446],[-68.6298,-33.1309],[-68.6188,-33.0964],[-68.6336,-33.0984],[-68.658,-33.1086],[-68.6839,-33.1159],[-68.7001,-33.1142],[-68.7127,-33.1086],[-68.7371,-33.089],[-68.7529,-33.0815],[-68.7487,-33.0746],[-68.7603,-33.0664],[-68.7789,-33.0597],[-68.7861,-33.0538],[-68.8097,-33.0623],[-68.8325,-33.0629],[-68.8452,-33.0587],[-68.8513,-33.0513],[-68.8642,-33.0471],[-68.8542,-33.0226],[-68.8412,-33.0244],[-68.8317,-33.0073],[-68.8249,-32.9883],[-68.815,-32.9709],[-68.8323,-32.967],[-68.8287,-32.9584]]]},"properties":{"id":349,"departamento":"LUJAN DE CUYO","cabecera":"LUJAN DE CUYO","provincia":"MENDOZA"}},
{"type":"Feature","geometry":{"type":"Polygon","coordinates":[[[-68.6879,-32.8293],[-68.6817,-32.8191],[-68.6952,-32.7982],[-68.6904,-32.7818],[-68.6693,-32.7398],[-68.6945,-32.7461],[-68.6642,-32.6854],[-68.6598,-32.6748],[-68.6585,-32.6539],[-68.6724,-32.6175],[-68.6722,-32.5976],[-68.6612,-32.5717],[-68.6328,-32.4742],[-68.6205,-32.4391],[-68.6044,-32.4169],[-68.5867,-32.398],[-68.5752,-32.3825],[-68.5256,-32.3727],[-68.5196,-32.368],[-68.5001,-32.331],[-68.5065,-32.302],[-68.5036,-32.2856],[-68.5136,-32.2626],[-68.6657,-32.3371],[-68.9176,-32.338],[-68.9176,-32.1146],[-68.9568,-32.1089],[-68.9839,-32.113],[-68.9969,-32.1177],[-69.0116,-32.1165],[-69.0275,-32.095],[-69.0645,-32.0744],[-69.0709,-32.0612],[-69.0862,-32.0524],[-69.0854,-32.0439],[-69.0937,-32.0315],[-69.1025,-32.0304],[-69.1165,-32.0199],[-69.1164,-32.0025],[-69.1284,-31.9994],[-69.184,-31.9994],[-69.211,-32.0094],[-69.2177,-32.0077],[-69.2445,-32.0161],[-69.2624,-32.0332],[-69.2674,-32.0556],[-69.2807,-32.0729],[-69.2942,-32.0712],[-69.3056,-32.0791],[-69.3142,-32.0911],[-69.3449,-32.0827],[-69.3831,-32.0646],[-69.3904,-32.0768],[-69.407,-32.073],[-69.4157,-32.0665],[-69.4339,-32.0763],[-69.4548,-32.0747],[-69.4713,-32.0906],[-69.4771,-32.1104],[-69.4947,-32.1144],[-69.512,-32.1295],[-69.5226,-32.1332],[-69.5311,-32.141],[-69.5606,-32.1383],[-69.5608,-32.1294],[-69.579,-32.1368],[-69.5861,-32.1346],[-69.5985,-32.1454],[-69.5959,-32.1624],[-69.5982,-32.1727],[-69.6057,-32.1839],[-69.6099,-32.2021],[-69.6034,-32.2086],[-69.6135,-32.2165],[-69.6183,-32.2373],[-69.6256,-32.2391],[-69.6313,-32.2518],[-69.631,-32.26],[-69.6508,-32.269],[-69.6674,-32.287],[-69.6745,-32.2899],[-69.6808,-32.3035],[-69.6963,-32.3097],[-69.7091,-32.3099],[-69.7239,-32.3166],[-69.7308,-32.3415],[-69.7267,-32.3561],[-69.7274,-32.3668],[-69.7332,-32.3791],[-69.7332,-32.3906],[-69.7106,-32.4034],[-69.7041,-32.4036],[-69.6903,-32.423],[-69.689,-32.4371],[-69.6989,-32.4436],[-69.6943,-32.4578],[-69.7028,-32.4756],[-69.705,-32.4964],[-69.723,-32.4963],[-69.7437,-32.5094],[-69.7561,-32.5094],[-69.7654,-32.5158],[-69.7709,-32.5312],[-69.7926,-32.5474],[-69.8216,-32.544],[-69.8295,-32.5516],[-69.8274,-32.5627],[-69.8473,-32.5706],[-69.8588,-32.5626],[-69.9015,-32.561],[-69.9061,-32.5539],[-69.9305,-32.5414],[-69.9468,-32.5409],[-69.9643,-32.5458],[-69.9843,-32.5311],[-70.0042,-32.5283],[-70.0257,-32.5599],[-70.0258,-32.5788],[-70.0417,-32.5851],[-70.0457,-32.6052],[-70.0606,-32.6173],[-70.0662,-32.6258],[-70.0876,-32.623],[-70.0913,-32.6192],[-70.0913,-32.6022],[-70.1036,-32.5903],[-70.1113,-32.5898],[-70.119,-32.5782],[-70.1329,-32.5765],[-70.1501,-32.5812],[-70.1632,-32.5983],[-70.1659,-32.6163],[-70.1703,-32.6258],[-70.1579,-32.6299],[-70.1516,-32.6368],[-70.1526,-32.6452],[-70.1465,-32.654],[-70.1465,-32.6744],[-70.1426,-32.6799],[-70.144,-32.7103],[-70.1473,-32.7287],[-70.1369,-32.7327],[-70.1317,-32.7455],[-70.1317,-32.7553],[-70.1155,-32.7672],[-70.1067,-32.7943],[-70.0869,-32.8058],[-70.0841,-32.8114],[-70.0642,-32.8137],[-70.0538,-32.8108],[-70.0504,-32.8107],[-70.0261,-32.823],[-70.0038,-32.819],[-69.9803,-32.8246],[-69.9681,-32.8228],[-69.9459,-32.8255],[-69.918,-32.8232],[-69.91,-32.8267],[-69.8945,-32.8248],[-69.8387,-32.8394],[-69.7998,-32.8578],[-69.7705,-32.8675],[-69.7527,-32.8559],[-69.7438,-32.8446],[-69.7305,-32.8337],[-69.6936,-32.8212],[-69.6638,-32.8062],[-69.6479,-32.7924],[-69.6331,-32.7862],[-69.614,-32.7854],[-69.5916,-32.7691],[-69.5872,-32.7606],[-69.5716,-32.751],[-69.5685,-32.739],[-69.5421,-32.7267],[-69.5327,-32.7156],[-69.5318,-32.7063],[-69.5087,-32.6632],[-69.4892,-32.6375],[-69.4732,-32.6269],[-69.4569,-32.6213],[-69.4358,-32.6195],[-69.4149,-32.6224],[-69.3991,-32.6332],[-69.3837,-32.6488],[-69.3738,-32.6645],[-69.3599,-32.6782],[-69.3543,-32.6893],[-69.3442,-32.6938],[-69.3315,-32.7193],[-69.3201,-32.7492],[-69.3146,-32.7542],[-69.3122,-32.7944],[-69.3003,-32.8066],[-69.298,-32.8262],[-69.2892,-32.8303],[-69.2648,-32.8508],[-69.2672,-32.8692],[-69.2619,-32.8787],[-69.2636,-32.9075],[-69.2591,-32.919],[-69.2377,-32.9179],[-69.2338,-32.9261],[-69.2213,-32.9259],[-69.2071,-32.9342],[-69.1964,-32.9463],[-69.1834,-32.9492],[-69.1672,-32.9705],[-69.1441,-32.989],[-69.1268,-32.9956],[-69.1265,-33.0022],[-69.1158,-33.012],[-69.1016,-33.0396],[-69.0857,-33.0506],[-69.0505,-33.0465],[-69.0456,-33.0424],[-68.9998,-33.0393],[-68.9803,-33.0359],[-68.9722,-33.0252],[-68.9448,-33.0156],[-68.9277,-33.0062],[-68.9163,-33.0046],[-68.8954,-32.9907],[-68.8641,-32.9588],[-68.8858,-32.959],[-68.9016,-32.9552],[-68.9572,-32.9584],[-68.9572,-32.9015],[-68.9573,-32.8616],[-68.8576,-32.8616],[-68.8316,-32.8604],[-68.8195,-32.8721],[-68.7964,-32.8603],[-68.7813,-32.856],[-68.7584,-32.8542],[-68.7408,-32.8454],[-68.7189,-32.8413],[-68.7117,-32.8365],[-68.6879,-32.8293]]]},"properties":{"id":437,"departamento":"LAS HERAS","cabecera":"LAS HERAS","provincia":"MENDOZA"}},
{"type":"Feature","geometry":{"type":"Polygon","coordinates":[[[-68.6502,-32.8566],[-68.6149,-32.8433],[-68.6034,-32.8371],[-68.4552,-32.8675],[-68.4649,-32.8553],[-68.4658,-32.84],[-68.4589,-32.831],[-68.4609,-32.8231],[-68.4509,-32.8124],[-68.442,-32.8115],[-68.4436,-32.8006],[-68.4272,-32.7995],[-68.4124,-32.7883],[-68.4031,-32.7889],[-68.3947,-32.7814],[-68.3832,-32.7773],[-68.3763,-32.77],[-68.3653,-32.7656],[-68.3609,-32.7584],[-68.3415,-32.7458],[-68.3391,-32.7354],[-68.3282,-32.7208],[-67.9579,-32.7256],[-67.9577,-32.8432],[-67.9575,-32.9935],[-67.7638,-33.0135],[-67.5808,-33.0472],[-67.1962,-33.1179],[-67.1846,-33.1199],[-67.1801,-33.107],[-67.1846,-33.094],[-67.1814,-33.0837],[-67.1745,-33.0782],[-67.1769,-33.0648],[-67.1871,-33.0524],[-67.1834,-33.0392],[-67.1843,-33.0163],[-67.1795,-33.0049],[-67.1882,-33],[-67.1916,-32.9835],[-67.2014,-32.9733],[-67.2015,-32.9565],[-67.2104,-32.9459],[-67.2094,-32.9355],[-67.2144,-32.9089],[-67.2311,-32.8979],[-67.2325,-32.888],[-67.2273,-32.877],[-67.2312,-32.8669],[-67.2271,-32.8599],[-67.2094,-32.8571],[-67.2095,-32.8487],[-67.2008,-32.8407],[-67.1926,-32.8399],[-67.1774,-32.8205],[-67.1765,-32.7894],[-67.1857,-32.7717],[-67.1814,-32.7649],[-67.1671,-32.7634],[-67.17,-32.7499],[-67.1826,-32.7289],[-67.1799,-32.7181],[-67.1921,-32.7043],[-67.1889,-32.6972],[-67.2088,-32.6864],[-67.2243,-32.6828],[-67.2301,-32.6609],[-67.235,-32.6572],[-67.2372,-32.6349],[-67.2539,-32.6294],[-67.2568,-32.6204],[-67.244,-32.6044],[-67.2464,-32.5901],[-67.268,-32.571],[-67.2682,-32.561],[-67.2621,-32.5536],[-67.2741,-32.5389],[-67.2853,-32.534],[-67.2967,-32.5351],[-67.2936,-32.5198],[-67.2861,-32.5196],[-67.2865,-32.501],[-67.2936,-32.4956],[-67.2955,-32.4799],[-67.3014,-32.4707],[-67.2959,-32.4616],[-67.2975,-32.4465],[-67.2901,-32.444],[-67.2959,-32.4314],[-67.3101,-32.4247],[-67.3068,-32.4139],[-67.3202,-32.3879],[-67.3192,-32.3717],[-67.3277,-32.366],[-67.3313,-32.3509],[-67.3417,-32.3492],[-67.3552,-32.3522],[-67.3652,-32.3418],[-67.3817,-32.3305],[-67.3964,-32.3329],[-67.411,-32.3272],[-67.424,-32.3278],[-67.4455,-32.3192],[-67.4642,-32.3061],[-67.4707,-32.3079],[-67.4821,-32.2936],[-67.4812,-32.2836],[-67.488,-32.2715],[-67.4857,-32.2631],[-67.4981,-32.2501],[-67.5089,-32.2439],[-67.5268,-32.2228],[-67.5381,-32.23],[-67.5445,-32.2395],[-67.5795,-32.2372],[-67.5945,-32.2464],[-67.613,-32.2345],[-67.6202,-32.2419],[-67.6303,-32.2391],[-67.6482,-32.2396],[-67.6615,-32.2343],[-67.6684,-32.2268],[-67.6751,-32.2339],[-67.6872,-32.2381],[-67.6969,-32.2333],[-67.7075,-32.238],[-67.7132,-32.2457],[-67.724,-32.2421],[-67.7331,-32.2244],[-67.7574,-32.2268],[-67.7769,-32.2353],[-67.7965,-32.2204],[-67.8083,-32.2269],[-67.8312,-32.226],[-67.8355,-32.2162],[-67.8584,-32.2112],[-67.8646,-32.202],[-67.8748,-32.1972],[-67.87,-32.1897],[-67.8842,-32.1809],[-67.8969,-32.1802],[-67.9172,-32.167],[-67.9278,-32.1542],[-67.9233,-32.1479],[-67.9355,-32.1397],[-67.9342,-32.1194],[-67.9583,-32.1151],[-67.953,-32.1001],[-67.9569,-32.0931],[-67.9822,-32.0887],[-67.9887,-32.0934],[-68.0044,-32.0804],[-68.023,-32.0871],[-68.0335,-32.076],[-68.049,-32.08],[-68.0598,-32.0747],[-68.066,-32.0795],[-68.065,-32.09],[-68.0727,-32.0985],[-68.0858,-32.0916],[-68.0977,-32.0927],[-68.1238,-32.1057],[-68.1374,-32.1071],[-68.1511,-32.119],[-68.1676,-32.1131],[-68.1759,-32.1192],[-68.1866,-32.1129],[-68.2069,-32.1211],[-68.2172,-32.1106],[-68.2257,-32.1083],[-68.2479,-32.0915],[-68.3041,-32.1377],[-68.463,-32.1378],[-68.4629,-32.2377],[-68.5136,-32.2626],[-68.5036,-32.2856],[-68.5065,-32.302],[-68.5001,-32.331],[-68.5196,-32.368],[-68.5256,-32.3727],[-68.5752,-32.3825],[-68.5867,-32.398],[-68.6044,-32.4169],[-68.6205,-32.4391],[-68.6328,-32.4742],[-68.6612,-32.5717],[-68.6722,-32.5976],[-68.6724,-32.6175],[-68.6585,-32.6539],[-68.6598,-32.6748],[-68.6642,-32.6854],[-68.6945,-32.7461],[-68.6693,-32.7398],[-68.6904,-32.7818],[-68.6952,-32.7982],[-68.6817,-32.8191],[-68.6879,-32.8293],[-68.6617,-32.8329],[-68.6503,-32.8399],[-68.6502,-32.8566]]]},"properties":{"id":438,"departamento":"LAVALLE","cabecera":"VILLA TULUMAYA","provincia":"MENDOZA"}},
{"type":"Feature","geometry":{"type":"Polygon","coordinates":[[[-70.2411,-34.6878],[-70.2462,-34.6912],[-70.2562,-34.7167],[-70.2578,-34.7283],[-70.2732,-34.7362],[-70.2814,-34.7342],[-70.2942,-34.7381],[-70.3059,-34.7461],[-70.308,-34.7703],[-70.2928,-34.7798],[-70.2838,-34.7808],[-70.2704,-34.7924],[-70.2534,-34.7941],[-70.2486,-34.7997],[-70.2559,-34.8074],[-70.2631,-34.8357],[-70.269,-34.8387],[-70.2802,-34.8543],[-70.2761,-34.875],[-70.2915,-34.8856],[-70.2896,-34.8948],[-70.3023,-34.9017],[-70.3206,-34.9344],[-70.3317,-34.939],[-70.3311,-34.9689],[-70.3289,-34.9773],[-70.337,-34.9928],[-70.3567,-34.9992],[-70.3631,-35.0055],[-70.3604,-35.0351],[-70.3727,-35.0423],[-70.3763,-35.0509],[-70.3717,-35.0632],[-70.3739,-35.0857],[-70.3619,-35.1014],[-70.3701,-35.1121],[-70.3676,-35.1246],[-70.3612,-35.1355],[-70.3719,-35.1508],[-70.3777,-35.1731],[-70.3898,-35.1706],[-70.4041,-35.1806],[-70.424,-35.184],[-70.4399,-35.1937],[-70.4581,-35.195],[-70.471,-35.2033],[-70.5013,-35.2011],[-70.5257,-35.2024],[-70.5281,-35.1962],[-70.5434,-35.2025],[-70.5579,-35.2189],[-70.5681,-35.2238],[-70.5643,-35.2347],[-70.5727,-35.2554],[-70.5801,-35.2573],[-70.5821,-35.2731],[-70.5663,-35.2991],[-70.5532,-35.2997],[-70.543,-35.3054],[-70.5121,-35.3105],[-70.506,-35.3188],[-70.4892,-35.3197],[-70.4684,-35.3126],[-70.4596,-35.3196],[-70.4472,-35.315],[-70.4346,-35.3182],[-70.4351,-35.3321],[-70.4304,-35.3413],[-70.4183,-35.354],[-70.4272,-35.3722],[-70.4518,-35.3911],[-70.4461,-35.4085],[-70.4384,-35.4123],[-70.4521,-35.4251],[-70.4445,-35.4332],[-70.434,-35.4371],[-70.4326,-35.4466],[-70.4465,-35.4545],[-70.4426,-35.4671],[-70.4137,-35.4885],[-70.3939,-35.4858],[-70.3864,-35.509],[-70.3944,-35.5231],[-70.4136,-35.5285],[-70.4056,-35.5456],[-70.41,-35.5592],[-70.4055,-35.5627],[-70.3966,-35.5839],[-70.3848,-35.6057],[-70.3906,-35.6092],[-70.4016,-35.627],[-70.4185,-35.6301],[-70.4238,-35.6411],[-70.4125,-35.6442],[-70.4082,-35.6565],[-70.3973,-35.6651],[-70.4061,-35.6698],[-70.4056,-35.6781],[-70.3977,-35.6877],[-70.3873,-35.6908],[-70.3729,-35.7086],[-70.3685,-35.7218],[-70.3701,-35.7368],[-70.3622,-35.7423],[-70.3598,-35.7549],[-70.3712,-35.7576],[-70.3799,-35.7664],[-70.3762,-35.7772],[-70.3787,-35.7879],[-70.3671,-35.791],[-70.3584,-35.8012],[-70.3352,-35.7971],[-70.3234,-35.8106],[-70.3276,-35.822],[-70.3382,-35.8335],[-70.3594,-35.8436],[-70.3698,-35.8417],[-70.3787,-35.85],[-70.3804,-35.8659],[-70.3909,-35.8715],[-70.4072,-35.8678],[-70.4228,-35.8772],[-70.4208,-35.8865],[-70.4273,-35.9052],[-70.426,-35.9137],[-70.41,-35.9233],[-70.3696,-35.9232],[-70.3708,-35.9286],[-70.387,-35.9399],[-70.3923,-35.9524],[-70.4062,-35.9542],[-70.419,-35.9617],[-70.4216,-35.9769],[-70.4016,-35.9852],[-70.3942,-35.9824],[-70.3762,-35.9947],[-70.383,-36.0027],[-70.3807,-36.0249],[-70.3704,-36.0344],[-70.3736,-36.0437],[-70.3896,-36.0524],[-70.405,-36.0519],[-70.4105,-36.0564],[-70.4181,-36.0793],[-70.4184,-36.0888],[-70.4253,-36.0984],[-70.4153,-36.1042],[-70.4154,-36.1103],[-70.3991,-36.119],[-70.3951,-36.1398],[-70.3933,-36.1725],[-70.3958,-36.1931],[-70.3732,-36.2229],[-70.3747,-36.2567],[-70.3731,-36.2759],[-70.3606,-36.2937],[-70.3596,-36.3089],[-70.3426,-36.3358],[-70.3129,-36.3353],[-70.3061,-36.3402],[-70.2911,-36.3371],[-70.2728,-36.3247],[-70.247,-36.3215],[-70.2285,-36.3249],[-70.2155,-36.3378],[-70.2135,-36.3684],[-70.2057,-36.384],[-70.2115,-36.3897],[-70.2055,-36.3969],[-70.2056,-36.4075],[-70.1954,-36.4232],[-70.2038,-36.4353],[-70.2009,-36.4546],[-70.1871,-36.4719],[-70.1821,-36.4911],[-70.1555,-36.5119],[-70.1515,-36.5212],[-70.1392,-36.5276],[-70.1295,-36.5487],[-70.1228,-36.5522],[-70.1228,-36.5692],[-70.1144,-36.5742],[-70.1046,-36.5868],[-70.0926,-36.5879],[-70.0845,-36.6019],[-70.0718,-36.6136],[-70.0562,-36.6434],[-70.0436,-36.6588],[-70.0224,-36.6648],[-70.0212,-36.6732],[-70.0125,-36.6781],[-70.0105,-36.6956],[-69.9871,-36.6932],[-69.9626,-36.707],[-69.9477,-36.7217],[-69.9431,-36.746],[-69.9242,-36.753],[-69.9199,-36.7653],[-69.9274,-36.7826],[-69.9247,-36.791],[-69.8895,-36.8097],[-69.8733,-36.8131],[-69.8662,-36.8321],[-69.8521,-36.845],[-69.8317,-36.8497],[-69.8205,-36.8487],[-69.7986,-36.8591],[-69.7876,-36.8689],[-69.7644,-36.8722],[-69.7533,-36.8869],[-69.7717,-36.8992],[-69.7719,-36.9097],[-69.7792,-36.9161],[-69.7706,-36.9229],[-69.7754,-36.9319],[-69.774,-36.9486],[-69.778,-36.9631],[-69.7756,-36.9906],[-69.7644,-36.9992],[-69.7681,-37.0229],[-69.7584,-37.0345],[-69.7585,-37.0503],[-69.762,-37.0561],[-69.7557,-37.0681],[-69.7408,-37.0791],[-69.7258,-37.0857],[-69.7239,-37.0919],[-69.7095,-37.1021],[-69.6985,-37.1004],[-69.6859,-37.1093],[-69.6686,-37.115],[-69.6294,-37.1368],[-69.6244,-37.1443],[-69.6095,-37.1489],[-69.601,-37.1464],[-69.5831,-37.1515],[-69.5756,-37.1628],[-69.5608,-37.1642],[-69.554,-37.1608],[-69.5392,-37.1709],[-69.517,-37.172],[-69.5095,-37.1669],[-69.4953,-37.1749],[-69.4643,-37.1722],[-69.4549,-37.1649],[-69.4386,-37.1642],[-69.4247,-37.1598],[-69.421,-37.1693],[-69.4072,-37.1678],[-69.3962,-37.1713],[-69.3768,-37.1595],[-69.3655,-37.159],[-69.3508,-37.1637],[-69.3383,-37.154],[-69.3255,-37.1504],[-69.3011,-37.1546],[-69.286,-37.1444],[-69.2699,-37.1442],[-69.2624,-37.1543],[-69.2395,-37.1624],[-69.2154,-37.1776],[-69.2067,-37.1712],[-69.1872,-37.1774],[-69.1715,-37.178],[-69.1549,-37.1916],[-69.1376,-37.196],[-69.1316,-37.2022],[-69.1158,-37.2072],[-69.103,-37.2046],[-69.09,-37.2191],[-69.0687,-37.2213],[-69.0556,-37.2367],[-69.0506,-37.2383],[-69.0383,-37.255],[-69.0383,-37.2669],[-69.0499,-37.2884],[-69.0455,-37.297],[-69.0474,-37.3182],[-69.0393,-37.3231],[-69.0454,-37.3322],[-69.0363,-37.3527],[-69.0278,-37.3624],[-69.0001,-37.3729],[-68.9911,-37.3705],[-68.9824,-37.3785],[-68.9691,-37.3725],[-68.9476,-37.3731],[-68.9281,-37.3799],[-68.9128,-37.3761],[-68.8854,-37.3817],[-68.8695,-37.3984],[-68.8632,-37.4006],[-68.8536,-37.3927],[-68.8352,-37.3868],[-68.8165,-37.3872],[-68.81,-37.3808],[-68.789,-37.3719],[-68.7703,-37.3673],[-68.7574,-37.3707],[-68.7483,-37.3804],[-68.7362,-37.3857],[-68.7178,-37.3892],[-68.7138,-37.4038],[-68.7017,-37.412],[-68.6957,-37.4421],[-68.6873,-37.441],[-68.66,-37.447],[-68.6328,-37.4465],[-68.6211,-37.4385],[-68.608,-37.4386],[-68.5843,-37.4531],[-68.5609,-37.4546],[-68.5475,-37.4492],[-68.5349,-37.4508],[-68.5228,-37.4581],[-68.5043,-37.4535],[-68.4949,-37.4631],[-68.48,-37.489],[-68.4561,-37.5097],[-68.4501,-37.526],[-68.4525,-37.5297],[-68.4388,-37.5431],[-68.4135,-37.5508],[-68.4027,-37.5586],[-68.3865,-37.5588],[-68.3656,-37.5528],[-68.3619,-37.5463],[-68.3508,-37.5497],[-68.351,-37.5569],[-68.3337,-37.5583],[-68.3225,-37.5555],[-68.3,-37.5623],[-68.2921,-37.5592],[-68.2782,-37.5638],[-68.2713,-37.5705],[-68.25,-37.5767],[-68.25,-37.2394],[-68.2501,-36.811],[-68.2502,-36.2384],[-68.2502,-36.1725],[-68.2961,-36.1725],[-68.2961,-35.9996],[-68.2692,-35.9996],[-68.3772,-35.7902],[-68.486,-35.5793],[-68.7451,-35.3676],[-69.0884,-35.2957],[-69.271,-35.2567],[-69.2864,-35.2579],[-69.2962,-35.2627],[-69.3179,-35.2617],[-69.3237,-35.2678],[-69.3377,-35.2668],[-69.3427,-35.2733],[-69.3608,-35.2681],[-69.3757,-35.2684],[-69.3889,-35.262],[-69.4108,-35.257],[-69.4257,-35.257],[-69.4347,-35.2526],[-69.4648,-35.2467],[-69.489,-35.237],[-69.5002,-35.2295],[-69.5132,-35.2272],[-69.5405,-35.2073],[-69.541,-35.1932],[-69.5512,-35.1866],[-69.5538,-35.1788],[-69.5461,-35.1632],[-69.5489,-35.151],[-69.559,-35.1433],[-69.5655,-35.1256],[-69.5629,-35.1215],[-69.5695,-35.1076],[-69.5816,-35.0949],[-69.6012,-35.0849],[-69.6087,-35.0841],[-69.6194,-35.0647],[-69.6299,-35.0505],[-69.6304,-35.0447],[-69.6445,-35.0217],[-69.6432,-35.0145],[-69.654,-34.9923],[-69.6665,-34.9781],[-69.6839,-34.965],[-69.7068,-34.9565],[-69.7132,-34.9516],[-69.7349,-34.9489],[-69.749,-34.9381],[-69.7614,-34.9365],[-69.784,-34.9216],[-69.8061,-34.9106],[-69.8156,-34.9034],[-69.8242,-34.9035],[-69.8549,-34.889],[-69.8685,-34.8795],[-69.875,-34.8709],[-69.905,-34.8622],[-69.9205,-34.8489],[-69.933,-34.8463],[-69.9391,-34.838],[-69.9494,-34.835],[-69.9619,-34.8263],[-69.9872,-34.8199],[-70.0031,-34.8085],[-70.0106,-34.8088],[-70.0227,-34.8016],[-70.0292,-34.793],[-70.0378,-34.7902],[-70.0624,-34.7683],[-70.0648,-34.768],[-70.0747,-34.7572],[-70.0885,-34.7472],[-70.1109,-34.748],[-70.1467,-34.7405],[-70.1633,-34.7189],[-70.1815,-34.705],[-70.2189,-34.693],[-70.2411,-34.6878]]]},"properties":{"id":439,"departamento":"MALARGÜE","cabecera":"MALARGE","provincia":"MENDOZA"}},
{"type":"Feature","geometry":{"type":"Polygon","coordinates":[[[-68.2903,-33.4614],[-68.5935,-33.4863],[-68.571,-33.7248],[-69.0003,-33.5757],[-69.0013,-33.5932],[-68.9981,-33.6001],[-69.0499,-33.6417],[-69.0575,-33.6422],[-69.0628,-33.6613],[-69.0729,-33.6705],[-69.0903,-33.6736],[-69.1031,-33.6791],[-69.1516,-33.7103],[-69.1569,-33.7173],[-69.1731,-33.7234],[-69.1843,-33.7312],[-69.1964,-33.7487],[-69.203,-33.7505],[-69.2318,-33.7738],[-69.2474,-33.7798],[-69.2912,-33.7876],[-69.3043,-33.7937],[-69.3307,-33.8172],[-69.3399,-33.8334],[-69.3457,-33.8542],[-69.3665,-33.863],[-69.3899,-33.8605],[-69.4113,-33.8523],[-69.4346,-33.8491],[-69.5183,-33.8651],[-69.537,-33.865],[-69.5755,-33.8534],[-69.6181,-33.8504],[-69.6437,-33.8527],[-69.6599,-33.8576],[-69.6731,-33.8571],[-69.6926,-33.8628],[-69.7339,-33.8484],[-69.7511,-33.8486],[-69.7693,-33.8538],[-69.7966,-33.8578],[-69.822,-33.8545],[-69.8341,-33.8509],[-69.8624,-33.8384],[-69.8969,-33.8313],[-69.8995,-33.8449],[-69.8741,-33.8603],[-69.8676,-33.8812],[-69.8567,-33.8858],[-69.8556,-33.8924],[-69.8735,-33.9075],[-69.8758,-33.9134],[-69.8897,-33.9192],[-69.8926,-33.9399],[-69.9011,-33.9496],[-69.9062,-33.9633],[-69.9008,-33.9706],[-69.8811,-33.9754],[-69.8708,-33.9633],[-69.8554,-33.9656],[-69.8457,-33.9814],[-69.8386,-34.0074],[-69.8221,-34.011],[-69.8216,-34.0166],[-69.8354,-34.0321],[-69.843,-34.0358],[-69.8538,-34.0572],[-69.8435,-34.0703],[-69.8329,-34.0714],[-69.834,-34.0879],[-69.8408,-34.0954],[-69.8598,-34.1046],[-69.8561,-34.116],[-69.873,-34.1302],[-69.8688,-34.1403],[-69.8594,-34.1417],[-69.8527,-34.1489],[-69.8354,-34.1598],[-69.8317,-34.1689],[-69.8148,-34.1784],[-69.8036,-34.1923],[-69.7968,-34.2073],[-69.807,-34.2482],[-69.8233,-34.2487],[-69.83,-34.2575],[-69.8544,-34.2569],[-69.8576,-34.2618],[-69.8727,-34.2675],[-69.885,-34.2646],[-69.8998,-34.2701],[-69.8985,-34.2852],[-69.9099,-34.292],[-69.9249,-34.2841],[-69.9399,-34.2808],[-69.9553,-34.2597],[-69.9717,-34.2506],[-69.9718,-34.2629],[-69.9626,-34.281],[-69.9465,-34.2992],[-69.9087,-34.3274],[-69.9057,-34.3342],[-69.8943,-34.3423],[-69.8837,-34.3451],[-69.8744,-34.3532],[-69.8708,-34.3545],[-69.8336,-34.3809],[-69.799,-34.3995],[-69.7875,-34.4136],[-69.7873,-34.419],[-69.7767,-34.44],[-69.7749,-34.4596],[-69.7717,-34.4656],[-69.7561,-34.4777],[-69.7306,-34.4767],[-69.7121,-34.4794],[-69.685,-34.4932],[-69.6804,-34.5006],[-69.6628,-34.5099],[-69.6573,-34.5159],[-69.6419,-34.5214],[-69.6365,-34.5289],[-69.6206,-34.5381],[-69.6199,-34.5435],[-69.6015,-34.558],[-69.5959,-34.5753],[-69.5838,-34.5813],[-69.5669,-34.6001],[-69.551,-34.6066],[-69.5469,-34.6181],[-69.5352,-34.6288],[-69.5283,-34.641],[-69.5124,-34.6492],[-69.5075,-34.659],[-69.4699,-34.6907],[-69.4564,-34.696],[-69.4252,-34.6993],[-69.4057,-34.6933],[-69.3899,-34.6941],[-69.3664,-34.6896],[-69.3375,-34.6789],[-69.3141,-34.6624],[-69.2908,-34.6616],[-69.2754,-34.6539],[-69.2573,-34.6484],[-69.2405,-34.6477],[-69.2124,-34.6369],[-69.2028,-34.6352],[-69.1848,-34.6378],[-69.1621,-34.6303],[-69.1433,-34.6214],[-69.1303,-34.6216],[-69.1088,-34.6049],[-69.0973,-34.6006],[-69.1009,-34.5928],[-69.0941,-34.5834],[-69.0533,-34.5775],[-69.005,-34.3182],[-68.8104,-34.3688],[-68.7537,-34.2582],[-68.7471,-34.256],[-68.7148,-34.2616],[-68.7099,-34.2553],[-68.6855,-34.2484],[-68.683,-34.2446],[-68.6502,-34.2366],[-68.6374,-34.2367],[-68.6191,-34.2422],[-68.6121,-34.2364],[-68.5838,-34.2351],[-68.5825,-34.2299],[-68.5645,-34.2267],[-68.5458,-34.219],[-68.5316,-34.2215],[-68.5166,-34.2111],[-68.5072,-34.2092],[-68.501,-34.2147],[-68.4833,-34.2146],[-68.4681,-34.2093],[-68.4526,-34.2108],[-68.4551,-34.0397],[-68.446,-34.0374],[-68.4371,-34.0393],[-68.4181,-34.0359],[-68.3793,-34.0218],[-68.3677,-34.026],[-68.3555,-34.0199],[-68.3445,-34.0206],[-68.326,-34.0157],[-68.3066,-34.0207],[-68.2922,-34.018],[-68.2924,-33.9991],[-68.2903,-33.4614]]]},"properties":{"id":347,"departamento":"SAN CARLOS","cabecera":"VILLA SAN CARLOS","provincia":"MENDOZA"}}
]}