{"type":"FeatureCollection", "features": [
{"type":"Feature","geometry":{"type":"Polygon","coordinates":[[[-54.6605,-26.9492],[-54.6554,-26.9606],[-54.6963,-26.9767],[-54.7117,-26.934],[-54.7499,-26.9437],[-54.7234,-27.0412],[-54.7567,-27.0476],[-54.7833,-27.0281],[-54.7874,-27.0087],[-54.8134,-27.0043],[-54.8164,-26.9863],[-54.8466,-26.9908],[-54.8966,-26.983],[-54.8879,-27.0017],[-54.8894,-27.0548],[-54.9388,-27.076],[-54.9496,-27.0753],[-54.9689,-27.0972],[-55.0108,-27.0536],[-55.0972,-27.053],[-55.1005,-27.1795],[-55.0732,-27.1885],[-54.9378,-27.3688],[-54.9187,-27.3571],[-54.8305,-27.3805],[-54.8354,-27.3533],[-54.8125,-27.3353],[-54.8294,-27.309],[-54.8198,-27.2898],[-54.833,-27.2747],[-54.8196,-27.2573],[-54.8253,-27.2375],[-54.7021,-27.2105],[-54.7009,-27.1965],[-54.7174,-27.1634],[-54.6129,-27.1622],[-54.6243,-27.2083],[-54.6075,-27.2089],[-54.5939,-27.2219],[-54.605,-27.2365],[-54.5868,-27.2512],[-54.5862,-27.2723],[-54.5134,-27.258],[-54.5136,-27.2294],[-54.5289,-27.2074],[-54.5093,-27.1865],[-54.4897,-27.1431],[-54.4969,-27.0858],[-54.541,-27.0854],[-54.6073,-26.9313],[-54.6605,-26.9492]]]},"properties":{"id":18,"departamento":"CAINGUAS","cabecera":"CAMPO GRANDE","provincia":"MISIONES"}},
{"type":"Feature","geometry":{"type":"Polygon","coordinates":[[[-55.6606,-27.6144],[-55.6514,-27.6308],[-55.6087,-27.6409],[-55.6144,-27.6924],[-55.4879,-27.7031],[-55.4955,-27.7599],[-55.3627,-27.7745],[-55.328,-27.7783],[-55.2869,-27.727],[-55.266,-27.7396],[-55.1948,-27.7333],[-55.1868,-27.726],[-55.1892,-27.699],[-55.1655,-27.6952],[-55.1716,-27.6203],[-55.2501,-27.5571],[-55.2321,-27.5422],[-55.2489,-27.5286],[-55.2614,-27.5044],[-55.2968,-27.4613],[-55.3089,-27.4689],[-55.3511,-27.4533],[-55.3664,-27.4565],[-55.4968,-27.5341],[-55.5131,-27.5108],[-55.5701,-27.5454],[-55.5558,-27.5667],[-55.6181,-27.6027],[-55.6245,-27.6175],[-55.6606,-27.6144]]]},"properties":{"id":19,"departamento":"LEANDRO N. ALEM","cabecera":"LEANDRO N. ALEM","provincia":"MISIONES"}},
{"type":"Feature","geometry":{"type":"Polygon","coordinates":[[[-54.6073,-26.9313],[-54.5637,-26.9166],[-54.567,-26.8902],[-54.5234,-26.852],[-54.5421,-26.8316],[-54.4702,-26.7725],[-54.4366,-26.7338],[-54.3907,-26.7115],[-54.2679,-26.6406],[-54.2685,-26.4838],[-54.2787,-26.4991],[-54.3142,-26.4863],[-54.3362,-26.5019],[-54.3644,-26.4839],[-54.3936,-26.5054],[-54.4226,-26.5061],[-54.4408,-26.5138],[-54.481,-26.514],[-54.4962,-26.4938],[-54.5195,-26.5022],[-54.5269,-26.488],[-54.5582,-26.4793],[-54.6244,-26.4876],[-54.6343,-26.5124],[-54.6541,-26.4939],[-54.6576,-26.4785],[-54.6899,-26.4549],[-54.6959,-26.451],[-54.7051,-26.4442],[-54.752,-26.491],[-54.7935,-26.5219],[-54.8081,-26.5534],[-54.7844,-26.6053],[-54.7848,-26.6233],[-54.7974,-26.6437],[-54.7899,-26.6604],[-54.7824,-26.677],[-54.6605,-26.9492],[-54.6073,-26.9313]]]},"properties":{"id":22,"departamento":"MONTECARLO","cabecera":"MONTECARLO","provincia":"MISIONES"}},
{"type":"Feature","geometry":{"type":"Polygon","coordinates":[[[-55.6144,-27.6924],[-55.6162,-27.7084],[-55.6573,-27.7062],[-55.662,-27.7432],[-55.6924,-27.7409],[-55.7178,-27.721],[-55.7448,-27.7169],[-55.7668,-27.6953],[-55.769,-27.7269],[-55.8206,-27.7459],[-55.8513,-27.7565],[-55.8528,-27.757],[-55.8315,-27.7939],[-55.8376,-27.822],[-55.8467,-27.8314],[-55.8281,-27.8542],[-55.8322,-27.904],[-55.8144,-27.9195],[-55.8209,-27.9521],[-55.8024,-27.9637],[-55.7747,-27.999],[-55.7767,-28.0071],[-55.7491,-28.0289],[-55.7582,-28.0609],[-55.7152,-28.0659],[-55.7167,-28.0809],[-55.6937,-28.0902],[-55.6564,-28.115],[-55.6451,-28.1308],[-55.6202,-28.1375],[-55.6042,-28.1153],[-55.589,-28.118],[-55.584,-28.0905],[-55.5727,-28.0911],[-55.5553,-28.0687],[-55.5488,-28.0215],[-55.5588,-27.9651],[-55.5726,-27.9375],[-55.6248,-27.9365],[-55.5531,-27.8261],[-55.5209,-27.7571],[-55.4955,-27.7599],[-55.4879,-27.7031],[-55.6144,-27.6924]]]},"properties":{"id":20,"departamento":"APOSTOLES","cabecera":"APOSTOLES","provincia":"MISIONES"}},
{"type":"Feature","geometry":{"type":"Polygon","coordinates":[[[-55.3664,-27.4565],[-55.2818,-27.406],[-55.2889,-27.3992],[-55.358,-27.3946],[-55.3633,-27.3852],[-55.4,-27.3658],[-55.4133,-27.3775],[-55.4392,-27.3817],[-55.46,-27.3687],[-55.4899,-27.3644],[-55.4914,-27.3466],[-55.4765,-27.3378],[-55.4808,-27.3039],[-55.5046,-27.2946],[-55.5495,-27.293],[-55.5577,-27.2958],[-55.5876,-27.3134],[-55.5961,-27.3392],[-55.6385,-27.3622],[-55.6833,-27.3788],[-55.7119,-27.4098],[-55.7203,-27.4308],[-55.7368,-27.4451],[-55.7693,-27.4446],[-55.7929,-27.4356],[-55.8015,-27.4559],[-55.8052,-27.4601],[-55.784,-27.4955],[-55.7879,-27.5511],[-55.796,-27.5684],[-55.7797,-27.5821],[-55.7232,-27.5844],[-55.72,-27.6026],[-55.6834,-27.5971],[-55.6606,-27.6144],[-55.6245,-27.6175],[-55.6181,-27.6027],[-55.5558,-27.5667],[-55.5701,-27.5454],[-55.5131,-27.5108],[-55.4968,-27.5341],[-55.3664,-27.4565]]]},"properties":{"id":21,"departamento":"CANDELARIA","cabecera":"SANTA ANA","provincia":"MISIONES"}},
{"type":"Feature","geometry":{"type":"Polygon","coordinates":[[[-54.6605,-26.9492],[-54.7824,-26.677],[-54.7899,-26.6604],[-54.7974,-26.6437],[-54.8124,-26.6678],[-54.8315,-26.6741],[-54.8558,-26.6563],[-54.8803,-26.656],[-54.9195,-26.6682],[-54.9422,-26.6824],[-54.9487,-26.7118],[-54.9442,-26.7527],[-54.9563,-26.7814],[-54.976,-26.7899],[-55.0267,-26.7897],[-55.0575,-26.799],[-55.0887,-26.8331],[-55.1298,-26.8536],[-55.1416,-26.8663],[-55.1503,-26.896],[-55.1301,-26.9359],[-55.1378,-26.9512],[-55.2011,-26.9699],[-55.201,-26.974],[-55.1988,-26.9782],[-55.1826,-26.9943],[-55.1701,-27.035],[-55.1388,-27.0468],[-55.0972,-27.053],[-55.0108,-27.0536],[-54.9689,-27.0972],[-54.9496,-27.0753],[-54.9388,-27.076],[-54.8894,-27.0548],[-54.8879,-27.0017],[-54.8966,-26.983],[-54.8466,-26.9908],[-54.8164,-26.9863],[-54.8134,-27.0043],[-54.7874,-27.0087],[-54.7833,-27.0281],[-54.7567,-27.0476],[-54.7234,-27.0412],[-54.7499,-26.9437],[-54.7117,-26.934],[-54.6963,-26.9767],[-54.6554,-26.9606],[-54.6605,-26.9492]]]},"properties":{"id":23,"departamento":"LIBERTADOR GENERAL SAN MARTIN","cabecera":"PUERTO RICO","provincia":"MISIONES"}},
{"type":"Feature","geometry":{"type":"Polygon","coordinates":[[[-55.6606,-27.6144],[-55.6834,-27.5971],[-55.72,-27.6026],[-55.7232,-27.5844],[-55.7797,-27.5821],[-55.796,-27.5684],[-55.7879,-27.5511],[-55.784,-27.4955],[-55.8052,-27.4601],[-55.8015,-27.4559],[-55.7929,-27.4356],[-55.8101,-27.4177],[-55.8389,-27.4075],[-55.854,-27.3922],[-55.8684,-27.3642],[-55.8963,-27.3427],[-55.9789,-27.3551],[-56.0245,-27.3369],[-56.0386,-27.3447],[-56.0297,-27.3862],[-56.0547,-27.4194],[-56.0552,-27.45],[-56.0384,-27.4676],[-56.0291,-27.5025],[-55.9785,-27.5428],[-55.8528,-27.757],[-55.8513,-27.7565],[-55.8206,-27.7459],[-55.769,-27.7269],[-55.7668,-27.6953],[-55.7448,-27.7169],[-55.7178,-27.721],[-55.6924,-27.7409],[-55.662,-27.7432],[-55.6573,-27.7062],[-55.6162,-27.7084],[-55.6144,-27.6924],[-55.6087,-27.6409],[-55.6514,-27.6308],[-55.6606,-27.6144]]]},"properties":{"id":24,"departamento":"CAPITAL","cabecera":"POSADAS","provincia":"MISIONES"}},
{"type":"Feature","geometry":{"type":"Polygon","coordinates":[[[-54.2685,-26.4838],[-54.2687,-26.4483],[-54.178,-26.4482],[-54.1793,-26.3304],[-54.1801,-26.2618],[-54.1687,-26.2618],[-54.169,-26.215],[-54.1484,-26.1383],[-54.319,-26.1401],[-54.431,-26.1195],[-54.4336,-26.1494],[-54.4716,-26.1391],[-54.515,-26.1581],[-54.5406,-26.1462],[-54.5707,-26.1427],[-54.6076,-26.1637],[-54.6224,-26.1502],[-54.6422,-26.1525],[-54.6572,-26.1776],[-54.6202,-26.2069],[-54.6257,-26.2235],[-54.6751,-26.254],[-54.6798,-26.2747],[-54.6491,-26.2998],[-54.6542,-26.3196],[-54.674,-26.3407],[-54.6973,-26.3757],[-54.6988,-26.4251],[-54.7051,-26.4442],[-54.6959,-26.451],[-54.6899,-26.4549],[-54.6576,-26.4785],[-54.6541,-26.4939],[-54.6343,-26.5124],[-54.6244,-26.4876],[-54.5582,-26.4793],[-54.5269,-26.488],[-54.5195,-26.5022],[-54.4962,-26.4938],[-54.481,-26.514],[-54.4408,-26.5138],[-54.4226,-26.5061],[-54.3936,-26.5054],[-54.3644,-26.4839],[-54.3362,-26.5019],[-54.3142,-26.4863],[-54.2787,-26.4991],[-54.2685,-26.4838]]]},"properties":{"id":25,"departamento":"ELDORADO","cabecera":"ELDORADO","provincia":"MISIONES"}},
{"type":"Feature","geometry":{"type":"Polygon","coordinates":[[[-54.2679,-26.6406],[-54.1947,-26.6648],[-54.2166,-26.6941],[-54.2453,-26.6992],[-54.2457,-26.7206],[-54.2587,-26.7374],[-54.2417,-26.7832],[-54.2456,-26.801],[-54.1434,-26.7437],[-54.1378,-26.7787],[-54.1276,-26.8059],[-54.1081,-26.8121],[-54.1088,-26.831],[-54.0971,-26.8577],[-54.0507,-26.8753],[-54.0548,-26.8893],[-54.0289,-26.8953],[-54.0141,-26.9273],[-54.034,-26.9294],[-54.0197,-26.9547],[-54.0147,-26.9769],[-53.9975,-26.9946],[-53.971,-27.0402],[-53.943,-27.0208],[-53.9233,-27.0315],[-53.9119,-27.0565],[-53.8819,-27.0955],[-53.9115,-27.1352],[-53.9344,-27.1308],[-53.9337,-27.1562],[-53.9157,-27.1754],[-53.8989,-27.1723],[-53.8782,-27.1269],[-53.861,-27.1285],[-53.8455,-27.1613],[-53.8271,-27.1456],[-53.8,-27.1469],[-53.8068,-27.1107],[-53.7763,-27.1035],[-53.8055,-27.0791],[-53.7891,-27.0461],[-53.7756,-27.0511],[-53.7401,-27.0147],[-53.718,-26.984],[-53.7348,-26.9782],[-53.7257,-26.9585],[-53.701,-26.9521],[-53.7082,-26.9334],[-53.6815,-26.9162],[-53.674,-26.8927],[-53.6962,-26.8868],[-53.6733,-26.8614],[-53.6781,-26.8426],[-53.6967,-26.8311],[-53.6999,-26.7974],[-53.7365,-26.7674],[-53.7145,-26.7496],[-53.758,-26.7203],[-53.7339,-26.7169],[-53.7326,-26.7005],[-53.7168,-26.6842],[-53.7186,-26.6681],[-53.7407,-26.648],[-53.7287,-26.6198],[-53.7349,-26.6118],[-53.7219,-26.582],[-53.7209,-26.5619],[-53.7381,-26.5486],[-53.7226,-26.5277],[-53.7203,-26.507],[-53.7019,-26.4898],[-53.7134,-26.4687],[-53.6986,-26.4632],[-53.7308,-26.4609],[-53.7421,-26.4414],[-53.7776,-26.3807],[-53.7522,-26.3257],[-54.1793,-26.3304],[-54.178,-26.4482],[-54.2687,-26.4483],[-54.2685,-26.4838],[-54.2679,-26.6406]]]},"properties":{"id":26,"departamento":"SAN PEDRO","cabecera":"SAN PEDRO","provincia":"MISIONES"}},
{"type":"Feature","geometry":{"type":"Polygon","coordinates":[[[-55.3627,-27.7745],[-55.3107,-27.9215],[-55.2801,-27.9324],[-55.2573,-27.9232],[-55.2284,-27.8809],[-55.2001,-27.8582],[-55.1782,-27.857],[-55.1398,-27.894],[-55.1239,-27.8842],[-55.1252,-27.8588],[-55.0907,-27.8425],[-55.0405,-27.8579],[-55.0233,-27.8436],[-55.029,-27.8273],[-55.083,-27.7971],[-55.0769,-27.7766],[-55.0537,-27.7704],[-55.027,-27.7927],[-55.0083,-27.7976],[-54.9928,-27.7757],[-54.9762,-27.7711],[-54.9761,-27.7492],[-54.9987,-27.7343],[-55.0207,-27.6864],[-55.0376,-27.6603],[-55.0383,-27.6474],[-55.0608,-27.6334],[-55.0766,-27.6153],[-55.1716,-27.6203],[-55.1655,-27.6952],[-55.1892,-27.699],[-55.1868,-27.726],[-55.1948,-27.7333],[-55.266,-27.7396],[-55.2869,-27.727],[-55.328,-27.7783],[-55.3627,-27.7745]]]},"properties":{"id":356,"departamento":"SAN JAVIER","cabecera":"SAN JAVIER","provincia":"MISIONES"}},
{"type":"Feature","geometry":{"type":"Polygon","coordinates":[[[-55.4955,-27.7599],[-55.5209,-27.7571],[-55.5531,-27.8261],[-55.6248,-27.9365],[-55.5726,-27.9375],[-55.5588,-27.9651],[-55.5488,-28.0215],[-55.5553,-28.0687],[-55.5727,-28.0911],[-55.584,-28.0905],[-55.589,-28.118],[-55.5888,-28.1433],[-55.5629,-28.1636],[-55.552,-28.1607],[-55.5472,-28.1338],[-55.537,-28.1197],[-55.5142,-28.114],[-55.4913,-28.0772],[-55.4636,-28.0961],[-55.4478,-28.0991],[-55.4228,-28.061],[-55.3816,-28.0396],[-55.3699,-28.0142],[-55.384,-27.996],[-55.3835,-27.981],[-55.3439,-27.9701],[-55.3329,-27.9339],[-55.3107,-27.9215],[-55.3627,-27.7745],[-55.4955,-27.7599]]]},"properties":{"id":357,"departamento":"CONCEPCION","cabecera":"CONCEPCION DE LA SIERRA","provincia":"MISIONES"}},
{"type":"Feature","geometry":{"type":"Polygon","coordinates":[[[-54.5134,-27.258],[-54.3679,-27.2294],[-54.3671,-27.2476],[-54.3543,-27.2747],[-54.3199,-27.3148],[-54.3207,-27.349],[-54.3009,-27.3601],[-54.3165,-27.3769],[-54.3116,-27.3957],[-54.3261,-27.4073],[-54.2949,-27.4441],[-54.2677,-27.4373],[-54.2661,-27.4029],[-54.2154,-27.3842],[-54.2073,-27.332],[-54.1916,-27.3033],[-54.1861,-27.2656],[-54.1599,-27.2574],[-54.1589,-27.292],[-54.1319,-27.3014],[-54.0835,-27.2995],[-54.0551,-27.2637],[-54.027,-27.2551],[-54.0053,-27.1971],[-53.97,-27.1995],[-53.9591,-27.1936],[-53.9599,-27.1602],[-53.9337,-27.1562],[-53.9344,-27.1308],[-53.9115,-27.1352],[-53.8819,-27.0955],[-53.9119,-27.0565],[-53.9233,-27.0315],[-53.943,-27.0208],[-53.971,-27.0402],[-53.9975,-26.9946],[-54.0147,-26.9769],[-54.0197,-26.9547],[-54.034,-26.9294],[-54.0141,-26.9273],[-54.0289,-26.8953],[-54.0548,-26.8893],[-54.0507,-26.8753],[-54.0971,-26.8577],[-54.1088,-26.831],[-54.1081,-26.8121],[-54.1276,-26.8059],[-54.1378,-26.7787],[-54.1434,-26.7437],[-54.2456,-26.801],[-54.2417,-26.7832],[-54.2587,-26.7374],[-54.2457,-26.7206],[-54.2453,-26.6992],[-54.2166,-26.6941],[-54.1947,-26.6648],[-54.2679,-26.6406],[-54.3907,-26.7115],[-54.4366,-26.7338],[-54.4702,-26.7725],[-54.5421,-26.8316],[-54.5234,-26.852],[-54.567,-26.8902],[-54.5637,-26.9166],[-54.6073,-26.9313],[-54.541,-27.0854],[-54.4969,-27.0858],[-54.4897,-27.1431],[-54.5093,-27.1865],[-54.5289,-27.2074],[-54.5136,-27.2294],[-54.5134,-27.258]]]},"properties":{"id":353,"departamento":"GUARANI","cabecera":"EL SOBERBIO","provincia":"MISIONES"}},
{"type":"Feature","geometry":{"type":"Polygon","coordinates":[[[-54.9187,-27.3571],[-54.9085,-27.384],[-54.9173,-27.3887],[-54.9159,-27.416],[-54.9299,-27.4455],[-54.8983,-27.4835],[-54.8665,-27.5032],[-54.8738,-27.5157],[-54.8601,-27.5317],[-54.8682,-27.5489],[-54.8522,-27.5638],[-54.8685,-27.5786],[-54.858,-27.5953],[-54.8388,-27.6012],[-54.8284,-27.5608],[-54.8125,-27.5326],[-54.7943,-27.5369],[-54.7829,-27.5815],[-54.7612,-27.5835],[-54.746,-27.5642],[-54.7295,-27.5621],[-54.6828,-27.5749],[-54.6703,-27.5641],[-54.6804,-27.5263],[-54.6782,-27.5101],[-54.6584,-27.5121],[-54.6365,-27.5466],[-54.62,-27.5406],[-54.5921,-27.4784],[-54.5907,-27.461],[-54.5716,-27.4544],[-54.5452,-27.4816],[-54.5342,-27.5061],[-54.5215,-27.5049],[-54.5018,-27.4808],[-54.4597,-27.4795],[-54.4424,-27.4611],[-54.4686,-27.439],[-54.4673,-27.4242],[-54.434,-27.4232],[-54.4136,-27.4064],[-54.3966,-27.4125],[-54.3695,-27.4522],[-54.3507,-27.4673],[-54.3338,-27.4475],[-54.3446,-27.4298],[-54.3406,-27.4049],[-54.3261,-27.4073],[-54.3116,-27.3957],[-54.3165,-27.3769],[-54.3009,-27.3601],[-54.3207,-27.349],[-54.3199,-27.3148],[-54.3543,-27.2747],[-54.3671,-27.2476],[-54.3679,-27.2294],[-54.5134,-27.258],[-54.5862,-27.2723],[-54.5868,-27.2512],[-54.605,-27.2365],[-54.5939,-27.2219],[-54.6075,-27.2089],[-54.6243,-27.2083],[-54.6129,-27.1622],[-54.7174,-27.1634],[-54.7009,-27.1965],[-54.7021,-27.2105],[-54.8253,-27.2375],[-54.8196,-27.2573],[-54.833,-27.2747],[-54.8198,-27.2898],[-54.8294,-27.309],[-54.8125,-27.3353],[-54.8354,-27.3533],[-54.8305,-27.3805],[-54.9187,-27.3571]]]},"properties":{"id":354,"departamento":"25 DE MAYO","cabecera":"ALBA POSSE","provincia":"MISIONES"}},
{"type":"Feature","geometry":{"type":"Polygon","coordinates":[[[-55.1005,-27.1795],[-55.1358,-27.18],[-55.1385,-27.2716],[-55.1678,-27.2927],[-55.1857,-27.2883],[-55.1924,-27.3044],[-55.2129,-27.3246],[-55.2484,-27.3347],[-55.274,-27.3367],[-55.2889,-27.3992],[-55.2818,-27.406],[-55.3664,-27.4565],[-55.3511,-27.4533],[-55.3089,-27.4689],[-55.2968,-27.4613],[-55.2614,-27.5044],[-55.2489,-27.5286],[-55.2321,-27.5422],[-55.2501,-27.5571],[-55.1716,-27.6203],[-55.0766,-27.6153],[-55.0608,-27.6334],[-55.0383,-27.6474],[-55.0376,-27.6603],[-55.0207,-27.6864],[-54.9987,-27.7343],[-54.9761,-27.7492],[-54.9762,-27.7711],[-54.9558,-27.7783],[-54.9346,-27.7693],[-54.929,-27.7535],[-54.9064,-27.7309],[-54.9005,-27.6992],[-54.907,-27.6437],[-54.8866,-27.6264],[-54.8601,-27.6296],[-54.8388,-27.6012],[-54.858,-27.5953],[-54.8685,-27.5786],[-54.8522,-27.5638],[-54.8682,-27.5489],[-54.8601,-27.5317],[-54.8738,-27.5157],[-54.8665,-27.5032],[-54.8983,-27.4835],[-54.9299,-27.4455],[-54.9159,-27.416],[-54.9173,-27.3887],[-54.9085,-27.384],[-54.9187,-27.3571],[-54.9378,-27.3688],[-55.0732,-27.1885],[-55.1005,-27.1795]]]},"properties":{"id":355,"departamento":"OBERA","cabecera":"OBERA","provincia":"MISIONES"}},
{"type":"Feature","geometry":{"type":"Polygon","coordinates":[[[-54.1793,-26.3304],[-53.7522,-26.3257],[-53.7776,-26.3807],[-53.7421,-26.4414],[-53.7308,-26.4609],[-53.6986,-26.4632],[-53.7046,-26.443],[-53.699,-26.4234],[-53.7072,-26.3956],[-53.69,-26.3607],[-53.6873,-26.3399],[-53.6703,-26.3255],[-53.6424,-26.2842],[-53.6424,-26.2433],[-53.6534,-26.2355],[-53.6425,-26.2117],[-53.6518,-26.1941],[-53.6811,-26.1642],[-53.6994,-26.1535],[-53.714,-26.1283],[-53.7443,-26.1162],[-53.7426,-26.0818],[-53.7268,-26.0653],[-53.7422,-26.0377],[-53.7711,-26.0204],[-53.7766,-26.006],[-53.818,-25.9903],[-53.8428,-25.9325],[-53.8197,-25.9257],[-53.823,-25.8955],[-53.839,-25.8778],[-53.8317,-25.8598],[-53.8424,-25.8388],[-53.8219,-25.7948],[-53.8376,-25.7731],[-53.8528,-25.7693],[-53.844,-25.7471],[-53.8645,-25.7456],[-53.8674,-25.6952],[-53.851,-25.7062],[-53.8623,-25.6591],[-53.9186,-25.6275],[-53.9424,-25.6187],[-53.9606,-25.631],[-53.9735,-25.6149],[-53.9788,-25.5927],[-54.0011,-25.5816],[-54.0112,-25.5656],[-54.0283,-25.5662],[-54.0405,-25.5838],[-54.0589,-25.581],[-54.0719,-25.5603],[-54.0836,-25.5612],[-54.0903,-25.6146],[-54.1075,-25.611],[-54.1231,-25.5777],[-54.1243,-25.5613],[-54.0966,-25.5224],[-54.092,-25.505],[-54.1027,-25.494],[-54.1259,-25.5057],[-54.1601,-25.5395],[-54.1722,-25.5407],[-54.1724,-25.5763],[-54.1729,-25.6614],[-54.1836,-25.8425],[-54.1785,-25.8531],[-54.184,-25.9425],[-54.1898,-25.9417],[-54.2005,-26.0973],[-54.1487,-26.1161],[-54.1484,-26.1383],[-54.169,-26.215],[-54.1687,-26.2618],[-54.1801,-26.2618],[-54.1793,-26.3304]]]},"properties":{"id":358,"departamento":"GENERAL MANUEL BELGRANO","cabecera":"BERNARDO DE IRIGOYEN","provincia":"MISIONES"}},
{"type":"Feature","geometry":{"type":"Polygon","coordinates":[[[-55.0972,-27.053],[-55.1388,-27.0468],[-55.1701,-27.035],[-55.1826,-26.9943],[-55.1988,-26.9782],[-55.201,-26.974],[-55.2011,-26.9699],[-55.2549,-26.9376],[-55.2737,-26.9425],[-55.3098,-26.9644],[-55.3692,-26.9644],[-55.4198,-26.993],[-55.4391,-27.0142],[-55.4537,-27.0456],[-55.4511,-27.1021],[-55.481,-27.1115],[-55.5491,-27.0982],[-55.5647,-27.1074],[-55.5583,-27.1498],[-55.5748,-27.1688],[-55.605,-27.1601],[-55.6189,-27.1906],[-55.6116,-27.213],[-55.5799,-27.2364],[-55.5721,-27.2639],[-55.6024,-27.2846],[-55.5876,-27.3134],[-55.5577,-27.2958],[-55.5495,-27.293],[-55.5046,-27.2946],[-55.4808,-27.3039],[-55.4765,-27.3378],[-55.4914,-27.3466],[-55.4899,-27.3644],[-55.46,-27.3687],[-55.4392,-27.3817],[-55.4133,-27.3775],[-55.4,-27.3658],[-55.3633,-27.3852],[-55.358,-27.3946],[-55.2889,-27.3992],[-55.274,-27.3367],[-55.2484,-27.3347],[-55.2129,-27.3246],[-55.1924,-27.3044],[-55.1857,-27.2883],[-55.1678,-27.2927],[-55.1385,-27.2716],[-55.1358,-27.18],[-55.1005,-27.1795],[-55.0972,-27.053]]]},"properties":{"id":359,"departamento":"SAN IGNACIO","cabecera":"SAN IGNACIO","provincia":"MISIONES"}},
{"type":"Feature","geometry":{"type":"MultiPolygon","coordinates":[[[[-54.1484,-26.1383],[-54.1487,-26.1161],[-54.2005,-26.0973],[-54.1898,-25.9417],[-54.184,-25.9425],[-54.1785,-25.8531],[-54.1836,-25.8425],[-54.1729,-25.6614],[-54.1724,-25.5793],[-54.2045,-25.5793],[-54.236,-25.5653],[-54.2362,-25.5919],[-54.2615,-25.5878],[-54.2789,-25.5598],[-54.291,-25.5557],[-54.3286,-25.5726],[-54.3515,-25.6071],[-54.3785,-25.5948],[-54.3907,-25.6051],[-54.3955,-25.6385],[-54.425,-25.6613],[-54.4241,-25.6923],[-54.4409,-25.6849],[-54.4451,-25.6657],[-54.4683,-25.6373],[-54.5004,-25.6148],[-54.5265,-25.6292],[-54.537,-25.6198],[-54.5346,-25.598],[-54.5568,-25.5876],[-54.5933,-25.5933],[-54.5963,-25.6263],[-54.5828,-25.6525],[-54.5837,-25.6663],[-54.6074,-25.6684],[-54.6304,-25.6595],[-54.6501,-25.6645],[-54.6565,-25.6909],[-54.6406,-25.7198],[-54.6322,-25.7624],[-54.5865,-25.8318],[-54.597,-25.8642],[-54.6239,-25.9115],[-54.623,-25.9352],[-54.6088,-25.9605],[-54.6123,-25.9772],[-54.6303,-25.9848],[-54.6595,-25.9786],[-54.6787,-25.989],[-54.6793,-26.0129],[-54.656,-26.057],[-54.6452,-26.086],[-54.6538,-26.1193],[-54.6767,-26.1434],[-54.6572,-26.1776],[-54.6422,-26.1525],[-54.6224,-26.1502],[-54.6076,-26.1637],[-54.5707,-26.1427],[-54.5406,-26.1462],[-54.515,-26.1581],[-54.4716,-26.1391],[-54.4336,-26.1494],[-54.431,-26.1195],[-54.319,-26.1401],[-54.1484,-26.1383]]],[[[-54.1722,-25.5407],[-54.1936,-25.5343],[-54.2083,-25.5536],[-54.1724,-25.5763],[-54.1722,-25.5407]]]]},"properties":{"id":401,"departamento":"IGUAZU","cabecera":"PUERTO ESPERANZA","provincia":"MISIONES"}}
]}