{"type":"FeatureCollection", "features": [
{"type":"Feature","geometry":{"type":"Polygon","coordinates":[[[-70.9579,-39.5226],[-70.9745,-39.5312],[-70.9879,-39.5329],[-71.0016,-39.5195],[-71.0085,-39.5202],[-71.0095,-39.5253],[-71.0178,-39.5235],[-71.0339,-39.5233],[-71.0498,-39.5248],[-71.057,-39.5177],[-71.0652,-39.5142],[-71.0673,-39.5214],[-71.086,-39.5169],[-71.1049,-39.523],[-71.115,-39.5187],[-71.1339,-39.5177],[-71.1456,-39.5216],[-71.1558,-39.5291],[-71.162,-39.5241],[-71.1747,-39.5211],[-71.1854,-39.5046],[-71.1916,-39.4889],[-71.191,-39.4856],[-71.2036,-39.476],[-71.2007,-39.4689],[-71.209,-39.4646],[-71.2189,-39.4699],[-71.231,-39.466],[-71.2351,-39.4622],[-71.2385,-39.4495],[-71.2454,-39.4479],[-71.2527,-39.4545],[-71.2557,-39.465],[-71.2705,-39.4695],[-71.2838,-39.4805],[-71.2884,-39.48],[-71.2971,-39.4702],[-71.3075,-39.4693],[-71.3122,-39.4757],[-71.327,-39.4784],[-71.3334,-39.4827],[-71.341,-39.4783],[-71.3581,-39.4722],[-71.3654,-39.4658],[-71.3804,-39.4696],[-71.3903,-39.4558],[-71.3999,-39.4559],[-71.4034,-39.456],[-71.4269,-39.4542],[-71.437,-39.4584],[-71.4479,-39.4513],[-71.4618,-39.4541],[-71.466,-39.4607],[-71.4631,-39.4707],[-71.4691,-39.4787],[-71.4729,-39.4933],[-71.4892,-39.4956],[-71.5195,-39.5066],[-71.518,-39.512],[-71.5299,-39.5196],[-71.5344,-39.5304],[-71.5304,-39.539],[-71.5149,-39.5451],[-71.5045,-39.5601],[-71.4969,-39.5565],[-71.4791,-39.5521],[-71.4703,-39.5536],[-71.4677,-39.5606],[-71.4757,-39.5679],[-71.4729,-39.577],[-71.4611,-39.5829],[-71.4708,-39.5912],[-71.4769,-39.6001],[-71.4798,-39.6088],[-71.4956,-39.6178],[-71.5017,-39.6377],[-71.5115,-39.631],[-71.5233,-39.6269],[-71.541,-39.6243],[-71.5589,-39.6279],[-71.563,-39.6328],[-71.5763,-39.6357],[-71.584,-39.632],[-71.6015,-39.6274],[-71.6101,-39.6282],[-71.6143,-39.6223],[-71.6118,-39.6144],[-71.6154,-39.61],[-71.618,-39.5985],[-71.6239,-39.5922],[-71.6362,-39.5858],[-71.6451,-39.5878],[-71.6561,-39.5875],[-71.6578,-39.5811],[-71.6727,-39.5682],[-71.6749,-39.5636],[-71.6841,-39.5678],[-71.6894,-39.5743],[-71.69,-39.582],[-71.6988,-39.5886],[-71.6992,-39.5968],[-71.6958,-39.6041],[-71.6982,-39.615],[-71.6949,-39.6239],[-71.7008,-39.6332],[-71.7144,-39.6332],[-71.7162,-39.6505],[-71.7096,-39.6512],[-71.6985,-39.6589],[-71.6943,-39.6579],[-71.6888,-39.6769],[-71.6847,-39.6793],[-71.6731,-39.6778],[-71.6695,-39.6822],[-71.6709,-39.6921],[-71.6841,-39.6913],[-71.6916,-39.6957],[-71.7001,-39.6934],[-71.7026,-39.7018],[-71.6937,-39.707],[-71.7003,-39.7109],[-71.7039,-39.7218],[-71.7114,-39.7258],[-71.7081,-39.7378],[-71.7022,-39.746],[-71.6898,-39.7552],[-71.6833,-39.7623],[-71.6816,-39.771],[-71.6858,-39.7764],[-71.6806,-39.7834],[-71.6785,-39.7912],[-71.6806,-39.8033],[-71.6716,-39.8048],[-71.6731,-39.8112],[-71.6792,-39.8116],[-71.6823,-39.8197],[-71.6918,-39.8242],[-71.6856,-39.8341],[-71.6918,-39.839],[-71.6855,-39.8554],[-71.6691,-39.8636],[-71.656,-39.8559],[-71.6463,-39.8525],[-71.6358,-39.859],[-71.6363,-39.8719],[-71.633,-39.8825],[-71.6113,-39.8779],[-71.5963,-39.8905],[-71.5927,-39.9015],[-71.5962,-39.9044],[-71.5929,-39.9113],[-71.6027,-39.9166],[-71.598,-39.9267],[-71.6148,-39.9375],[-71.6255,-39.9384],[-71.6143,-39.9568],[-71.6192,-39.9627],[-71.6184,-39.9697],[-71.6243,-39.9764],[-71.6326,-39.9687],[-71.6501,-39.9709],[-71.6513,-39.978],[-71.6668,-39.9942],[-71.6709,-40.0007],[-71.6701,-40.0137],[-71.6747,-40.0241],[-71.6615,-40.0272],[-71.6517,-40.0319],[-71.6469,-40.0391],[-71.6279,-40.0367],[-71.6204,-40.0402],[-71.6037,-40.0398],[-71.5977,-40.037],[-71.5936,-40.0288],[-71.5505,-40.0342],[-71.5425,-40.0331],[-71.5339,-40.0344],[-71.5248,-40.0386],[-71.5127,-40.0384],[-71.4846,-40.0284],[-71.4425,-40.0303],[-71.4183,-40.0298],[-71.3928,-40.0249],[-71.3744,-40.0246],[-71.3649,-40.029],[-71.3513,-40.0448],[-71.3308,-40.0644],[-71.317,-40.071],[-71.3039,-40.0715],[-71.3012,-40.0763],[-71.2806,-40.0879],[-71.2794,-40.0923],[-71.2699,-40.0924],[-71.255,-40.0875],[-71.2487,-40.089],[-71.2427,-40.0987],[-71.2373,-40.0992],[-71.2276,-40.0928],[-71.1948,-40.0946],[-71.1906,-40.0975],[-71.1803,-40.0979],[-71.1736,-40.0943],[-71.1632,-40.0808],[-71.157,-40.0811],[-71.1486,-40.0733],[-71.1371,-40.0718],[-71.1056,-40.0599],[-71.0976,-40.0611],[-71.0834,-40.058],[-71.0701,-40.0568],[-71.0645,-40.0617],[-71.0585,-40.0614],[-71.0561,-40.0703],[-71.0484,-40.0767],[-71.0428,-40.0754],[-71.0318,-40.082],[-71.0229,-40.0906],[-71.0109,-40.0953],[-70.9991,-40.096],[-70.9833,-40.1024],[-70.9759,-40.1001],[-70.9661,-40.105],[-70.9479,-40.1074],[-70.9339,-40.0961],[-70.9205,-40.0899],[-70.9122,-40.0893],[-70.8982,-40.0765],[-70.8769,-40.0661],[-70.8738,-40.0668],[-70.842,-40.0613],[-70.8238,-40.0606],[-70.8153,-40.0622],[-70.814,-40.0562],[-70.8231,-40.0454],[-70.8288,-40.0415],[-70.8349,-40.0297],[-70.8393,-40.026],[-70.8327,-40.016],[-70.8319,-40.0092],[-70.827,-40.005],[-70.8365,-39.9955],[-70.8434,-39.992],[-70.8451,-39.9842],[-70.8408,-39.9755],[-70.8399,-39.9662],[-70.8472,-39.9592],[-70.8457,-39.9526],[-70.8299,-39.9492],[-70.8392,-39.9395],[-70.8405,-39.9283],[-70.846,-39.9221],[-70.8454,-39.9101],[-70.8483,-39.9022],[-70.8421,-39.8989],[-70.8396,-39.8888],[-70.8339,-39.8775],[-70.8549,-39.8637],[-70.8621,-39.8612],[-70.8643,-39.8419],[-70.8734,-39.8259],[-70.8698,-39.8126],[-70.8713,-39.8023],[-70.8747,-39.7946],[-70.8998,-39.781],[-70.9054,-39.7807],[-70.9144,-39.7754],[-70.9208,-39.7791],[-70.9288,-39.768],[-70.9327,-39.7668],[-70.9369,-39.7538],[-70.9291,-39.7491],[-70.9201,-39.7509],[-70.9081,-39.7398],[-70.8943,-39.7432],[-70.882,-39.7362],[-70.8819,-39.7313],[-70.8929,-39.7269],[-70.9011,-39.7125],[-70.8985,-39.7002],[-70.8918,-39.6945],[-70.8929,-39.688],[-70.8858,-39.6787],[-70.8849,-39.6663],[-70.9,-39.669],[-70.9139,-39.6616],[-70.9217,-39.6637],[-70.9348,-39.6632],[-70.937,-39.6517],[-70.9458,-39.6462],[-70.9363,-39.6312],[-70.9408,-39.6209],[-70.9335,-39.6128],[-70.9383,-39.6032],[-70.9351,-39.5944],[-70.9389,-39.5868],[-70.9444,-39.5834],[-70.9581,-39.582],[-70.9551,-39.5757],[-70.9675,-39.5698],[-70.9713,-39.5596],[-70.9562,-39.5532],[-70.9583,-39.5456],[-70.9565,-39.5393],[-70.9579,-39.5226]]]},"properties":{"id":459,"departamento":"HUILICHES","cabecera":"JUNIN DE LOS ANDES","provincia":"NEUQUEN"}},
{"type":"Feature","geometry":{"type":"Polygon","coordinates":[[[-70.8396,-39.8888],[-70.8343,-39.8907],[-70.8232,-39.8851],[-70.8246,-39.8823],[-70.8101,-39.8742],[-70.8109,-39.8687],[-70.8199,-39.8588],[-70.8212,-39.8509],[-70.8128,-39.8413],[-70.8161,-39.8333],[-70.8139,-39.8249],[-70.7314,-39.8896],[-70.6888,-39.8587],[-70.644,-39.8951],[-70.556,-39.8304],[-70.3477,-39.6782],[-70.1743,-39.8179],[-70.0899,-39.7556],[-69.8369,-39.568],[-70.0281,-39.4154],[-69.8985,-39.3183],[-69.9081,-39.313],[-69.9197,-39.3116],[-69.9229,-39.302],[-69.9286,-39.3004],[-69.9453,-39.2829],[-69.9526,-39.2853],[-69.9644,-39.2812],[-69.9718,-39.2763],[-69.98,-39.2796],[-69.9841,-39.2717],[-70.0106,-39.2626],[-70.0167,-39.2569],[-70.0358,-39.2532],[-70.0521,-39.2441],[-70.0523,-39.2375],[-70.0586,-39.2241],[-70.0583,-39.2154],[-70.0615,-39.2123],[-70.0854,-39.2038],[-70.1063,-39.2043],[-70.1213,-39.1985],[-70.1373,-39.198],[-70.15,-39.1908],[-70.1676,-39.1954],[-70.173,-39.1931],[-70.1794,-39.1967],[-70.1918,-39.1903],[-70.2023,-39.1907],[-70.2084,-39.1944],[-70.233,-39.1951],[-70.2378,-39.1982],[-70.2467,-39.1924],[-70.2658,-39.1853],[-70.2934,-39.1612],[-70.2947,-39.1514],[-70.3039,-39.1487],[-70.3116,-39.1424],[-70.3156,-39.133],[-70.3222,-39.135],[-70.3273,-39.1302],[-70.3517,-39.1257],[-70.3648,-39.1196],[-70.3719,-39.1259],[-70.3845,-39.1301],[-70.6115,-39.1226],[-70.6102,-39.1098],[-70.6158,-39.1057],[-70.6101,-39.0999],[-70.6118,-39.0894],[-70.6168,-39.0871],[-70.6246,-39.0759],[-70.6248,-39.0626],[-70.6347,-39.0564],[-70.6468,-39.0515],[-70.6658,-39.0545],[-70.6803,-39.0498],[-70.6922,-39.0359],[-70.6905,-39.0301],[-70.6995,-39.0235],[-70.7,-39.0173],[-70.7075,-39.0138],[-70.7136,-39.0201],[-70.7171,-39.036],[-70.7305,-39.041],[-70.742,-39.0497],[-70.7415,-39.0654],[-70.7292,-39.0745],[-70.7273,-39.087],[-70.7358,-39.103],[-70.737,-39.1176],[-70.7296,-39.126],[-70.7307,-39.1323],[-70.7274,-39.1387],[-70.7305,-39.1458],[-70.7288,-39.1554],[-70.7328,-39.1581],[-70.7325,-39.1772],[-70.734,-39.1847],[-70.731,-39.1903],[-70.7328,-39.1983],[-70.7369,-39.2001],[-70.7389,-39.2091],[-70.7444,-39.218],[-70.7422,-39.2216],[-70.7478,-39.2412],[-70.7364,-39.2501],[-70.7329,-39.2616],[-70.7288,-39.2655],[-70.7271,-39.275],[-70.7402,-39.2835],[-70.7531,-39.2867],[-70.7591,-39.2859],[-70.7652,-39.2927],[-70.7677,-39.3011],[-70.7785,-39.3122],[-70.7775,-39.3272],[-70.7745,-39.3322],[-70.7878,-39.3489],[-70.7858,-39.3604],[-70.8134,-39.3729],[-70.8016,-39.3865],[-70.7926,-39.3927],[-70.7665,-39.3943],[-70.765,-39.3976],[-70.7737,-39.4065],[-70.7791,-39.4172],[-70.7729,-39.4262],[-70.7695,-39.4363],[-70.7586,-39.4326],[-70.7537,-39.4382],[-70.7581,-39.446],[-70.7515,-39.4649],[-70.7554,-39.4661],[-70.7653,-39.4615],[-70.778,-39.4628],[-70.802,-39.4684],[-70.8179,-39.4787],[-70.8277,-39.4798],[-70.8367,-39.4868],[-70.8313,-39.4964],[-70.837,-39.5117],[-70.8448,-39.5165],[-70.852,-39.5242],[-70.8652,-39.5278],[-70.8767,-39.5246],[-70.8815,-39.5299],[-70.8774,-39.5354],[-70.8841,-39.5384],[-70.8984,-39.534],[-70.9179,-39.5348],[-70.9267,-39.5397],[-70.9435,-39.5343],[-70.9452,-39.5301],[-70.9579,-39.5226],[-70.9565,-39.5393],[-70.9583,-39.5456],[-70.9562,-39.5532],[-70.9713,-39.5596],[-70.9675,-39.5698],[-70.9551,-39.5757],[-70.9581,-39.582],[-70.9444,-39.5834],[-70.9389,-39.5868],[-70.9351,-39.5944],[-70.9383,-39.6032],[-70.9335,-39.6128],[-70.9408,-39.6209],[-70.9363,-39.6312],[-70.9458,-39.6462],[-70.937,-39.6517],[-70.9348,-39.6632],[-70.9217,-39.6637],[-70.9139,-39.6616],[-70.9,-39.669],[-70.8849,-39.6663],[-70.8858,-39.6787],[-70.8929,-39.688],[-70.8918,-39.6945],[-70.8985,-39.7002],[-70.9011,-39.7125],[-70.8929,-39.7269],[-70.8819,-39.7313],[-70.882,-39.7362],[-70.8943,-39.7432],[-70.9081,-39.7398],[-70.9201,-39.7509],[-70.9291,-39.7491],[-70.9369,-39.7538],[-70.9327,-39.7668],[-70.9288,-39.768],[-70.9208,-39.7791],[-70.9144,-39.7754],[-70.9054,-39.7807],[-70.8998,-39.781],[-70.8747,-39.7946],[-70.8713,-39.8023],[-70.8698,-39.8126],[-70.8734,-39.8259],[-70.8643,-39.8419],[-70.8621,-39.8612],[-70.8549,-39.8637],[-70.8339,-39.8775],[-70.8396,-39.8888]]]},"properties":{"id":460,"departamento":"CATAN LIL","cabecera":"LAS COLORADAS","provincia":"NEUQUEN"}},
{"type":"Feature","geometry":{"type":"Polygon","coordinates":[[[-71.7089,-40.4224],[-71.7096,-40.4251],[-71.7253,-40.4282],[-71.7383,-40.4403],[-71.7557,-40.4294],[-71.7551,-40.421],[-71.7602,-40.4164],[-71.7774,-40.4203],[-71.783,-40.4105],[-71.7892,-40.408],[-71.8082,-40.4064],[-71.8254,-40.4221],[-71.8199,-40.4318],[-71.8269,-40.4367],[-71.8416,-40.4532],[-71.8391,-40.4649],[-71.8468,-40.4789],[-71.8406,-40.4855],[-71.8447,-40.4966],[-71.8557,-40.5094],[-71.8525,-40.52],[-71.8451,-40.5198],[-71.8427,-40.5249],[-71.852,-40.5261],[-71.8611,-40.5398],[-71.8584,-40.5545],[-71.867,-40.5573],[-71.8748,-40.5541],[-71.8865,-40.5528],[-71.8905,-40.5565],[-71.8856,-40.563],[-71.8772,-40.5642],[-71.8756,-40.5704],[-71.867,-40.5763],[-71.8675,-40.5799],[-71.8563,-40.5926],[-71.8482,-40.5859],[-71.838,-40.5857],[-71.8247,-40.5782],[-71.8406,-40.5979],[-71.8378,-40.6096],[-71.842,-40.6179],[-71.844,-40.6279],[-71.8532,-40.6378],[-71.8681,-40.6498],[-71.8669,-40.6632],[-71.8868,-40.6682],[-71.8905,-40.6744],[-71.9007,-40.682],[-71.9196,-40.6887],[-71.9257,-40.6961],[-71.9349,-40.7014],[-71.9496,-40.7199],[-71.9608,-40.7184],[-71.964,-40.727],[-71.9614,-40.7298],[-71.9657,-40.7456],[-71.9551,-40.7504],[-71.9584,-40.758],[-71.9531,-40.7647],[-71.9376,-40.7746],[-71.9307,-40.7765],[-71.9223,-40.7831],[-71.9263,-40.7922],[-71.9292,-40.8187],[-71.9233,-40.8299],[-71.9272,-40.8336],[-71.9081,-40.8469],[-71.9107,-40.8505],[-71.9083,-40.858],[-71.8953,-40.867],[-71.89,-40.8731],[-71.8788,-40.8816],[-71.8633,-40.8776],[-71.8587,-40.8827],[-71.869,-40.8915],[-71.8661,-40.9067],[-71.8599,-40.9174],[-71.8628,-40.9206],[-71.8623,-40.9339],[-71.8546,-40.9463],[-71.8572,-40.9603],[-71.8741,-40.9601],[-71.886,-40.9677],[-71.8991,-40.9609],[-71.9059,-40.9626],[-71.9088,-40.972],[-71.9054,-40.9796],[-71.8893,-40.9883],[-71.8773,-40.9977],[-71.8714,-41.0047],[-71.8744,-41.0106],[-71.8652,-41.0161],[-71.8597,-41.0299],[-71.8443,-41.0244],[-71.8343,-41.0298],[-71.818,-41.0231],[-71.7853,-41.0188],[-71.7688,-41.0196],[-71.7483,-41.0225],[-71.733,-41.0229],[-71.7027,-41.0218],[-71.6562,-41.0311],[-71.6326,-41.0346],[-71.6076,-41.0349],[-71.5577,-41.0224],[-71.5352,-41.0273],[-71.5174,-41.0333],[-71.5028,-41.0367],[-71.4794,-41.0383],[-71.4564,-41.0417],[-71.44,-41.0503],[-71.4225,-41.0622],[-71.3607,-41.0887],[-71.3438,-41.0938],[-71.3062,-41.1001],[-71.2886,-41.1006],[-71.2521,-41.0979],[-71.2405,-41.0951],[-71.2214,-41.0876],[-71.1749,-41.0562],[-71.1607,-41.0536],[-71.1474,-41.0572],[-71.1393,-41.0551],[-71.1297,-41.0465],[-71.1259,-41.0374],[-71.1251,-41.0224],[-71.1195,-41.0191],[-71.1146,-41.0074],[-71.108,-41.007],[-71.0986,-41.0003],[-71.1027,-40.9914],[-71.0743,-40.9838],[-71.0707,-40.9804],[-71.0586,-40.9796],[-71.0534,-40.9671],[-71.0486,-40.9616],[-71.0377,-40.958],[-71.0374,-40.9427],[-71.0321,-40.9313],[-71.0362,-40.925],[-71.0319,-40.9192],[-71.0353,-40.9151],[-71.0344,-40.9038],[-71.0392,-40.8962],[-71.0398,-40.8887],[-71.0458,-40.885],[-71.0493,-40.8714],[-71.0565,-40.8699],[-71.0602,-40.86],[-71.0724,-40.8507],[-71.0773,-40.8538],[-71.086,-40.8535],[-71.0912,-40.8434],[-71.1016,-40.8395],[-71.1016,-40.8352],[-71.0934,-40.8329],[-71.0935,-40.8257],[-71.1016,-40.8222],[-71.0998,-40.8141],[-71.1179,-40.8051],[-71.1191,-40.7929],[-71.1174,-40.7832],[-71.123,-40.7797],[-71.1175,-40.7667],[-71.1196,-40.759],[-71.1015,-40.7462],[-71.1022,-40.7399],[-71.0968,-40.7294],[-71.0848,-40.7245],[-71.0695,-40.7297],[-71.0556,-40.728],[-71.0442,-40.7291],[-71.0331,-40.7259],[-71.0251,-40.7208],[-71.0268,-40.7129],[-71.0147,-40.6999],[-71.0158,-40.6886],[-71.0118,-40.6793],[-70.9955,-40.6688],[-70.9848,-40.6562],[-70.9765,-40.6487],[-70.9608,-40.6416],[-70.9448,-40.639],[-70.9323,-40.6387],[-70.9215,-40.6325],[-70.8976,-40.6217],[-70.883,-40.6215],[-70.8731,-40.6148],[-70.8719,-40.6047],[-70.8649,-40.597],[-71.0542,-40.5959],[-71.1476,-40.5954],[-71.1526,-40.5992],[-71.1713,-40.5873],[-71.1773,-40.5881],[-71.1978,-40.5826],[-71.2024,-40.5852],[-71.2178,-40.5881],[-71.2497,-40.589],[-71.2663,-40.5886],[-71.2746,-40.5949],[-71.2911,-40.5902],[-71.2956,-40.586],[-71.3066,-40.5842],[-71.3079,-40.5757],[-71.3146,-40.5723],[-71.3281,-40.5697],[-71.336,-40.5614],[-71.3348,-40.5562],[-71.3474,-40.5492],[-71.3562,-40.5403],[-71.3713,-40.5358],[-71.3864,-40.5389],[-71.402,-40.5358],[-71.4097,-40.5309],[-71.4151,-40.5315],[-71.4239,-40.5274],[-71.433,-40.5348],[-71.4491,-40.5368],[-71.4513,-40.5295],[-71.4653,-40.52],[-71.4768,-40.5211],[-71.4957,-40.5103],[-71.5035,-40.5101],[-71.5236,-40.4976],[-71.5364,-40.4959],[-71.5398,-40.4796],[-71.5466,-40.4751],[-71.5498,-40.4686],[-71.5659,-40.4631],[-71.5671,-40.4588],[-71.5766,-40.4517],[-71.5856,-40.4526],[-71.6093,-40.4591],[-71.6071,-40.4514],[-71.6145,-40.445],[-71.6294,-40.4487],[-71.6423,-40.4442],[-71.6553,-40.4505],[-71.6573,-40.4498],[-71.6637,-40.4429],[-71.6751,-40.4427],[-71.681,-40.436],[-71.696,-40.4334],[-71.6983,-40.4286],[-71.7089,-40.4224]]]},"properties":{"id":456,"departamento":"LOS LAGOS","cabecera":"VILLA LA ANGOSTURA","provincia":"NEUQUEN"}},
{"type":"Feature","geometry":{"type":"Polygon","coordinates":[[[-71.6747,-40.0241],[-71.6859,-40.0288],[-71.6892,-40.0355],[-71.6857,-40.0445],[-71.6712,-40.0628],[-71.6665,-40.0751],[-71.6737,-40.0833],[-71.6665,-40.0886],[-71.6706,-40.1002],[-71.6755,-40.1057],[-71.6906,-40.1105],[-71.6898,-40.1154],[-71.7005,-40.1169],[-71.7082,-40.1115],[-71.7184,-40.11],[-71.7351,-40.1004],[-71.7438,-40.0992],[-71.7711,-40.0897],[-71.7881,-40.0892],[-71.8131,-40.0805],[-71.8204,-40.0879],[-71.827,-40.0898],[-71.826,-40.0972],[-71.8311,-40.107],[-71.8242,-40.1109],[-71.8113,-40.1045],[-71.8004,-40.113],[-71.8071,-40.1246],[-71.8012,-40.1292],[-71.8007,-40.1346],[-71.8097,-40.1373],[-71.8137,-40.1464],[-71.8088,-40.1509],[-71.8126,-40.1575],[-71.8181,-40.1579],[-71.822,-40.1676],[-71.8278,-40.1711],[-71.819,-40.1805],[-71.7998,-40.1866],[-71.8069,-40.1934],[-71.8126,-40.2028],[-71.8271,-40.2054],[-71.8301,-40.2159],[-71.8233,-40.2331],[-71.808,-40.2327],[-71.8042,-40.2418],[-71.7971,-40.2473],[-71.7997,-40.2549],[-71.7852,-40.2611],[-71.7876,-40.266],[-71.7615,-40.2785],[-71.7573,-40.2838],[-71.7556,-40.2924],[-71.7607,-40.298],[-71.7468,-40.3071],[-71.7363,-40.3064],[-71.7279,-40.2932],[-71.7196,-40.2884],[-71.7155,-40.2794],[-71.7081,-40.2847],[-71.7031,-40.2833],[-71.6986,-40.2896],[-71.6858,-40.2935],[-71.6788,-40.3046],[-71.6716,-40.3111],[-71.6757,-40.3291],[-71.6712,-40.3313],[-71.6696,-40.3385],[-71.674,-40.3435],[-71.6562,-40.3501],[-71.6577,-40.364],[-71.6645,-40.3673],[-71.6933,-40.3749],[-71.6908,-40.3939],[-71.6925,-40.4049],[-71.7089,-40.4224],[-71.6983,-40.4286],[-71.696,-40.4334],[-71.681,-40.436],[-71.6751,-40.4427],[-71.6637,-40.4429],[-71.6573,-40.4498],[-71.6553,-40.4505],[-71.6423,-40.4442],[-71.6294,-40.4487],[-71.6145,-40.445],[-71.6071,-40.4514],[-71.6093,-40.4591],[-71.5856,-40.4526],[-71.5766,-40.4517],[-71.5671,-40.4588],[-71.5659,-40.4631],[-71.5498,-40.4686],[-71.5466,-40.4751],[-71.5398,-40.4796],[-71.5364,-40.4959],[-71.5236,-40.4976],[-71.5035,-40.5101],[-71.4957,-40.5103],[-71.4768,-40.5211],[-71.4653,-40.52],[-71.4513,-40.5295],[-71.4491,-40.5368],[-71.433,-40.5348],[-71.4239,-40.5274],[-71.4151,-40.5315],[-71.4097,-40.5309],[-71.402,-40.5358],[-71.3864,-40.5389],[-71.3713,-40.5358],[-71.3562,-40.5403],[-71.3474,-40.5492],[-71.3348,-40.5562],[-71.336,-40.5614],[-71.3281,-40.5697],[-71.3146,-40.5723],[-71.3079,-40.5757],[-71.3066,-40.5842],[-71.2956,-40.586],[-71.2911,-40.5902],[-71.2746,-40.5949],[-71.2663,-40.5886],[-71.2497,-40.589],[-71.2178,-40.5881],[-71.2024,-40.5852],[-71.1978,-40.5826],[-71.1773,-40.5881],[-71.1713,-40.5873],[-71.1526,-40.5992],[-71.1476,-40.5954],[-71.0542,-40.5959],[-70.8649,-40.597],[-70.8554,-40.5934],[-70.7951,-40.5906],[-70.7771,-40.584],[-70.7478,-40.5858],[-70.737,-40.5813],[-70.7287,-40.5818],[-70.7123,-40.5918],[-70.6869,-40.5949],[-70.6709,-40.5947],[-70.6539,-40.5913],[-70.6428,-40.5848],[-70.6294,-40.5584],[-70.6214,-40.5515],[-70.5956,-40.5376],[-70.5844,-40.533],[-70.5583,-40.5251],[-70.5497,-40.521],[-70.544,-40.5134],[-70.5464,-40.5053],[-70.5322,-40.5045],[-70.5381,-40.4989],[-70.556,-40.4926],[-70.5767,-40.49],[-70.6026,-40.4962],[-70.614,-40.4905],[-70.6265,-40.4723],[-70.651,-40.4544],[-70.6522,-40.4337],[-70.6636,-40.4213],[-70.6691,-40.4095],[-70.6765,-40.3983],[-70.6731,-40.3874],[-70.6635,-40.3786],[-70.6664,-40.3741],[-70.6825,-40.3712],[-70.6919,-40.3617],[-70.693,-40.3563],[-70.676,-40.3387],[-70.6723,-40.3291],[-70.6614,-40.3163],[-70.657,-40.305],[-70.6661,-40.2978],[-70.6623,-40.2894],[-70.6709,-40.2817],[-70.6654,-40.2636],[-70.6601,-40.2628],[-70.6555,-40.256],[-70.6543,-40.2469],[-70.6397,-40.2429],[-70.6415,-40.2339],[-70.6563,-40.2297],[-70.6637,-40.2227],[-70.6596,-40.213],[-70.6679,-40.2076],[-70.6672,-40.2016],[-70.6866,-40.1942],[-70.6989,-40.1847],[-70.6963,-40.1798],[-70.7019,-40.1723],[-70.712,-40.1663],[-70.7112,-40.1572],[-70.7254,-40.1536],[-70.7257,-40.1496],[-70.7372,-40.1449],[-70.7332,-40.1367],[-70.742,-40.13],[-70.7418,-40.1256],[-70.7484,-40.1201],[-70.7537,-40.1102],[-70.7532,-40.1038],[-70.7635,-40.0967],[-70.7746,-40.0988],[-70.7819,-40.097],[-70.7809,-40.0903],[-70.7863,-40.089],[-70.7899,-40.08],[-70.802,-40.076],[-70.8029,-40.068],[-70.8153,-40.0622],[-70.8238,-40.0606],[-70.842,-40.0613],[-70.8738,-40.0668],[-70.8769,-40.0661],[-70.8982,-40.0765],[-70.9122,-40.0893],[-70.9205,-40.0899],[-70.9339,-40.0961],[-70.9479,-40.1074],[-70.9661,-40.105],[-70.9759,-40.1001],[-70.9833,-40.1024],[-70.9991,-40.096],[-71.0109,-40.0953],[-71.0229,-40.0906],[-71.0318,-40.082],[-71.0428,-40.0754],[-71.0484,-40.0767],[-71.0561,-40.0703],[-71.0585,-40.0614],[-71.0645,-40.0617],[-71.0701,-40.0568],[-71.0834,-40.058],[-71.0976,-40.0611],[-71.1056,-40.0599],[-71.1371,-40.0718],[-71.1486,-40.0733],[-71.157,-40.0811],[-71.1632,-40.0808],[-71.1736,-40.0943],[-71.1803,-40.0979],[-71.1906,-40.0975],[-71.1948,-40.0946],[-71.2276,-40.0928],[-71.2373,-40.0992],[-71.2427,-40.0987],[-71.2487,-40.089],[-71.255,-40.0875],[-71.2699,-40.0924],[-71.2794,-40.0923],[-71.2806,-40.0879],[-71.3012,-40.0763],[-71.3039,-40.0715],[-71.317,-40.071],[-71.3308,-40.0644],[-71.3513,-40.0448],[-71.3649,-40.029],[-71.3744,-40.0246],[-71.3928,-40.0249],[-71.4183,-40.0298],[-71.4425,-40.0303],[-71.4846,-40.0284],[-71.5127,-40.0384],[-71.5248,-40.0386],[-71.5339,-40.0344],[-71.5425,-40.0331],[-71.5505,-40.0342],[-71.5936,-40.0288],[-71.5977,-40.037],[-71.6037,-40.0398],[-71.6204,-40.0402],[-71.6279,-40.0367],[-71.6469,-40.0391],[-71.6517,-40.0319],[-71.6615,-40.0272],[-71.6747,-40.0241]]]},"properties":{"id":457,"departamento":"LACAR","cabecera":"SAN MARTIN DE LOS ANDES","provincia":"NEUQUEN"}},
{"type":"Feature","geometry":{"type":"Polygon","coordinates":[[[-70.8153,-40.0622],[-70.8029,-40.068],[-70.802,-40.076],[-70.7899,-40.08],[-70.7863,-40.089],[-70.7809,-40.0903],[-70.7819,-40.097],[-70.7746,-40.0988],[-70.7635,-40.0967],[-70.7532,-40.1038],[-70.7537,-40.1102],[-70.7484,-40.1201],[-70.7418,-40.1256],[-70.742,-40.13],[-70.7332,-40.1367],[-70.7372,-40.1449],[-70.7257,-40.1496],[-70.7254,-40.1536],[-70.7112,-40.1572],[-70.712,-40.1663],[-70.7019,-40.1723],[-70.6963,-40.1798],[-70.6989,-40.1847],[-70.6866,-40.1942],[-70.6672,-40.2016],[-70.6679,-40.2076],[-70.6596,-40.213],[-70.6637,-40.2227],[-70.6563,-40.2297],[-70.6415,-40.2339],[-70.6397,-40.2429],[-70.6543,-40.2469],[-70.6555,-40.256],[-70.6601,-40.2628],[-70.6654,-40.2636],[-70.6709,-40.2817],[-70.6623,-40.2894],[-70.6661,-40.2978],[-70.657,-40.305],[-70.6614,-40.3163],[-70.6723,-40.3291],[-70.676,-40.3387],[-70.693,-40.3563],[-70.6919,-40.3617],[-70.6825,-40.3712],[-70.6664,-40.3741],[-70.6635,-40.3786],[-70.6731,-40.3874],[-70.6765,-40.3983],[-70.6691,-40.4095],[-70.6636,-40.4213],[-70.6522,-40.4337],[-70.651,-40.4544],[-70.6265,-40.4723],[-70.614,-40.4905],[-70.6026,-40.4962],[-70.5767,-40.49],[-70.556,-40.4926],[-70.5381,-40.4989],[-70.5322,-40.5045],[-70.5256,-40.5074],[-70.5135,-40.5031],[-70.5021,-40.5092],[-70.462,-40.5134],[-70.4483,-40.5226],[-70.4372,-40.5228],[-70.4284,-40.5354],[-70.4106,-40.5329],[-70.3674,-40.5185],[-70.3139,-40.5083],[-70.2984,-40.5044],[-70.2799,-40.5029],[-70.2473,-40.5054],[-70.2299,-40.5029],[-70.2187,-40.4971],[-70.2051,-40.4971],[-70.1895,-40.4942],[-70.1788,-40.4898],[-70.1706,-40.483],[-70.1681,-40.4743],[-70.1711,-40.4621],[-70.1769,-40.449],[-70.1779,-40.4383],[-70.1749,-40.4276],[-70.1662,-40.4198],[-70.1531,-40.414],[-70.1312,-40.413],[-70.103,-40.4057],[-70.0787,-40.3882],[-70.0627,-40.3746],[-70.0593,-40.361],[-70.0544,-40.3299],[-70.0496,-40.3178],[-70.0501,-40.3022],[-70.0579,-40.2635],[-70.0588,-40.249],[-70.0276,-40.2158],[-70.0078,-40.2084],[-69.9914,-40.1901],[-69.993,-40.1826],[-69.9868,-40.1792],[-69.962,-40.1857],[-69.9503,-40.179],[-69.9556,-40.1667],[-69.9578,-40.1554],[-69.9667,-40.1437],[-69.9696,-40.1365],[-69.968,-40.1263],[-69.9707,-40.121],[-69.9843,-40.1131],[-69.9948,-40.1031],[-69.996,-40.086],[-69.9993,-40.0698],[-70.0054,-40.0474],[-70.0025,-40.0315],[-69.9979,-40.0226],[-69.9863,-40.0136],[-69.9752,-39.996],[-69.9706,-39.978],[-69.9555,-39.9686],[-69.9525,-39.9611],[-69.9349,-39.9562],[-69.9313,-39.9522],[-69.9314,-39.9437],[-69.9161,-39.9367],[-69.9071,-39.9405],[-69.8943,-39.9386],[-69.88,-39.9298],[-69.8799,-39.9214],[-69.873,-39.9189],[-69.8644,-39.9105],[-69.8451,-39.9093],[-69.8406,-39.9028],[-69.8295,-39.9008],[-69.8225,-39.8959],[-69.8162,-39.9],[-69.8089,-39.8985],[-69.7938,-39.8833],[-69.7733,-39.886],[-69.7594,-39.8823],[-69.7488,-39.8715],[-69.7387,-39.8722],[-69.7261,-39.8667],[-69.7186,-39.8576],[-69.71,-39.856],[-69.6987,-39.8472],[-69.6842,-39.8506],[-69.6712,-39.8496],[-69.6616,-39.8461],[-69.6514,-39.8368],[-69.6465,-39.8359],[-69.6351,-39.8429],[-69.6291,-39.8426],[-69.6115,-39.831],[-69.5969,-39.8305],[-69.5875,-39.8154],[-69.5638,-39.8139],[-69.558,-39.8095],[-69.5349,-39.8153],[-69.5282,-39.8143],[-69.6643,-39.7065],[-69.7371,-39.6501],[-69.8369,-39.568],[-70.0899,-39.7556],[-70.1743,-39.8179],[-70.3477,-39.6782],[-70.556,-39.8304],[-70.644,-39.8951],[-70.6888,-39.8587],[-70.7314,-39.8896],[-70.8139,-39.8249],[-70.8161,-39.8333],[-70.8128,-39.8413],[-70.8212,-39.8509],[-70.8199,-39.8588],[-70.8109,-39.8687],[-70.8101,-39.8742],[-70.8246,-39.8823],[-70.8232,-39.8851],[-70.8343,-39.8907],[-70.8396,-39.8888],[-70.8421,-39.8989],[-70.8483,-39.9022],[-70.8454,-39.9101],[-70.846,-39.9221],[-70.8405,-39.9283],[-70.8392,-39.9395],[-70.8299,-39.9492],[-70.8457,-39.9526],[-70.8472,-39.9592],[-70.8399,-39.9662],[-70.8408,-39.9755],[-70.8451,-39.9842],[-70.8434,-39.992],[-70.8365,-39.9955],[-70.827,-40.005],[-70.8319,-40.0092],[-70.8327,-40.016],[-70.8393,-40.026],[-70.8349,-40.0297],[-70.8288,-40.0415],[-70.8231,-40.0454],[-70.814,-40.0562],[-70.8153,-40.0622]]]},"properties":{"id":458,"departamento":"COLLON CURA","cabecera":"PIEDRA DEL AGUILA","provincia":"NEUQUEN"}},
{"type":"Feature","geometry":{"type":"Polygon","coordinates":[[[-69.8369,-39.568],[-69.7371,-39.6501],[-69.6643,-39.7065],[-69.5282,-39.8143],[-69.5221,-39.8128],[-69.5092,-39.8158],[-69.5041,-39.8077],[-69.4987,-39.8057],[-69.4956,-39.7979],[-69.479,-39.7898],[-69.4733,-39.784],[-69.4621,-39.7828],[-69.4509,-39.7787],[-69.4385,-39.7685],[-69.4232,-39.7688],[-69.4107,-39.7584],[-69.4116,-39.7516],[-69.4068,-39.747],[-69.3892,-39.7429],[-69.3912,-39.7338],[-69.3837,-39.7309],[-69.3772,-39.7322],[-69.3703,-39.7289],[-69.3672,-39.7183],[-69.3549,-39.716],[-69.3471,-39.7099],[-69.3494,-39.6933],[-69.343,-39.6804],[-69.3344,-39.679],[-69.3291,-39.6687],[-69.3224,-39.6667],[-69.3208,-39.6605],[-69.314,-39.6539],[-69.3037,-39.6536],[-69.3,-39.6564],[-69.2897,-39.6518],[-69.2937,-39.6455],[-69.2824,-39.6404],[-69.2723,-39.629],[-69.2691,-39.6214],[-69.2779,-39.6162],[-69.2763,-39.6088],[-69.2801,-39.5987],[-69.2635,-39.5909],[-69.2357,-39.5752],[-69.2201,-39.5693],[-69.2033,-39.5658],[-69.1833,-39.5632],[-69.1717,-39.5574],[-69.1419,-39.5349],[-69.1249,-39.5209],[-69.1128,-39.5147],[-69.1073,-39.5147],[-69.0815,-39.5219],[-69.057,-39.5264],[-69.0384,-39.5262],[-69.0197,-39.5201],[-68.9999,-39.5152],[-68.988,-39.506],[-68.9665,-39.4836],[-68.935,-39.4643],[-68.9291,-39.459],[-68.9268,-39.4476],[-68.9279,-39.438],[-68.921,-39.4248],[-68.9125,-39.4179],[-68.8865,-39.4025],[-68.8478,-39.393],[-68.8303,-39.3818],[-68.8198,-39.3689],[-68.9007,-39.3043],[-69.0414,-39.1925],[-69.1622,-39.0955],[-69.286,-38.9999],[-69.3765,-39.0691],[-69.6208,-39.253],[-69.7133,-39.1788],[-69.8985,-39.3183],[-70.0281,-39.4154],[-69.8369,-39.568]]]},"properties":{"id":461,"departamento":"PICUN LEUFU","cabecera":"PICUN LEUFU","provincia":"NEUQUEN"}},
{"type":"Feature","geometry":{"type":"Polygon","coordinates":[[[-70.9579,-39.5226],[-70.9452,-39.5301],[-70.9435,-39.5343],[-70.9267,-39.5397],[-70.9179,-39.5348],[-70.8984,-39.534],[-70.8841,-39.5384],[-70.8774,-39.5354],[-70.8815,-39.5299],[-70.8767,-39.5246],[-70.8652,-39.5278],[-70.852,-39.5242],[-70.8448,-39.5165],[-70.837,-39.5117],[-70.8313,-39.4964],[-70.8367,-39.4868],[-70.8277,-39.4798],[-70.8179,-39.4787],[-70.802,-39.4684],[-70.778,-39.4628],[-70.7653,-39.4615],[-70.7554,-39.4661],[-70.7515,-39.4649],[-70.7581,-39.446],[-70.7537,-39.4382],[-70.7586,-39.4326],[-70.7695,-39.4363],[-70.7729,-39.4262],[-70.7791,-39.4172],[-70.7737,-39.4065],[-70.765,-39.3976],[-70.7665,-39.3943],[-70.7926,-39.3927],[-70.8016,-39.3865],[-70.8134,-39.3729],[-70.7858,-39.3604],[-70.7878,-39.3489],[-70.7745,-39.3322],[-70.7775,-39.3272],[-70.7785,-39.3122],[-70.7677,-39.3011],[-70.7652,-39.2927],[-70.7591,-39.2859],[-70.7531,-39.2867],[-70.7402,-39.2835],[-70.7271,-39.275],[-70.7288,-39.2655],[-70.7329,-39.2616],[-70.7364,-39.2501],[-70.7478,-39.2412],[-70.7422,-39.2216],[-70.7444,-39.218],[-70.7389,-39.2091],[-70.7369,-39.2001],[-70.7328,-39.1983],[-70.731,-39.1903],[-70.734,-39.1847],[-70.7325,-39.1772],[-70.7328,-39.1581],[-70.7288,-39.1554],[-70.7305,-39.1458],[-70.7274,-39.1387],[-70.7307,-39.1323],[-70.7296,-39.126],[-70.737,-39.1176],[-70.7358,-39.103],[-70.7273,-39.087],[-70.7292,-39.0745],[-70.7415,-39.0654],[-70.742,-39.0497],[-70.7305,-39.041],[-70.7171,-39.036],[-70.7136,-39.0201],[-70.7075,-39.0138],[-70.7,-39.0173],[-70.6995,-39.0235],[-70.6905,-39.0301],[-70.6922,-39.0359],[-70.6803,-39.0498],[-70.6658,-39.0545],[-70.6468,-39.0515],[-70.6347,-39.0564],[-70.6248,-39.0626],[-70.6178,-39.0466],[-70.6107,-39.0467],[-70.6103,-39.0377],[-70.6205,-39.0301],[-70.6205,-39.0198],[-70.6278,-39.0137],[-70.6248,-39.0035],[-70.6144,-38.9998],[-70.6028,-38.9916],[-70.6143,-38.9829],[-70.6254,-38.9719],[-70.6371,-38.9491],[-70.6383,-38.9393],[-70.646,-38.9367],[-70.6603,-38.9231],[-70.6633,-38.9073],[-70.662,-38.886],[-70.6561,-38.8781],[-70.6467,-38.858],[-70.6492,-38.851],[-70.6599,-38.841],[-70.6687,-38.8384],[-70.6795,-38.8216],[-70.6968,-38.8126],[-70.7003,-38.7961],[-70.7038,-38.7904],[-70.7215,-38.7831],[-70.7266,-38.7836],[-70.7389,-38.79],[-70.7437,-38.7888],[-70.748,-38.7811],[-70.7619,-38.7769],[-70.7673,-38.7729],[-70.7728,-38.7565],[-70.7819,-38.7522],[-70.7786,-38.7365],[-70.7893,-38.7322],[-70.8037,-38.7402],[-70.814,-38.7433],[-70.8213,-38.7382],[-70.8324,-38.7369],[-70.8368,-38.7327],[-70.8487,-38.7308],[-70.849,-38.7237],[-70.8594,-38.7215],[-70.8617,-38.7213],[-70.8744,-38.723],[-70.8905,-38.7207],[-70.8976,-38.7219],[-70.9054,-38.7286],[-70.9121,-38.7412],[-70.9142,-38.7489],[-70.9232,-38.7607],[-70.9293,-38.764],[-70.9525,-38.7615],[-70.9687,-38.7636],[-70.9797,-38.7607],[-70.9907,-38.7649],[-70.9967,-38.7632],[-71.0018,-38.7701],[-71.0097,-38.7653],[-71.0339,-38.7569],[-71.0392,-38.7599],[-71.0538,-38.7576],[-71.06,-38.7594],[-71.0697,-38.7695],[-71.0776,-38.7663],[-71.0837,-38.76],[-71.0942,-38.7547],[-71.1001,-38.766],[-71.109,-38.7752],[-71.1163,-38.7786],[-71.1255,-38.7771],[-71.1356,-38.7819],[-71.1434,-38.7954],[-71.1488,-38.7992],[-71.17,-38.8026],[-71.1815,-38.8026],[-71.1919,-38.8134],[-71.1977,-38.8164],[-71.2071,-38.8165],[-71.2303,-38.8098],[-71.2345,-38.804],[-71.2573,-38.8174],[-71.2589,-38.8224],[-71.268,-38.8273],[-71.2679,-38.8406],[-71.2647,-38.8458],[-71.2679,-38.8532],[-71.2767,-38.8586],[-71.2849,-38.858],[-71.2864,-38.8649],[-71.2976,-38.8749],[-71.307,-38.8749],[-71.3103,-38.8781],[-71.3214,-38.8806],[-71.3286,-38.8747],[-71.3591,-38.8889],[-71.3691,-38.8985],[-71.3755,-38.9071],[-71.3793,-38.9055],[-71.3922,-38.9078],[-71.3995,-38.9168],[-71.4131,-38.9206],[-71.4254,-38.9216],[-71.4336,-38.9297],[-71.4388,-38.9426],[-71.4356,-38.9462],[-71.4371,-38.9585],[-71.4328,-38.9633],[-71.4355,-38.9775],[-71.441,-38.9775],[-71.4251,-39.0029],[-71.4132,-39.0099],[-71.4216,-39.0247],[-71.4007,-39.0375],[-71.3979,-39.045],[-71.4075,-39.0519],[-71.4086,-39.058],[-71.4152,-39.0637],[-71.4176,-39.0709],[-71.412,-39.0794],[-71.4119,-39.0872],[-71.4074,-39.0958],[-71.413,-39.104],[-71.4183,-39.1158],[-71.4151,-39.1201],[-71.4198,-39.1262],[-71.4112,-39.1396],[-71.4211,-39.1504],[-71.4198,-39.1561],[-71.4129,-39.1644],[-71.4045,-39.1656],[-71.3972,-39.1774],[-71.4,-39.1858],[-71.3956,-39.1935],[-71.3852,-39.2024],[-71.381,-39.2114],[-71.3825,-39.2174],[-71.3919,-39.2158],[-71.3879,-39.2346],[-71.3824,-39.2376],[-71.3874,-39.2477],[-71.3922,-39.2498],[-71.3887,-39.2653],[-71.3752,-39.2693],[-71.3751,-39.2847],[-71.3841,-39.2846],[-71.3885,-39.2878],[-71.3948,-39.3036],[-71.3856,-39.3182],[-71.3933,-39.3215],[-71.3961,-39.3282],[-71.395,-39.3418],[-71.4016,-39.3518],[-71.4106,-39.3528],[-71.4139,-39.3594],[-71.4235,-39.3663],[-71.4282,-39.3651],[-71.4331,-39.3719],[-71.4426,-39.3689],[-71.4484,-39.372],[-71.4568,-39.37],[-71.458,-39.3767],[-71.4549,-39.3895],[-71.4466,-39.3964],[-71.4457,-39.4094],[-71.4603,-39.4135],[-71.464,-39.4201],[-71.4613,-39.424],[-71.452,-39.4243],[-71.4479,-39.4513],[-71.437,-39.4584],[-71.4269,-39.4542],[-71.4034,-39.456],[-71.3999,-39.4559],[-71.3903,-39.4558],[-71.3804,-39.4696],[-71.3654,-39.4658],[-71.3581,-39.4722],[-71.341,-39.4783],[-71.3334,-39.4827],[-71.327,-39.4784],[-71.3122,-39.4757],[-71.3075,-39.4693],[-71.2971,-39.4702],[-71.2884,-39.48],[-71.2838,-39.4805],[-71.2705,-39.4695],[-71.2557,-39.465],[-71.2527,-39.4545],[-71.2454,-39.4479],[-71.2385,-39.4495],[-71.2351,-39.4622],[-71.231,-39.466],[-71.2189,-39.4699],[-71.209,-39.4646],[-71.2007,-39.4689],[-71.2036,-39.476],[-71.191,-39.4856],[-71.1916,-39.4889],[-71.1854,-39.5046],[-71.1747,-39.5211],[-71.162,-39.5241],[-71.1558,-39.5291],[-71.1456,-39.5216],[-71.1339,-39.5177],[-71.115,-39.5187],[-71.1049,-39.523],[-71.086,-39.5169],[-71.0673,-39.5214],[-71.0652,-39.5142],[-71.057,-39.5177],[-71.0498,-39.5248],[-71.0339,-39.5233],[-71.0178,-39.5235],[-71.0095,-39.5253],[-71.0085,-39.5202],[-71.0016,-39.5195],[-70.9879,-39.5329],[-70.9745,-39.5312],[-70.9579,-39.5226]]]},"properties":{"id":462,"departamento":"ALUMINE","cabecera":"ALUMINE","provincia":"NEUQUEN"}},
{"type":"Feature","geometry":{"type":"Polygon","coordinates":[[[-69.8985,-39.3183],[-69.7133,-39.1788],[-69.6208,-39.253],[-69.3765,-39.0691],[-69.286,-38.9999],[-69.3628,-38.9396],[-69.5475,-38.7932],[-69.471,-38.7338],[-69.3173,-38.6143],[-69.3227,-38.6093],[-69.3233,-38.6014],[-69.3287,-38.5945],[-69.3478,-38.599],[-69.3539,-38.5902],[-69.3682,-38.583],[-69.3732,-38.5729],[-69.3851,-38.5695],[-69.3987,-38.5568],[-69.398,-38.5505],[-69.4033,-38.5426],[-69.408,-38.5404],[-69.4032,-38.5306],[-69.4042,-38.5136],[-69.4135,-38.5065],[-69.4251,-38.5086],[-69.4354,-38.5014],[-69.4438,-38.4986],[-69.4515,-38.4917],[-69.4633,-38.4858],[-69.4712,-38.4874],[-69.4742,-38.4916],[-69.4717,-38.5005],[-69.4819,-38.5088],[-69.4873,-38.5063],[-69.4833,-38.4943],[-69.496,-38.493],[-69.5024,-38.488],[-69.5138,-38.4935],[-69.5279,-38.4901],[-69.5387,-38.4914],[-69.5435,-38.4808],[-69.5509,-38.4747],[-69.5701,-38.4699],[-69.6206,-38.4796],[-69.6242,-38.4872],[-69.6333,-38.4943],[-69.6453,-38.4959],[-69.6481,-38.5009],[-69.6661,-38.5089],[-69.6791,-38.5132],[-69.6956,-38.51],[-69.7118,-38.5166],[-69.7233,-38.5128],[-69.7369,-38.5229],[-69.7545,-38.5292],[-69.7544,-38.5369],[-69.7616,-38.5417],[-69.7622,-38.5521],[-69.7648,-38.5548],[-69.7617,-38.566],[-69.7625,-38.578],[-69.7681,-38.5838],[-69.7717,-38.5966],[-69.7974,-38.6105],[-69.8079,-38.6108],[-69.8136,-38.6165],[-69.8245,-38.6194],[-69.8293,-38.6233],[-69.8376,-38.6215],[-69.849,-38.6317],[-69.8564,-38.6323],[-69.8658,-38.6376],[-69.8741,-38.6358],[-69.8897,-38.6375],[-69.9016,-38.6405],[-69.9082,-38.6469],[-69.9234,-38.6541],[-69.9315,-38.6616],[-69.9441,-38.6783],[-69.9457,-38.6854],[-69.9597,-38.6911],[-69.9708,-38.6934],[-69.9757,-38.7015],[-69.9867,-38.7022],[-70.0005,-38.7111],[-70.0023,-38.7172],[-70.0129,-38.7266],[-70.0192,-38.7344],[-70.0239,-38.7353],[-70.0268,-38.7471],[-70.0338,-38.7506],[-70.0399,-38.7607],[-70.0557,-38.7714],[-70.0924,-38.7788],[-70.1153,-38.7848],[-70.1353,-38.7818],[-70.1518,-38.7841],[-70.1592,-38.7782],[-70.1737,-38.7839],[-70.1828,-38.7902],[-70.6115,-39.1226],[-70.3845,-39.1301],[-70.3719,-39.1259],[-70.3648,-39.1196],[-70.3517,-39.1257],[-70.3273,-39.1302],[-70.3222,-39.135],[-70.3156,-39.133],[-70.3116,-39.1424],[-70.3039,-39.1487],[-70.2947,-39.1514],[-70.2934,-39.1612],[-70.2658,-39.1853],[-70.2467,-39.1924],[-70.2378,-39.1982],[-70.233,-39.1951],[-70.2084,-39.1944],[-70.2023,-39.1907],[-70.1918,-39.1903],[-70.1794,-39.1967],[-70.173,-39.1931],[-70.1676,-39.1954],[-70.15,-39.1908],[-70.1373,-39.198],[-70.1213,-39.1985],[-70.1063,-39.2043],[-70.0854,-39.2038],[-70.0615,-39.2123],[-70.0583,-39.2154],[-70.0586,-39.2241],[-70.0523,-39.2375],[-70.0521,-39.2441],[-70.0358,-39.2532],[-70.0167,-39.2569],[-70.0106,-39.2626],[-69.9841,-39.2717],[-69.98,-39.2796],[-69.9718,-39.2763],[-69.9644,-39.2812],[-69.9526,-39.2853],[-69.9453,-39.2829],[-69.9286,-39.3004],[-69.9229,-39.302],[-69.9197,-39.3116],[-69.9081,-39.313],[-69.8985,-39.3183]]]},"properties":{"id":463,"departamento":"ZAPALA","cabecera":"ZAPALA","provincia":"NEUQUEN"}},
{"type":"Feature","geometry":{"type":"Polygon","coordinates":[[[-68.8198,-39.3689],[-68.8081,-39.3474],[-68.8111,-39.3371],[-68.8178,-39.3314],[-68.8193,-39.3257],[-68.8185,-39.3126],[-68.8101,-39.2935],[-68.8024,-39.2849],[-68.7881,-39.278],[-68.7737,-39.2735],[-68.7546,-39.2696],[-68.7413,-39.2609],[-68.7304,-39.2505],[-68.7141,-39.2435],[-68.7017,-39.2416],[-68.6939,-39.2304],[-68.6814,-39.227],[-68.6655,-39.2173],[-68.6533,-39.1992],[-68.6556,-39.1888],[-68.6625,-39.178],[-68.6563,-39.1676],[-68.6273,-39.1489],[-68.6143,-39.1351],[-68.5947,-39.1202],[-68.5854,-39.1096],[-68.5716,-39.1004],[-68.5626,-39.092],[-68.5555,-39.091],[-68.5479,-39.0863],[-68.5426,-39.0787],[-68.5219,-39.0781],[-68.5162,-39.0672],[-68.5069,-39.0713],[-68.4972,-39.0684],[-68.4752,-39.0538],[-68.4694,-39.0462],[-68.4468,-39.0405],[-68.4285,-39.0292],[-68.422,-39.0288],[-68.4133,-39.0344],[-68.3965,-39.0257],[-68.3828,-39.0231],[-68.3674,-39.0164],[-68.3541,-39.0019],[-68.3449,-39.0023],[-68.3396,-38.9987],[-68.3187,-38.9924],[-68.3081,-38.9912],[-68.3041,-38.9882],[-68.3045,-38.9776],[-68.2965,-38.9765],[-68.2889,-38.9839],[-68.2746,-38.9865],[-68.2632,-38.9833],[-68.254,-38.9895],[-68.2374,-38.9869],[-68.2311,-38.9915],[-68.2236,-38.9879],[-68.221,-38.9808],[-68.2122,-38.9744],[-68.1918,-38.9699],[-68.1848,-38.9715],[-68.1777,-38.9672],[-68.1712,-38.9759],[-68.1635,-38.9803],[-68.1509,-38.975],[-68.1445,-38.976],[-68.1398,-38.981],[-68.1294,-38.9837],[-68.1181,-38.9814],[-68.1176,-38.9883],[-68.0987,-38.989],[-68.0807,-38.9949],[-68.062,-38.9951],[-68.0519,-38.9903],[-68.0475,-38.9844],[-68.0407,-38.9929],[-68.0388,-38.9988],[-68.0316,-38.9985],[-68.027,-38.991],[-68.0214,-38.9904],[-68.0133,-38.9965],[-68.0069,-38.9933],[-68.0032,-38.9874],[-68.0113,-38.9789],[-68.0027,-38.9773],[-68.0013,-38.9715],[-68.0091,-38.9672],[-68.008,-38.9587],[-68.016,-38.9557],[-68.022,-38.9497],[-68.0395,-38.9417],[-68.0421,-38.9257],[-68.0485,-38.9219],[-68.0504,-38.9119],[-68.0568,-38.9089],[-68.0634,-38.9103],[-68.0684,-38.9037],[-68.0643,-38.8963],[-68.0741,-38.8842],[-68.0753,-38.876],[-68.0841,-38.8668],[-68.0829,-38.8625],[-68.0937,-38.8575],[-68.0814,-38.8495],[-68.0885,-38.8425],[-68.091,-38.8342],[-68.0951,-38.8305],[-68.0932,-38.8191],[-68.1029,-38.8136],[-68.1097,-38.8127],[-68.1058,-38.8045],[-68.116,-38.7966],[-68.114,-38.7888],[-68.119,-38.7752],[-68.1255,-38.7694],[-68.1201,-38.7577],[-68.1212,-38.7467],[-68.1331,-38.7502],[-68.1405,-38.7433],[-68.146,-38.7462],[-68.1518,-38.7405],[-68.1631,-38.7379],[-68.1707,-38.7275],[-68.179,-38.7245],[-68.1804,-38.7198],[-68.1905,-38.7227],[-68.1957,-38.7165],[-68.1952,-38.711],[-68.2065,-38.708],[-68.2168,-38.7094],[-68.2306,-38.7011],[-68.2419,-38.6971],[-68.2446,-38.6894],[-68.2513,-38.6808],[-68.2691,-38.6778],[-68.2825,-38.6695],[-68.2785,-38.6566],[-68.2879,-38.6467],[-68.3009,-38.6504],[-68.3132,-38.6481],[-68.3194,-38.6347],[-68.3286,-38.6302],[-68.3345,-38.6237],[-68.335,-38.6187],[-68.3485,-38.6167],[-68.3723,-38.607],[-68.3731,-38.6005],[-68.3908,-38.5971],[-68.4105,-38.5699],[-68.4271,-38.5615],[-68.4505,-38.5622],[-68.4585,-38.5575],[-68.4607,-38.5513],[-68.4689,-38.5451],[-68.4823,-38.5431],[-68.4912,-38.5439],[-68.5077,-38.5342],[-68.512,-38.5278],[-68.5275,-38.518],[-68.5383,-38.5021],[-68.5452,-38.4995],[-68.5443,-38.4888],[-68.5539,-38.4904],[-68.5669,-38.4875],[-68.5813,-38.4764],[-68.596,-38.4675],[-68.606,-38.4691],[-68.6094,-38.4575],[-68.6195,-38.4555],[-68.6173,-38.4469],[-68.6194,-38.4378],[-68.6254,-38.4326],[-68.6369,-38.434],[-68.6421,-38.432],[-68.6493,-38.4226],[-68.6607,-38.4223],[-68.6665,-38.4176],[-68.677,-38.4169],[-68.6821,-38.4059],[-68.6862,-38.4032],[-68.7099,-38.4077],[-68.7249,-38.405],[-68.73,-38.4014],[-68.7356,-38.3912],[-68.7396,-38.389],[-68.7454,-38.3757],[-68.7585,-38.3716],[-68.7807,-38.3739],[-68.7857,-38.379],[-68.7979,-38.3796],[-68.8119,-38.3765],[-68.8174,-38.3781],[-68.8292,-38.3754],[-68.8345,-38.3689],[-68.8427,-38.3753],[-68.8605,-38.3738],[-68.869,-38.3868],[-68.881,-38.3921],[-68.8862,-38.4036],[-68.8896,-38.4034],[-68.9037,-38.4176],[-68.909,-38.4173],[-68.9196,-38.4215],[-68.9204,-38.429],[-68.9372,-38.439],[-68.9405,-38.4446],[-68.94,-38.4551],[-68.9443,-38.4577],[-68.95,-38.4673],[-68.9516,-38.4766],[-68.9592,-38.4838],[-68.9723,-38.4924],[-68.987,-38.4947],[-68.9934,-38.4911],[-68.9999,-38.4971],[-69.0061,-38.5077],[-69.0175,-38.5175],[-69.0257,-38.5201],[-69.025,-38.5286],[-69.0307,-38.5373],[-69.0434,-38.5369],[-69.0494,-38.5423],[-69.0412,-38.5535],[-69.0493,-38.5629],[-69.0512,-38.5697],[-69.0596,-38.5688],[-69.0787,-38.5736],[-69.0888,-38.5803],[-69.1016,-38.5786],[-69.1104,-38.5818],[-69.1133,-38.6027],[-69.1203,-38.6031],[-69.1351,-38.6077],[-69.1423,-38.6122],[-69.1513,-38.607],[-69.1677,-38.6102],[-69.1766,-38.6047],[-69.1868,-38.6099],[-69.1972,-38.6127],[-69.1977,-38.6186],[-69.2148,-38.6218],[-69.221,-38.6272],[-69.2283,-38.6291],[-69.2378,-38.6262],[-69.2447,-38.6176],[-69.2372,-38.6128],[-69.2383,-38.606],[-69.2533,-38.6039],[-69.2662,-38.599],[-69.2731,-38.5997],[-69.2789,-38.6067],[-69.2871,-38.6093],[-69.2978,-38.6075],[-69.3089,-38.6134],[-69.3173,-38.6143],[-69.471,-38.7338],[-69.5475,-38.7932],[-69.3628,-38.9396],[-69.286,-38.9999],[-69.1622,-39.0955],[-69.0414,-39.1925],[-68.9007,-39.3043],[-68.8198,-39.3689]]]},"properties":{"id":464,"departamento":"CONFLUENCIA","cabecera":"NEUQUEN","provincia":"NEUQUEN"}},
{"type":"Feature","geometry":{"type":"Polygon","coordinates":[[[-70.6115,-39.1226],[-70.1828,-38.7902],[-70.1737,-38.7839],[-70.1592,-38.7782],[-70.1518,-38.7841],[-70.1353,-38.7818],[-70.1153,-38.7848],[-70.0924,-38.7788],[-70.0557,-38.7714],[-70.0399,-38.7607],[-70.0338,-38.7506],[-70.0268,-38.7471],[-70.0239,-38.7353],[-70.0192,-38.7344],[-70.0129,-38.7266],[-70.0023,-38.7172],[-70.0005,-38.7111],[-69.9867,-38.7022],[-69.9757,-38.7015],[-69.9708,-38.6934],[-69.9597,-38.6911],[-69.9457,-38.6854],[-69.9441,-38.6783],[-69.9315,-38.6616],[-69.9234,-38.6541],[-69.9082,-38.6469],[-69.9016,-38.6405],[-69.8897,-38.6375],[-69.8741,-38.6358],[-69.8658,-38.6376],[-69.8564,-38.6323],[-69.849,-38.6317],[-69.8376,-38.6215],[-69.8293,-38.6233],[-69.8245,-38.6194],[-69.8136,-38.6165],[-69.8079,-38.6108],[-69.7974,-38.6105],[-69.7717,-38.5966],[-69.7681,-38.5838],[-69.7625,-38.578],[-69.7617,-38.566],[-69.7648,-38.5548],[-69.7622,-38.5521],[-69.7616,-38.5417],[-69.7544,-38.5369],[-69.7545,-38.5292],[-69.7369,-38.5229],[-69.7233,-38.5128],[-69.7118,-38.5166],[-69.6956,-38.51],[-69.6791,-38.5132],[-69.6661,-38.5089],[-69.6481,-38.5009],[-69.6453,-38.4959],[-69.6333,-38.4943],[-69.6242,-38.4872],[-69.6206,-38.4796],[-69.5701,-38.4699],[-69.5509,-38.4747],[-69.5435,-38.4808],[-69.5415,-38.4775],[-69.5436,-38.4682],[-69.5539,-38.4649],[-69.5585,-38.4569],[-69.5712,-38.4503],[-69.5695,-38.4423],[-69.5742,-38.4372],[-69.5917,-38.4326],[-69.611,-38.4208],[-69.6251,-38.4268],[-69.6346,-38.4254],[-69.6421,-38.4215],[-69.6431,-38.4125],[-69.6501,-38.4025],[-69.6637,-38.4002],[-69.6718,-38.3938],[-69.6729,-38.3893],[-69.6696,-38.3781],[-69.6814,-38.3757],[-69.6889,-38.3668],[-69.7004,-38.3723],[-69.7057,-38.3704],[-69.7138,-38.3615],[-69.7146,-38.3549],[-69.7209,-38.3527],[-69.728,-38.3442],[-69.7358,-38.3436],[-69.7365,-38.3372],[-69.7507,-38.3381],[-69.749,-38.3319],[-69.7572,-38.3287],[-69.7652,-38.3345],[-69.7753,-38.3266],[-69.7943,-38.3211],[-69.8001,-38.3212],[-69.8109,-38.3164],[-69.8182,-38.3193],[-69.8264,-38.3157],[-69.8321,-38.3179],[-69.8378,-38.3134],[-69.851,-38.3145],[-69.8675,-38.3125],[-69.8737,-38.3086],[-69.8838,-38.3062],[-69.8921,-38.31],[-69.8938,-38.3156],[-69.9018,-38.3218],[-70.3065,-38.3171],[-70.5893,-38.3121],[-70.5898,-38.3079],[-70.6025,-38.2984],[-70.6053,-38.2927],[-70.6011,-38.2872],[-70.6092,-38.2769],[-70.6059,-38.2709],[-70.6118,-38.2672],[-70.6209,-38.2696],[-70.6414,-38.2677],[-70.6498,-38.2699],[-70.6732,-38.2887],[-70.6911,-38.2957],[-70.7008,-38.3044],[-70.7121,-38.3106],[-70.7208,-38.3091],[-70.7354,-38.318],[-70.7616,-38.3223],[-70.7681,-38.3294],[-70.7984,-38.3253],[-70.8061,-38.3222],[-70.8107,-38.3242],[-70.8219,-38.3218],[-70.83,-38.3148],[-70.838,-38.3019],[-70.8444,-38.2959],[-70.8848,-38.2807],[-70.9084,-38.277],[-70.915,-38.271],[-70.9203,-38.2616],[-70.9275,-38.2609],[-70.9636,-38.2016],[-71.0175,-38.113],[-71.0176,-38.1128],[-71.023,-38.1119],[-71.0423,-38.1236],[-71.0282,-38.1338],[-71.0232,-38.1497],[-71.0088,-38.1535],[-71.01,-38.1616],[-70.9977,-38.1694],[-70.9954,-38.1794],[-70.997,-38.184],[-70.997,-38.2014],[-71.0016,-38.2103],[-71.016,-38.2105],[-71.021,-38.2139],[-71.0158,-38.2262],[-71.0187,-38.24],[-71.0319,-38.2496],[-71.009,-38.2617],[-71.0104,-38.2827],[-70.9979,-38.2913],[-70.998,-38.3046],[-71.0023,-38.3061],[-71.0017,-38.326],[-70.9985,-38.3275],[-70.997,-38.3547],[-70.9827,-38.364],[-70.9871,-38.3746],[-70.9845,-38.384],[-70.9862,-38.3978],[-70.9801,-38.4147],[-70.984,-38.4293],[-70.9779,-38.442],[-70.9594,-38.4435],[-70.9518,-38.4502],[-70.9456,-38.4596],[-70.9283,-38.4747],[-70.9274,-38.4855],[-70.9137,-38.4956],[-70.9112,-38.5032],[-70.898,-38.5092],[-70.886,-38.5096],[-70.8667,-38.5138],[-70.8638,-38.5229],[-70.8534,-38.5322],[-70.8424,-38.5383],[-70.8369,-38.5522],[-70.8334,-38.5667],[-70.837,-38.5788],[-70.8348,-38.5883],[-70.8265,-38.5912],[-70.8298,-38.6],[-70.8354,-38.6035],[-70.8341,-38.6091],[-70.8531,-38.619],[-70.8629,-38.6259],[-70.8659,-38.6338],[-70.8757,-38.6397],[-70.8836,-38.6418],[-70.8964,-38.658],[-70.8964,-38.663],[-70.9032,-38.6689],[-70.9065,-38.6756],[-70.9006,-38.6825],[-70.9006,-38.6895],[-70.8929,-38.696],[-70.8846,-38.6976],[-70.8877,-38.7064],[-70.8864,-38.711],[-70.8905,-38.7207],[-70.8744,-38.723],[-70.8617,-38.7213],[-70.8594,-38.7215],[-70.849,-38.7237],[-70.8487,-38.7308],[-70.8368,-38.7327],[-70.8324,-38.7369],[-70.8213,-38.7382],[-70.814,-38.7433],[-70.8037,-38.7402],[-70.7893,-38.7322],[-70.7786,-38.7365],[-70.7819,-38.7522],[-70.7728,-38.7565],[-70.7673,-38.7729],[-70.7619,-38.7769],[-70.748,-38.7811],[-70.7437,-38.7888],[-70.7389,-38.79],[-70.7266,-38.7836],[-70.7215,-38.7831],[-70.7038,-38.7904],[-70.7003,-38.7961],[-70.6968,-38.8126],[-70.6795,-38.8216],[-70.6687,-38.8384],[-70.6599,-38.841],[-70.6492,-38.851],[-70.6467,-38.858],[-70.6561,-38.8781],[-70.662,-38.886],[-70.6633,-38.9073],[-70.6603,-38.9231],[-70.646,-38.9367],[-70.6383,-38.9393],[-70.6371,-38.9491],[-70.6254,-38.9719],[-70.6143,-38.9829],[-70.6028,-38.9916],[-70.6144,-38.9998],[-70.6248,-39.0035],[-70.6278,-39.0137],[-70.6205,-39.0198],[-70.6205,-39.0301],[-70.6103,-39.0377],[-70.6107,-39.0467],[-70.6178,-39.0466],[-70.6248,-39.0626],[-70.6246,-39.0759],[-70.6168,-39.0871],[-70.6118,-39.0894],[-70.6101,-39.0999],[-70.6158,-39.1057],[-70.6102,-39.1098],[-70.6115,-39.1226]]]},"properties":{"id":465,"departamento":"PICUNCHES","cabecera":"LAS LAJAS","provincia":"NEUQUEN"}},
{"type":"Feature","geometry":{"type":"Polygon","coordinates":[[[-69.3173,-38.6143],[-69.3089,-38.6134],[-69.2978,-38.6075],[-69.2871,-38.6093],[-69.2789,-38.6067],[-69.2731,-38.5997],[-69.2662,-38.599],[-69.2533,-38.6039],[-69.2383,-38.606],[-69.2372,-38.6128],[-69.2447,-38.6176],[-69.2378,-38.6262],[-69.2283,-38.6291],[-69.221,-38.6272],[-69.2148,-38.6218],[-69.1977,-38.6186],[-69.1972,-38.6127],[-69.1868,-38.6099],[-69.1766,-38.6047],[-69.1677,-38.6102],[-69.1513,-38.607],[-69.1423,-38.6122],[-69.1351,-38.6077],[-69.1203,-38.6031],[-69.1133,-38.6027],[-69.1104,-38.5818],[-69.1016,-38.5786],[-69.0888,-38.5803],[-69.0787,-38.5736],[-69.0596,-38.5688],[-69.0512,-38.5697],[-69.0493,-38.5629],[-69.0412,-38.5535],[-69.0494,-38.5423],[-69.0434,-38.5369],[-69.0307,-38.5373],[-69.025,-38.5286],[-69.0257,-38.5201],[-69.0175,-38.5175],[-69.0061,-38.5077],[-68.9999,-38.4971],[-68.9934,-38.4911],[-68.987,-38.4947],[-68.9723,-38.4924],[-68.9592,-38.4838],[-68.9516,-38.4766],[-68.95,-38.4673],[-68.9443,-38.4577],[-68.94,-38.4551],[-68.9405,-38.4446],[-68.9372,-38.439],[-68.9204,-38.429],[-68.9196,-38.4215],[-68.909,-38.4173],[-68.9037,-38.4176],[-68.8896,-38.4034],[-68.8862,-38.4036],[-68.881,-38.3921],[-68.869,-38.3868],[-68.8605,-38.3738],[-68.8427,-38.3753],[-68.8345,-38.3689],[-68.8292,-38.3754],[-68.8174,-38.3781],[-68.8119,-38.3765],[-68.7979,-38.3796],[-68.7857,-38.379],[-68.7807,-38.3739],[-68.7585,-38.3716],[-68.7454,-38.3757],[-68.7396,-38.389],[-68.7356,-38.3912],[-68.73,-38.4014],[-68.7249,-38.405],[-68.7099,-38.4077],[-68.6862,-38.4032],[-68.6821,-38.4059],[-68.677,-38.4169],[-68.6665,-38.4176],[-68.6607,-38.4223],[-68.6493,-38.4226],[-68.6421,-38.432],[-68.6369,-38.434],[-68.6254,-38.4326],[-68.6194,-38.4378],[-68.6173,-38.4469],[-68.6195,-38.4555],[-68.6094,-38.4575],[-68.606,-38.4691],[-68.596,-38.4675],[-68.5813,-38.4764],[-68.5669,-38.4875],[-68.5539,-38.4904],[-68.5443,-38.4888],[-68.5452,-38.4995],[-68.5383,-38.5021],[-68.5275,-38.518],[-68.512,-38.5278],[-68.5077,-38.5342],[-68.4912,-38.5439],[-68.4823,-38.5431],[-68.4689,-38.5451],[-68.4607,-38.5513],[-68.4585,-38.5575],[-68.4505,-38.5622],[-68.4271,-38.5615],[-68.4105,-38.5699],[-68.3908,-38.5971],[-68.3731,-38.6005],[-68.3723,-38.607],[-68.3485,-38.6167],[-68.335,-38.6187],[-68.3345,-38.6237],[-68.3286,-38.6302],[-68.3194,-38.6347],[-68.3132,-38.6481],[-68.3009,-38.6504],[-68.2879,-38.6467],[-68.2785,-38.6566],[-68.2825,-38.6695],[-68.2691,-38.6778],[-68.2513,-38.6808],[-68.2501,-37.7045],[-68.2549,-37.7046],[-69.8857,-37.6914],[-69.8868,-37.7024],[-69.8855,-37.7146],[-69.8799,-37.7192],[-69.8674,-37.7194],[-69.8666,-37.7262],[-69.8756,-37.7356],[-69.874,-37.7402],[-69.8753,-37.7539],[-69.8671,-37.7525],[-69.864,-37.7599],[-69.8709,-37.7647],[-69.8656,-37.7744],[-69.8561,-37.7765],[-69.8524,-37.7858],[-69.8615,-37.7972],[-69.8501,-37.8016],[-69.851,-37.8091],[-69.8602,-37.8145],[-69.8612,-37.8182],[-69.8552,-37.8247],[-69.8458,-37.8252],[-69.8436,-37.8302],[-69.8513,-37.835],[-69.8682,-37.8262],[-69.8749,-37.8275],[-69.879,-37.8359],[-69.8852,-37.835],[-69.8882,-37.8405],[-69.8834,-37.8488],[-69.8697,-37.8485],[-69.8618,-37.8553],[-69.8589,-37.8711],[-69.8517,-37.8723],[-69.8527,-37.8823],[-69.8502,-37.8864],[-69.8546,-37.897],[-69.8544,-37.908],[-69.8511,-37.916],[-69.8424,-37.9233],[-69.831,-37.9244],[-69.8279,-37.931],[-69.8315,-37.9388],[-69.8395,-37.9479],[-69.8322,-37.9518],[-69.823,-37.943],[-69.8147,-37.9465],[-69.816,-37.9567],[-69.7952,-37.9689],[-69.7942,-37.9757],[-69.8025,-37.981],[-69.8042,-37.9865],[-69.8181,-37.9882],[-69.8213,-37.9925],[-69.8167,-37.9979],[-69.8088,-37.9973],[-69.8074,-38.0035],[-69.813,-38.0064],[-69.8143,-38.0121],[-69.8123,-38.0227],[-69.8036,-38.026],[-69.8018,-38.0329],[-69.8109,-38.0379],[-69.8197,-38.0248],[-69.8243,-38.023],[-69.834,-38.0251],[-69.8403,-38.0332],[-69.8308,-38.0407],[-69.8243,-38.0428],[-69.8219,-38.0492],[-69.8229,-38.0577],[-69.82,-38.0611],[-69.8058,-38.0616],[-69.7988,-38.0693],[-69.803,-38.08],[-69.8142,-38.0849],[-69.8144,-38.088],[-69.8028,-38.094],[-69.7938,-38.0946],[-69.7915,-38.1018],[-69.7781,-38.1047],[-69.7763,-38.1126],[-69.7857,-38.1219],[-69.7768,-38.1254],[-69.7645,-38.1229],[-69.7622,-38.1284],[-69.7662,-38.1386],[-69.7675,-38.1486],[-69.7604,-38.167],[-69.7536,-38.1676],[-69.7473,-38.1638],[-69.7398,-38.1679],[-69.7445,-38.173],[-69.7332,-38.1813],[-69.7406,-38.1861],[-69.7553,-38.1886],[-69.7573,-38.1931],[-69.7545,-38.2004],[-69.7407,-38.2049],[-69.737,-38.2179],[-69.7439,-38.2244],[-69.7413,-38.2313],[-69.7364,-38.2337],[-69.7321,-38.2413],[-69.7217,-38.2387],[-69.7175,-38.2423],[-69.7182,-38.25],[-69.7218,-38.2547],[-69.7218,-38.265],[-69.7321,-38.2768],[-69.7264,-38.2831],[-69.7198,-38.2852],[-69.7207,-38.2958],[-69.728,-38.2968],[-69.7384,-38.2948],[-69.7389,-38.3031],[-69.7249,-38.3108],[-69.7268,-38.3184],[-69.716,-38.3304],[-69.696,-38.3255],[-69.695,-38.3323],[-69.7045,-38.3447],[-69.7102,-38.3447],[-69.7089,-38.3533],[-69.6993,-38.3583],[-69.7057,-38.3704],[-69.7004,-38.3723],[-69.6889,-38.3668],[-69.6814,-38.3757],[-69.6696,-38.3781],[-69.6729,-38.3893],[-69.6718,-38.3938],[-69.6637,-38.4002],[-69.6501,-38.4025],[-69.6431,-38.4125],[-69.6421,-38.4215],[-69.6346,-38.4254],[-69.6251,-38.4268],[-69.611,-38.4208],[-69.5917,-38.4326],[-69.5742,-38.4372],[-69.5695,-38.4423],[-69.5712,-38.4503],[-69.5585,-38.4569],[-69.5539,-38.4649],[-69.5436,-38.4682],[-69.5415,-38.4775],[-69.5435,-38.4808],[-69.5387,-38.4914],[-69.5279,-38.4901],[-69.5138,-38.4935],[-69.5024,-38.488],[-69.496,-38.493],[-69.4833,-38.4943],[-69.4873,-38.5063],[-69.4819,-38.5088],[-69.4717,-38.5005],[-69.4742,-38.4916],[-69.4712,-38.4874],[-69.4633,-38.4858],[-69.4515,-38.4917],[-69.4438,-38.4986],[-69.4354,-38.5014],[-69.4251,-38.5086],[-69.4135,-38.5065],[-69.4042,-38.5136],[-69.4032,-38.5306],[-69.408,-38.5404],[-69.4033,-38.5426],[-69.398,-38.5505],[-69.3987,-38.5568],[-69.3851,-38.5695],[-69.3732,-38.5729],[-69.3682,-38.583],[-69.3539,-38.5902],[-69.3478,-38.599],[-69.3287,-38.5945],[-69.3233,-38.6014],[-69.3227,-38.6093],[-69.3173,-38.6143]]]},"properties":{"id":466,"departamento":"AÑELO","cabecera":"A¥ELO","provincia":"NEUQUEN"}},
{"type":"Feature","geometry":{"type":"Polygon","coordinates":[[[-69.7057,-38.3704],[-69.6993,-38.3583],[-69.7089,-38.3533],[-69.7102,-38.3447],[-69.7045,-38.3447],[-69.695,-38.3323],[-69.696,-38.3255],[-69.716,-38.3304],[-69.7268,-38.3184],[-69.7249,-38.3108],[-69.7389,-38.3031],[-69.7384,-38.2948],[-69.728,-38.2968],[-69.7207,-38.2958],[-69.7198,-38.2852],[-69.7264,-38.2831],[-69.7321,-38.2768],[-69.7218,-38.265],[-69.7218,-38.2547],[-69.7182,-38.25],[-69.7175,-38.2423],[-69.7217,-38.2387],[-69.7321,-38.2413],[-69.7364,-38.2337],[-69.7413,-38.2313],[-69.7439,-38.2244],[-69.737,-38.2179],[-69.7407,-38.2049],[-69.7545,-38.2004],[-69.7573,-38.1931],[-69.7553,-38.1886],[-69.7406,-38.1861],[-69.7332,-38.1813],[-69.7445,-38.173],[-69.7398,-38.1679],[-69.7473,-38.1638],[-69.7536,-38.1676],[-69.7604,-38.167],[-69.7675,-38.1486],[-69.7662,-38.1386],[-69.7622,-38.1284],[-69.7645,-38.1229],[-69.7768,-38.1254],[-69.7857,-38.1219],[-69.7763,-38.1126],[-69.7781,-38.1047],[-69.7915,-38.1018],[-69.7938,-38.0946],[-69.8028,-38.094],[-69.8144,-38.088],[-69.8142,-38.0849],[-69.803,-38.08],[-69.7988,-38.0693],[-69.8058,-38.0616],[-69.82,-38.0611],[-69.8229,-38.0577],[-69.8219,-38.0492],[-69.8243,-38.0428],[-69.8308,-38.0407],[-69.8403,-38.0332],[-69.834,-38.0251],[-69.8243,-38.023],[-69.8197,-38.0248],[-69.8109,-38.0379],[-69.8018,-38.0329],[-69.8036,-38.026],[-69.8123,-38.0227],[-69.8143,-38.0121],[-69.813,-38.0064],[-69.8074,-38.0035],[-69.8088,-37.9973],[-69.8167,-37.9979],[-69.8213,-37.9925],[-69.8181,-37.9882],[-69.8042,-37.9865],[-69.8025,-37.981],[-69.7942,-37.9757],[-69.7952,-37.9689],[-69.816,-37.9567],[-69.8147,-37.9465],[-69.823,-37.943],[-69.8322,-37.9518],[-69.8395,-37.9479],[-69.8315,-37.9388],[-69.8279,-37.931],[-69.831,-37.9244],[-69.8424,-37.9233],[-69.8511,-37.916],[-69.8544,-37.908],[-69.8546,-37.897],[-69.8502,-37.8864],[-69.8527,-37.8823],[-69.8517,-37.8723],[-69.8589,-37.8711],[-69.8618,-37.8553],[-69.8697,-37.8485],[-69.8834,-37.8488],[-69.8882,-37.8405],[-69.8852,-37.835],[-69.879,-37.8359],[-69.8749,-37.8275],[-69.8682,-37.8262],[-69.8513,-37.835],[-69.8436,-37.8302],[-69.8458,-37.8252],[-69.8552,-37.8247],[-69.8612,-37.8182],[-69.8602,-37.8145],[-69.851,-37.8091],[-69.8501,-37.8016],[-69.8615,-37.7972],[-69.8524,-37.7858],[-69.8561,-37.7765],[-69.8656,-37.7744],[-69.8709,-37.7647],[-69.864,-37.7599],[-69.8671,-37.7525],[-69.8753,-37.7539],[-69.874,-37.7402],[-69.8756,-37.7356],[-69.8666,-37.7262],[-69.8674,-37.7194],[-69.8799,-37.7192],[-69.8855,-37.7146],[-69.8868,-37.7024],[-69.8857,-37.6914],[-69.8936,-37.6822],[-69.8955,-37.6766],[-69.9089,-37.6673],[-69.9254,-37.6667],[-69.9321,-37.6704],[-69.9431,-37.6709],[-69.9486,-37.6667],[-69.9612,-37.6637],[-69.9745,-37.6674],[-69.9816,-37.6666],[-69.9863,-37.6565],[-70.0069,-37.6532],[-70.0141,-37.6532],[-70.0198,-37.657],[-70.0309,-37.6544],[-70.0389,-37.6442],[-70.0318,-37.634],[-70.6026,-38.0045],[-70.6137,-37.9996],[-70.6321,-37.9853],[-70.6391,-37.986],[-70.6453,-37.9818],[-70.6545,-37.9796],[-70.661,-37.9727],[-70.6789,-37.9658],[-70.6856,-37.9602],[-70.7093,-37.9641],[-70.7215,-37.9576],[-70.7324,-37.955],[-70.7513,-37.9556],[-70.7747,-37.9478],[-70.7794,-37.9495],[-70.7973,-37.9451],[-70.8061,-37.9449],[-70.8197,-37.95],[-70.8366,-37.9491],[-70.8557,-37.9449],[-70.8743,-37.9478],[-70.9043,-37.9438],[-70.9152,-37.9475],[-70.9323,-37.95],[-70.933,-37.9526],[-70.9549,-37.96],[-70.9732,-37.9579],[-70.9805,-37.954],[-70.9883,-37.9566],[-70.9975,-37.9532],[-71.0118,-37.9575],[-71.0239,-37.9583],[-71.0324,-37.9507],[-71.035,-37.9451],[-71.0414,-37.9422],[-71.0597,-37.9386],[-71.0602,-37.9364],[-71.0763,-37.93],[-71.077,-37.9295],[-71.091,-37.923],[-71.0923,-37.9201],[-71.1032,-37.9177],[-71.1115,-37.9191],[-71.1067,-37.9248],[-71.1076,-37.9371],[-71.112,-37.9436],[-71.1137,-37.9519],[-71.1043,-37.9547],[-71.0892,-37.9652],[-71.0776,-37.9642],[-71.0658,-37.968],[-71.0612,-37.9717],[-71.0685,-37.9815],[-71.0671,-37.99],[-71.0534,-37.9976],[-71.0598,-38.0016],[-71.0575,-38.0059],[-71.0622,-38.0174],[-71.0512,-38.026],[-71.0511,-38.0409],[-71.0453,-38.054],[-71.0328,-38.057],[-71.0199,-38.0656],[-71.0138,-38.0732],[-71.0115,-38.0803],[-70.9914,-38.0825],[-70.9826,-38.1046],[-70.9883,-38.1098],[-71.0091,-38.1131],[-71.0176,-38.1128],[-71.0175,-38.113],[-70.9636,-38.2016],[-70.9275,-38.2609],[-70.9203,-38.2616],[-70.915,-38.271],[-70.9084,-38.277],[-70.8848,-38.2807],[-70.8444,-38.2959],[-70.838,-38.3019],[-70.83,-38.3148],[-70.8219,-38.3218],[-70.8107,-38.3242],[-70.8061,-38.3222],[-70.7984,-38.3253],[-70.7681,-38.3294],[-70.7616,-38.3223],[-70.7354,-38.318],[-70.7208,-38.3091],[-70.7121,-38.3106],[-70.7008,-38.3044],[-70.6911,-38.2957],[-70.6732,-38.2887],[-70.6498,-38.2699],[-70.6414,-38.2677],[-70.6209,-38.2696],[-70.6118,-38.2672],[-70.6059,-38.2709],[-70.6092,-38.2769],[-70.6011,-38.2872],[-70.6053,-38.2927],[-70.6025,-38.2984],[-70.5898,-38.3079],[-70.5893,-38.3121],[-70.3065,-38.3171],[-69.9018,-38.3218],[-69.8938,-38.3156],[-69.8921,-38.31],[-69.8838,-38.3062],[-69.8737,-38.3086],[-69.8675,-38.3125],[-69.851,-38.3145],[-69.8378,-38.3134],[-69.8321,-38.3179],[-69.8264,-38.3157],[-69.8182,-38.3193],[-69.8109,-38.3164],[-69.8001,-38.3212],[-69.7943,-38.3211],[-69.7753,-38.3266],[-69.7652,-38.3345],[-69.7572,-38.3287],[-69.749,-38.3319],[-69.7507,-38.3381],[-69.7365,-38.3372],[-69.7358,-38.3436],[-69.728,-38.3442],[-69.7209,-38.3527],[-69.7146,-38.3549],[-69.7138,-38.3615],[-69.7057,-38.3704]]]},"properties":{"id":467,"departamento":"LONCOPUE","cabecera":"LONCOPUE","provincia":"NEUQUEN"}},
{"type":"Feature","geometry":{"type":"Polygon","coordinates":[[[-70.0318,-37.634],[-70.0343,-37.6128],[-70.042,-37.6024],[-70.0397,-37.5981],[-70.0477,-37.5802],[-70.0438,-37.5734],[-70.0469,-37.556],[-70.0624,-37.5467],[-70.0624,-37.5373],[-70.079,-37.534],[-70.0849,-37.5303],[-70.0846,-37.5172],[-70.0918,-37.5108],[-70.0955,-37.5012],[-70.1087,-37.4991],[-70.1166,-37.4919],[-70.1287,-37.4864],[-70.1416,-37.4839],[-70.1437,-37.4808],[-70.1593,-37.4751],[-70.1725,-37.476],[-70.1748,-37.4709],[-70.1886,-37.4661],[-70.1965,-37.4565],[-70.1996,-37.4498],[-70.1986,-37.4387],[-70.2125,-37.4184],[-70.2212,-37.4163],[-70.2229,-37.41],[-70.2313,-37.4063],[-70.244,-37.4048],[-70.2534,-37.3969],[-70.2663,-37.3986],[-70.2728,-37.3963],[-70.2803,-37.3859],[-70.2897,-37.3797],[-70.2971,-37.3807],[-70.3081,-37.3744],[-70.3154,-37.3679],[-70.3336,-37.3731],[-70.3492,-37.3639],[-70.352,-37.3661],[-70.3654,-37.3634],[-70.3757,-37.3702],[-70.3954,-37.3744],[-70.4046,-37.3797],[-70.4094,-37.3851],[-70.4195,-37.3814],[-70.4263,-37.3755],[-70.4303,-37.3672],[-70.4323,-37.3532],[-70.4359,-37.349],[-70.4463,-37.3442],[-70.4535,-37.3475],[-70.4604,-37.3653],[-70.4679,-37.3612],[-70.4809,-37.3705],[-70.4923,-37.3664],[-70.5055,-37.37],[-70.5118,-37.365],[-70.5167,-37.371],[-70.5231,-37.3711],[-70.5276,-37.3648],[-70.5368,-37.3703],[-70.5329,-37.3765],[-70.5402,-37.3778],[-70.5482,-37.3671],[-70.559,-37.3665],[-70.5606,-37.3768],[-70.5692,-37.3765],[-70.5721,-37.3713],[-70.5797,-37.3735],[-70.581,-37.3818],[-70.5883,-37.3794],[-70.5871,-37.3722],[-70.5949,-37.3689],[-70.6053,-37.3723],[-70.6115,-37.3789],[-70.6175,-37.3726],[-70.6165,-37.3624],[-70.6267,-37.3572],[-70.6342,-37.3591],[-70.6419,-37.3502],[-70.6504,-37.3497],[-70.6619,-37.3441],[-70.6744,-37.3468],[-70.6879,-37.3388],[-70.702,-37.3358],[-70.7024,-37.3424],[-70.7125,-37.3446],[-70.7256,-37.3319],[-70.733,-37.332],[-70.74,-37.3377],[-70.7546,-37.3405],[-70.7645,-37.3394],[-70.772,-37.344],[-70.7823,-37.3423],[-70.7897,-37.3487],[-70.7957,-37.3499],[-70.8096,-37.3439],[-70.8223,-37.3463],[-70.8364,-37.3411],[-70.8497,-37.348],[-70.8862,-37.3434],[-70.9189,-37.3483],[-70.9198,-37.3532],[-70.9325,-37.3576],[-70.9553,-37.3574],[-70.9637,-37.3625],[-70.9687,-37.3618],[-70.9804,-37.3654],[-71.0079,-37.3582],[-71.0122,-37.3646],[-71.0241,-37.3678],[-71.0294,-37.3648],[-71.0395,-37.3693],[-71.0552,-37.3705],[-71.0578,-37.3663],[-71.0693,-37.3612],[-71.0876,-37.3658],[-71.095,-37.366],[-71.1042,-37.3613],[-71.1098,-37.349],[-71.1164,-37.3477],[-71.1232,-37.3414],[-71.1321,-37.3373],[-71.1456,-37.3342],[-71.1635,-37.3081],[-71.1679,-37.2995],[-71.1616,-37.2883],[-71.1632,-37.2828],[-71.158,-37.2707],[-71.1541,-37.2563],[-71.1557,-37.2436],[-71.1596,-37.2412],[-71.1612,-37.2469],[-71.1722,-37.2509],[-71.1741,-37.2596],[-71.1825,-37.2584],[-71.1876,-37.2759],[-71.2072,-37.2723],[-71.2182,-37.2728],[-71.2139,-37.2849],[-71.2167,-37.292],[-71.2157,-37.3035],[-71.2109,-37.3083],[-71.2063,-37.3184],[-71.2051,-37.3315],[-71.2072,-37.3375],[-71.1968,-37.3409],[-71.1945,-37.347],[-71.1852,-37.3547],[-71.1901,-37.3614],[-71.2009,-37.3645],[-71.1976,-37.374],[-71.1984,-37.3799],[-71.1912,-37.3848],[-71.1876,-37.3931],[-71.1791,-37.3968],[-71.1542,-37.4004],[-71.1512,-37.4159],[-71.1466,-37.4259],[-71.147,-37.4303],[-71.1384,-37.4452],[-71.1303,-37.4467],[-71.1206,-37.458],[-71.1188,-37.4692],[-71.121,-37.4737],[-71.1191,-37.4917],[-71.1243,-37.4951],[-71.123,-37.5034],[-71.1289,-37.5094],[-71.1333,-37.5287],[-71.1512,-37.5385],[-71.1389,-37.5444],[-71.1331,-37.5527],[-71.1335,-37.5659],[-71.1282,-37.5728],[-71.1264,-37.5802],[-71.1287,-37.5877],[-71.1462,-37.6081],[-71.1616,-37.6144],[-71.1699,-37.6114],[-71.1778,-37.6142],[-71.1943,-37.6303],[-71.2032,-37.6578],[-71.1999,-37.6636],[-71.2043,-37.6752],[-71.2128,-37.6884],[-71.2112,-37.6977],[-71.1892,-37.7124],[-71.1899,-37.7234],[-71.1852,-37.7286],[-71.1861,-37.7337],[-71.1779,-37.7423],[-71.1666,-37.7469],[-71.162,-37.7558],[-71.1567,-37.7568],[-71.161,-37.7719],[-71.1714,-37.7797],[-71.1525,-37.8023],[-71.1538,-37.8084],[-71.1408,-37.8168],[-71.1284,-37.8184],[-71.1267,-37.8215],[-71.1302,-37.8316],[-71.1452,-37.8384],[-71.152,-37.8371],[-71.1605,-37.8404],[-71.1629,-37.8509],[-71.1698,-37.8569],[-71.1805,-37.8556],[-71.1826,-37.8586],[-71.17,-37.8624],[-71.1646,-37.8584],[-71.1468,-37.8573],[-71.1341,-37.8628],[-71.1268,-37.8714],[-71.1256,-37.878],[-71.1191,-37.8866],[-71.1073,-37.8913],[-71.1049,-37.9011],[-71.1073,-37.912],[-71.1115,-37.9191],[-71.1032,-37.9177],[-71.0923,-37.9201],[-71.091,-37.923],[-71.077,-37.9295],[-71.0763,-37.93],[-71.0602,-37.9364],[-71.0597,-37.9386],[-71.0414,-37.9422],[-71.035,-37.9451],[-71.0324,-37.9507],[-71.0239,-37.9583],[-71.0118,-37.9575],[-70.9975,-37.9532],[-70.9883,-37.9566],[-70.9805,-37.954],[-70.9732,-37.9579],[-70.9549,-37.96],[-70.933,-37.9526],[-70.9323,-37.95],[-70.9152,-37.9475],[-70.9043,-37.9438],[-70.8743,-37.9478],[-70.8557,-37.9449],[-70.8366,-37.9491],[-70.8197,-37.95],[-70.8061,-37.9449],[-70.7973,-37.9451],[-70.7794,-37.9495],[-70.7747,-37.9478],[-70.7513,-37.9556],[-70.7324,-37.955],[-70.7215,-37.9576],[-70.7093,-37.9641],[-70.6856,-37.9602],[-70.6789,-37.9658],[-70.661,-37.9727],[-70.6545,-37.9796],[-70.6453,-37.9818],[-70.6391,-37.986],[-70.6321,-37.9853],[-70.6137,-37.9996],[-70.6026,-38.0045],[-70.0318,-37.634]]]},"properties":{"id":468,"departamento":"ÑORQUIN","cabecera":"EL HUECU","provincia":"NEUQUEN"}},
{"type":"Feature","geometry":{"type":"Polygon","coordinates":[[[-68.2501,-37.7045],[-68.25,-37.5767],[-68.2713,-37.5705],[-68.2782,-37.5638],[-68.2857,-37.5648],[-68.2921,-37.5592],[-68.3,-37.5623],[-68.3225,-37.5555],[-68.3337,-37.5583],[-68.3379,-37.556],[-68.351,-37.5569],[-68.3508,-37.5497],[-68.3619,-37.5463],[-68.3656,-37.5528],[-68.3737,-37.554],[-68.3865,-37.5588],[-68.4027,-37.5586],[-68.4135,-37.5508],[-68.4388,-37.5431],[-68.4525,-37.5297],[-68.4501,-37.526],[-68.4561,-37.5097],[-68.48,-37.489],[-68.4824,-37.4829],[-68.4949,-37.4631],[-68.5043,-37.4535],[-68.5115,-37.4531],[-68.5228,-37.4581],[-68.5349,-37.4508],[-68.5475,-37.4492],[-68.5609,-37.4546],[-68.5726,-37.4558],[-68.5843,-37.4531],[-68.608,-37.4386],[-68.6211,-37.4385],[-68.6328,-37.4465],[-68.6462,-37.4455],[-68.66,-37.447],[-68.6873,-37.441],[-68.6957,-37.4421],[-68.7014,-37.4346],[-68.6966,-37.4303],[-68.7017,-37.412],[-68.7138,-37.4038],[-68.7178,-37.3892],[-68.7362,-37.3857],[-68.7483,-37.3804],[-68.7574,-37.3707],[-68.7675,-37.3654],[-68.7703,-37.3673],[-68.7851,-37.3678],[-68.789,-37.3719],[-68.81,-37.3808],[-68.8165,-37.3872],[-68.8352,-37.3868],[-68.8536,-37.3927],[-68.8632,-37.4006],[-68.8695,-37.3984],[-68.8854,-37.3817],[-68.8987,-37.3809],[-68.9128,-37.3761],[-68.9281,-37.3799],[-68.9476,-37.3731],[-68.9691,-37.3725],[-68.974,-37.3774],[-68.9824,-37.3785],[-68.9911,-37.3705],[-69.0001,-37.3729],[-69.0129,-37.369],[-69.0278,-37.3624],[-69.0277,-37.3558],[-69.0363,-37.3527],[-69.0389,-37.3425],[-69.0454,-37.3322],[-69.0393,-37.3231],[-69.0474,-37.3182],[-69.0494,-37.3123],[-69.0453,-37.3058],[-69.0455,-37.297],[-69.0499,-37.2884],[-69.0448,-37.281],[-69.0383,-37.2669],[-69.0423,-37.2616],[-69.0383,-37.255],[-69.0506,-37.2383],[-69.0556,-37.2367],[-69.0687,-37.2213],[-69.0852,-37.2208],[-69.09,-37.2191],[-69.0948,-37.2116],[-69.103,-37.2046],[-69.1158,-37.2072],[-69.1196,-37.2041],[-69.1316,-37.2022],[-69.1376,-37.196],[-69.15,-37.1911],[-69.1549,-37.1916],[-69.1641,-37.1857],[-69.1639,-37.1814],[-69.1715,-37.178],[-69.1872,-37.1774],[-69.1963,-37.1726],[-69.2067,-37.1712],[-69.2154,-37.1776],[-69.22,-37.1765],[-69.2287,-37.1688],[-69.2395,-37.1624],[-69.2624,-37.1543],[-69.2699,-37.1442],[-69.2799,-37.1467],[-69.286,-37.1444],[-69.2996,-37.1507],[-69.3011,-37.1546],[-69.3255,-37.1504],[-69.3383,-37.154],[-69.3392,-37.157],[-69.3508,-37.1637],[-69.3655,-37.159],[-69.3768,-37.1595],[-69.3962,-37.1713],[-69.4028,-37.1719],[-69.4072,-37.1678],[-69.421,-37.1693],[-69.4247,-37.1598],[-69.4342,-37.1605],[-69.4386,-37.1642],[-69.4468,-37.163],[-69.4549,-37.1649],[-69.4643,-37.1722],[-69.4953,-37.1749],[-69.5095,-37.1669],[-69.517,-37.172],[-69.5262,-37.1726],[-69.5392,-37.1709],[-69.554,-37.1608],[-69.5608,-37.1642],[-69.5756,-37.1628],[-69.5831,-37.1515],[-69.601,-37.1464],[-69.6095,-37.1489],[-69.616,-37.1442],[-69.6244,-37.1443],[-69.6294,-37.1368],[-69.6405,-37.1318],[-69.6524,-37.1234],[-69.6647,-37.119],[-69.6686,-37.115],[-69.6859,-37.1093],[-69.688,-37.1058],[-69.6985,-37.1004],[-69.7095,-37.1021],[-69.7239,-37.0919],[-69.7258,-37.0857],[-69.7408,-37.0791],[-69.7557,-37.0681],[-69.762,-37.0561],[-69.7585,-37.0503],[-69.7609,-37.0379],[-69.7584,-37.0345],[-69.7681,-37.0229],[-69.7644,-36.9992],[-69.7699,-36.9972],[-69.7756,-36.9906],[-69.7745,-36.9827],[-69.7776,-36.9773],[-69.778,-36.9631],[-69.774,-36.9486],[-69.7765,-36.9415],[-69.7754,-36.9319],[-69.7706,-36.9229],[-69.7792,-36.9161],[-69.7719,-36.9097],[-69.7717,-36.8992],[-69.7533,-36.8869],[-69.752,-36.8832],[-69.7644,-36.8722],[-69.7804,-36.8689],[-69.7876,-36.8689],[-69.7986,-36.8591],[-69.8205,-36.8487],[-69.8317,-36.8497],[-69.8521,-36.845],[-69.8662,-36.8321],[-69.8733,-36.8131],[-69.8802,-36.8081],[-69.8895,-36.8097],[-69.9247,-36.791],[-69.9274,-36.7826],[-69.9199,-36.7653],[-69.9242,-36.753],[-69.9431,-36.746],[-69.9472,-36.7317],[-69.9477,-36.7217],[-69.9626,-36.707],[-69.9871,-36.6932],[-69.9944,-36.6918],[-70.0105,-36.6956],[-70.0141,-36.6862],[-70.0125,-36.6781],[-70.0212,-36.6732],[-70.0224,-36.6648],[-70.0426,-36.659],[-70.0458,-36.7877],[-70.0503,-36.9679],[-70.055,-37.1481],[-70.0578,-37.258],[-70.0488,-37.2592],[-70.0452,-37.2668],[-70.0383,-37.2716],[-70.0285,-37.2708],[-70.0225,-37.276],[-70.0204,-37.2838],[-70.0262,-37.3071],[-70.0303,-37.3133],[-70.0426,-37.3178],[-70.0453,-37.3302],[-70.0559,-37.3363],[-70.0599,-37.3419],[-70.0614,-37.3557],[-70.0661,-37.3582],[-70.0712,-37.3733],[-70.0846,-37.3833],[-70.0932,-37.394],[-70.0986,-37.4039],[-70.1009,-37.4243],[-70.105,-37.4346],[-70.1001,-37.4405],[-70.0955,-37.4592],[-70.0838,-37.4751],[-70.085,-37.4847],[-70.0984,-37.4891],[-70.0942,-37.4977],[-70.0955,-37.5012],[-70.0918,-37.5108],[-70.0846,-37.5172],[-70.0849,-37.5303],[-70.079,-37.534],[-70.0624,-37.5373],[-70.0624,-37.5467],[-70.0469,-37.556],[-70.0438,-37.5734],[-70.0477,-37.5802],[-70.0397,-37.5981],[-70.042,-37.6024],[-70.0343,-37.6128],[-70.0318,-37.634],[-70.0389,-37.6442],[-70.0309,-37.6544],[-70.0198,-37.657],[-70.0141,-37.6532],[-70.0069,-37.6532],[-69.9863,-37.6565],[-69.9816,-37.6666],[-69.9745,-37.6674],[-69.9612,-37.6637],[-69.9486,-37.6667],[-69.9431,-37.6709],[-69.9321,-37.6704],[-69.9254,-37.6667],[-69.9089,-37.6673],[-69.8955,-37.6766],[-69.8936,-37.6822],[-69.8857,-37.6914],[-68.2549,-37.7046],[-68.2501,-37.7045]]]},"properties":{"id":469,"departamento":"PEHUENCHES","cabecera":"RINCON DE LOS SAUCES","provincia":"NEUQUEN"}},
{"type":"Feature","geometry":{"type":"Polygon","coordinates":[[[-70.5118,-37.365],[-70.4769,-36.2341],[-70.4751,-36.1737],[-70.489,-36.1788],[-70.4984,-36.171],[-70.5065,-36.1679],[-70.5074,-36.16],[-70.5227,-36.1477],[-70.5335,-36.142],[-70.5437,-36.143],[-70.5511,-36.1388],[-70.5595,-36.1387],[-70.5682,-36.1328],[-70.58,-36.1417],[-70.5826,-36.1486],[-70.5716,-36.1672],[-70.5715,-36.1762],[-70.583,-36.1831],[-70.587,-36.1895],[-70.5997,-36.1923],[-70.6043,-36.1964],[-70.6078,-36.2065],[-70.6294,-36.2134],[-70.6332,-36.2172],[-70.6256,-36.2235],[-70.6248,-36.2285],[-70.6321,-36.239],[-70.6402,-36.2436],[-70.6536,-36.2411],[-70.6697,-36.2451],[-70.6805,-36.2558],[-70.689,-36.2567],[-70.6914,-36.2612],[-70.7059,-36.2725],[-70.7034,-36.2797],[-70.6957,-36.279],[-70.6849,-36.2841],[-70.6895,-36.3006],[-70.6846,-36.3022],[-70.6875,-36.3107],[-70.6957,-36.315],[-70.7014,-36.324],[-70.7042,-36.3343],[-70.7107,-36.3393],[-70.7109,-36.3484],[-70.7026,-36.3513],[-70.6997,-36.3609],[-70.6924,-36.3602],[-70.6882,-36.3696],[-70.684,-36.3699],[-70.679,-36.3771],[-70.6801,-36.3924],[-70.6876,-36.3998],[-70.6878,-36.4067],[-70.694,-36.41],[-70.7004,-36.4092],[-70.7084,-36.4177],[-70.7127,-36.4275],[-70.7224,-36.4269],[-70.7395,-36.4294],[-70.739,-36.4223],[-70.7348,-36.4154],[-70.7405,-36.4076],[-70.7476,-36.4056],[-70.7548,-36.408],[-70.7643,-36.4228],[-70.7727,-36.4286],[-70.7912,-36.4285],[-70.7937,-36.4196],[-70.8076,-36.4026],[-70.8172,-36.3953],[-70.8323,-36.4057],[-70.8364,-36.4153],[-70.8517,-36.4157],[-70.8707,-36.4075],[-70.8647,-36.3971],[-70.8838,-36.3961],[-70.8885,-36.3988],[-70.8899,-36.4099],[-70.887,-36.4147],[-70.8917,-36.4248],[-70.887,-36.4361],[-70.8945,-36.4521],[-70.8874,-36.4609],[-70.8948,-36.4713],[-70.9023,-36.4746],[-70.9201,-36.4722],[-70.9281,-36.4743],[-70.9279,-36.4828],[-70.9342,-36.4916],[-70.9447,-36.4903],[-70.9531,-36.4968],[-70.9564,-36.5036],[-70.975,-36.5021],[-70.9796,-36.4932],[-70.9903,-36.4952],[-70.9982,-36.4864],[-71.0107,-36.4862],[-71.0132,-36.4787],[-71.018,-36.4737],[-71.0256,-36.4711],[-71.0345,-36.4726],[-71.0386,-36.4768],[-71.0363,-36.4944],[-71.0393,-36.4972],[-71.0351,-36.5096],[-71.0441,-36.5142],[-71.0509,-36.5228],[-71.0464,-36.5333],[-71.0441,-36.547],[-71.0409,-36.5505],[-71.0496,-36.559],[-71.0539,-36.568],[-71.0538,-36.576],[-71.0474,-36.5825],[-71.0464,-36.5948],[-71.0494,-36.5985],[-71.0477,-36.6067],[-71.0547,-36.6125],[-71.0564,-36.6194],[-71.0491,-36.6223],[-71.0426,-36.6307],[-71.0424,-36.6427],[-71.0399,-36.6495],[-71.0294,-36.6499],[-71.0262,-36.6632],[-71.0117,-36.6638],[-71.0135,-36.6734],[-71.0073,-36.6823],[-71.0127,-36.6965],[-71.0242,-36.697],[-71.0295,-36.702],[-71.0558,-36.7072],[-71.0596,-36.7132],[-71.0648,-36.714],[-71.0716,-36.7068],[-71.0765,-36.7074],[-71.0799,-36.6962],[-71.079,-36.6889],[-71.0858,-36.6775],[-71.1006,-36.6761],[-71.1132,-36.6784],[-71.1146,-36.6907],[-71.1199,-36.6996],[-71.112,-36.7125],[-71.1136,-36.7188],[-71.1119,-36.7282],[-71.1212,-36.7422],[-71.1196,-36.7544],[-71.1286,-36.7626],[-71.1294,-36.7823],[-71.1281,-36.7888],[-71.1335,-36.8073],[-71.132,-36.8134],[-71.1429,-36.8185],[-71.1433,-36.8234],[-71.1535,-36.827],[-71.1599,-36.8168],[-71.1676,-36.823],[-71.1693,-36.8309],[-71.1799,-36.8413],[-71.1771,-36.8472],[-71.163,-36.8611],[-71.1514,-36.8591],[-71.1464,-36.8545],[-71.139,-36.8532],[-71.1272,-36.8575],[-71.1213,-36.8637],[-71.1222,-36.8693],[-71.1296,-36.8739],[-71.1353,-36.889],[-71.1398,-36.8966],[-71.1491,-36.9015],[-71.1471,-36.9162],[-71.1436,-36.9191],[-71.1441,-36.929],[-71.1193,-36.9309],[-71.1127,-36.9254],[-71.1047,-36.9284],[-71.0988,-36.9257],[-71.0881,-36.9288],[-71.088,-36.9382],[-71.0996,-36.9572],[-71.1007,-36.9666],[-71.1066,-36.971],[-71.1183,-36.9687],[-71.1257,-36.9717],[-71.1312,-36.9783],[-71.1445,-36.9806],[-71.1656,-36.978],[-71.1739,-36.9683],[-71.1871,-36.9687],[-71.2033,-36.9748],[-71.218,-36.9731],[-71.2222,-36.978],[-71.2134,-36.9855],[-71.1973,-36.9872],[-71.1886,-36.9961],[-71.169,-36.9962],[-71.1667,-37.0064],[-71.1573,-37.0123],[-71.155,-37.0197],[-71.1497,-37.0222],[-71.1445,-37.0312],[-71.1377,-37.053],[-71.145,-37.062],[-71.1423,-37.0687],[-71.1341,-37.0722],[-71.1256,-37.0707],[-71.1199,-37.0749],[-71.1234,-37.0896],[-71.111,-37.0949],[-71.1039,-37.1066],[-71.0985,-37.1067],[-71.0928,-37.1143],[-71.0957,-37.1252],[-71.1088,-37.133],[-71.1246,-37.135],[-71.1272,-37.1404],[-71.1358,-37.1472],[-71.1358,-37.1643],[-71.1281,-37.174],[-71.1277,-37.1869],[-71.1168,-37.1984],[-71.1138,-37.2041],[-71.121,-37.2126],[-71.1424,-37.2207],[-71.1477,-37.2204],[-71.1669,-37.2281],[-71.155,-37.234],[-71.1596,-37.2412],[-71.1557,-37.2436],[-71.1541,-37.2563],[-71.158,-37.2707],[-71.1632,-37.2828],[-71.1616,-37.2883],[-71.1679,-37.2995],[-71.1635,-37.3081],[-71.1456,-37.3342],[-71.1321,-37.3373],[-71.1232,-37.3414],[-71.1164,-37.3477],[-71.1098,-37.349],[-71.1042,-37.3613],[-71.095,-37.366],[-71.0876,-37.3658],[-71.0693,-37.3612],[-71.0578,-37.3663],[-71.0552,-37.3705],[-71.0395,-37.3693],[-71.0294,-37.3648],[-71.0241,-37.3678],[-71.0122,-37.3646],[-71.0079,-37.3582],[-70.9804,-37.3654],[-70.9687,-37.3618],[-70.9637,-37.3625],[-70.9553,-37.3574],[-70.9325,-37.3576],[-70.9198,-37.3532],[-70.9189,-37.3483],[-70.8862,-37.3434],[-70.8497,-37.348],[-70.8364,-37.3411],[-70.8223,-37.3463],[-70.8096,-37.3439],[-70.7957,-37.3499],[-70.7897,-37.3487],[-70.7823,-37.3423],[-70.772,-37.344],[-70.7645,-37.3394],[-70.7546,-37.3405],[-70.74,-37.3377],[-70.733,-37.332],[-70.7256,-37.3319],[-70.7125,-37.3446],[-70.7024,-37.3424],[-70.702,-37.3358],[-70.6879,-37.3388],[-70.6744,-37.3468],[-70.6619,-37.3441],[-70.6504,-37.3497],[-70.6419,-37.3502],[-70.6342,-37.3591],[-70.6267,-37.3572],[-70.6165,-37.3624],[-70.6175,-37.3726],[-70.6115,-37.3789],[-70.6053,-37.3723],[-70.5949,-37.3689],[-70.5871,-37.3722],[-70.5883,-37.3794],[-70.581,-37.3818],[-70.5797,-37.3735],[-70.5721,-37.3713],[-70.5692,-37.3765],[-70.5606,-37.3768],[-70.559,-37.3665],[-70.5482,-37.3671],[-70.5402,-37.3778],[-70.5329,-37.3765],[-70.5368,-37.3703],[-70.5276,-37.3648],[-70.5231,-37.3711],[-70.5167,-37.371],[-70.5118,-37.365]]]},"properties":{"id":470,"departamento":"MINAS","cabecera":"ANDACOLLO","provincia":"NEUQUEN"}},
{"type":"Feature","geometry":{"type":"Polygon","coordinates":[[[-70.0955,-37.5012],[-70.0942,-37.4977],[-70.0984,-37.4891],[-70.085,-37.4847],[-70.0838,-37.4751],[-70.0955,-37.4592],[-70.1001,-37.4405],[-70.105,-37.4346],[-70.1009,-37.4243],[-70.0986,-37.4039],[-70.0932,-37.394],[-70.0846,-37.3833],[-70.0712,-37.3733],[-70.0661,-37.3582],[-70.0614,-37.3557],[-70.0599,-37.3419],[-70.0559,-37.3363],[-70.0453,-37.3302],[-70.0426,-37.3178],[-70.0303,-37.3133],[-70.0262,-37.3071],[-70.0204,-37.2838],[-70.0225,-37.276],[-70.0285,-37.2708],[-70.0383,-37.2716],[-70.0452,-37.2668],[-70.0488,-37.2592],[-70.0578,-37.258],[-70.055,-37.1481],[-70.0503,-36.9679],[-70.0458,-36.7877],[-70.0426,-36.659],[-70.0519,-36.645],[-70.0562,-36.6434],[-70.063,-36.6281],[-70.0693,-36.6237],[-70.0718,-36.6136],[-70.0779,-36.6057],[-70.0845,-36.6019],[-70.0926,-36.5879],[-70.1046,-36.5868],[-70.1144,-36.5742],[-70.1228,-36.5692],[-70.1212,-36.5582],[-70.1228,-36.5522],[-70.1295,-36.5487],[-70.1345,-36.5404],[-70.1392,-36.5276],[-70.1515,-36.5212],[-70.1555,-36.5119],[-70.1652,-36.5053],[-70.1821,-36.4911],[-70.1871,-36.4719],[-70.2009,-36.4546],[-70.2045,-36.4429],[-70.2038,-36.4353],[-70.1954,-36.4232],[-70.2056,-36.4075],[-70.2055,-36.3969],[-70.2115,-36.3897],[-70.2057,-36.384],[-70.2108,-36.3709],[-70.2135,-36.3684],[-70.2155,-36.3378],[-70.2215,-36.33],[-70.2285,-36.3249],[-70.2355,-36.3268],[-70.247,-36.3215],[-70.2616,-36.3221],[-70.2728,-36.3247],[-70.2869,-36.3326],[-70.2911,-36.3371],[-70.3061,-36.3402],[-70.3129,-36.3353],[-70.3232,-36.3365],[-70.3426,-36.3358],[-70.3538,-36.3166],[-70.3596,-36.3089],[-70.3626,-36.2994],[-70.3606,-36.2937],[-70.3731,-36.2759],[-70.3712,-36.2682],[-70.3747,-36.2567],[-70.373,-36.2443],[-70.3732,-36.2229],[-70.3789,-36.2212],[-70.3803,-36.2154],[-70.3958,-36.1931],[-70.3965,-36.1836],[-70.3933,-36.1725],[-70.3936,-36.1516],[-70.3951,-36.1398],[-70.3994,-36.1282],[-70.3991,-36.119],[-70.4154,-36.1103],[-70.42,-36.1149],[-70.4223,-36.1257],[-70.4186,-36.1309],[-70.4181,-36.1386],[-70.4223,-36.143],[-70.4209,-36.1555],[-70.4291,-36.1594],[-70.4389,-36.1602],[-70.4443,-36.1634],[-70.4446,-36.17],[-70.4492,-36.1732],[-70.4698,-36.1716],[-70.4751,-36.1737],[-70.4769,-36.2341],[-70.5118,-37.365],[-70.5055,-37.37],[-70.4923,-37.3664],[-70.4809,-37.3705],[-70.4679,-37.3612],[-70.4604,-37.3653],[-70.4535,-37.3475],[-70.4463,-37.3442],[-70.4359,-37.349],[-70.4323,-37.3532],[-70.4303,-37.3672],[-70.4263,-37.3755],[-70.4195,-37.3814],[-70.4094,-37.3851],[-70.4046,-37.3797],[-70.3954,-37.3744],[-70.3757,-37.3702],[-70.3654,-37.3634],[-70.352,-37.3661],[-70.3492,-37.3639],[-70.3336,-37.3731],[-70.3154,-37.3679],[-70.3081,-37.3744],[-70.2971,-37.3807],[-70.2897,-37.3797],[-70.2803,-37.3859],[-70.2728,-37.3963],[-70.2663,-37.3986],[-70.2534,-37.3969],[-70.244,-37.4048],[-70.2313,-37.4063],[-70.2229,-37.41],[-70.2212,-37.4163],[-70.2125,-37.4184],[-70.1986,-37.4387],[-70.1996,-37.4498],[-70.1965,-37.4565],[-70.1886,-37.4661],[-70.1748,-37.4709],[-70.1725,-37.476],[-70.1593,-37.4751],[-70.1437,-37.4808],[-70.1416,-37.4839],[-70.1287,-37.4864],[-70.1166,-37.4919],[-70.1087,-37.4991],[-70.0955,-37.5012]]]},"properties":{"id":471,"departamento":"CHOS MALAL","cabecera":"CHOS MALAL","provincia":"NEUQUEN"}}
]}