{"type":"FeatureCollection", "features": [
{"type":"Feature","geometry":{"type":"Polygon","coordinates":[[[-63.9377,-36.812],[-64.1659,-36.8114],[-64.1665,-36.9959],[-64.1674,-37.2661],[-63.8228,-37.2683],[-63.5444,-37.2694],[-63.3839,-37.2699],[-63.384,-36.8137],[-63.789,-36.8122],[-63.9377,-36.812]]]},"properties":{"id":387,"departamento":"ATREUCO","cabecera":"MACACHIN","provincia":"LA PAMPA"}},
{"type":"Feature","geometry":{"type":"Polygon","coordinates":[[[-63.9387,-35],[-64.4845,-35],[-64.4858,-35.2756],[-64.4867,-35.4588],[-64.2125,-35.4598],[-63.937,-35.4602],[-63.9382,-35.1462],[-63.9387,-35]]]},"properties":{"id":246,"departamento":"REALICO","cabecera":"REALICO","provincia":"LA PAMPA"}},
{"type":"Feature","geometry":{"type":"Polygon","coordinates":[[[-64.4867,-35.4588],[-64.4884,-35.8146],[-64.2153,-35.8166],[-63.9359,-35.818],[-63.9358,-35.7522],[-63.937,-35.4602],[-64.2125,-35.4598],[-64.4867,-35.4588]]]},"properties":{"id":247,"departamento":"TRENEL","cabecera":"TRENEL","provincia":"LA PAMPA"}},
{"type":"Feature","geometry":{"type":"Polygon","coordinates":[[[-67.111,-36.8007],[-67.0345,-36.7996],[-65.9823,-36.7806],[-65.9937,-36.3598],[-65.9962,-36.2659],[-66.0035,-35.9995],[-66.1518,-35.9995],[-66.6373,-35.9995],[-67.1202,-35.9995],[-67.1166,-36.3136],[-67.111,-36.8007]]]},"properties":{"id":248,"departamento":"CHALILEO","cabecera":"SANTA ISABEL","provincia":"LA PAMPA"}},
{"type":"Feature","geometry":{"type":"Polygon","coordinates":[[[-65.9823,-36.7806],[-65.9774,-36.961],[-65.7862,-36.9557],[-65.6227,-36.9535],[-65.6232,-36.9787],[-65.0603,-36.9869],[-65.0587,-36.8976],[-65.0532,-36.5917],[-65.0479,-36.2622],[-65.0437,-35.9993],[-65.1169,-35.997],[-65.1169,-35.9995],[-65.2658,-35.9995],[-66.0035,-35.9995],[-65.9962,-36.2659],[-65.9937,-36.3598],[-65.9823,-36.7806]]]},"properties":{"id":249,"departamento":"LOVENTUE","cabecera":"VICTORICA","provincia":"LA PAMPA"}},
{"type":"Feature","geometry":{"type":"Polygon","coordinates":[[[-64.1659,-36.8114],[-64.1655,-36.7172],[-64.279,-36.7166],[-64.2795,-36.6943],[-64.3526,-36.6258],[-64.497,-36.6249],[-64.4909,-36.2681],[-64.8057,-36.265],[-65.0479,-36.2622],[-65.0532,-36.5917],[-65.0587,-36.8976],[-65.0603,-36.9869],[-64.9991,-36.9876],[-64.4391,-36.9938],[-64.1665,-36.9959],[-64.1659,-36.8114]]]},"properties":{"id":250,"departamento":"TOAY","cabecera":"TOAY","provincia":"LA PAMPA"}},
{"type":"Feature","geometry":{"type":"Polygon","coordinates":[[[-63.9377,-36.812],[-63.9374,-36.6777],[-63.9369,-36.3643],[-63.9368,-36.2714],[-64.1632,-36.2704],[-64.4909,-36.2681],[-64.497,-36.6249],[-64.3526,-36.6258],[-64.2795,-36.6943],[-64.279,-36.7166],[-64.1655,-36.7172],[-64.1659,-36.8114],[-63.9377,-36.812]]]},"properties":{"id":251,"departamento":"CAPITAL","cabecera":"SANTA ROSA","provincia":"LA PAMPA"}},
{"type":"Feature","geometry":{"type":"Polygon","coordinates":[[[-67.111,-36.8007],[-67.1107,-36.8243],[-67.1015,-37.3439],[-67.0979,-37.5504],[-67.0961,-37.7108],[-66.5282,-37.7009],[-66.1998,-37.6939],[-65.9566,-37.6887],[-65.9762,-37.0026],[-65.9774,-36.961],[-65.9823,-36.7806],[-67.0345,-36.7996],[-67.111,-36.8007]]]},"properties":{"id":252,"departamento":"LIMAY MAHUIDA","cabecera":"LIMAY MAHUIDA","provincia":"LA PAMPA"}},
{"type":"Feature","geometry":{"type":"Polygon","coordinates":[[[-64.1665,-36.9959],[-64.4391,-36.9938],[-64.9991,-36.9876],[-65.0603,-36.9869],[-65.6232,-36.9787],[-65.6227,-36.9535],[-65.7862,-36.9557],[-65.9774,-36.961],[-65.9762,-37.0026],[-65.9566,-37.6887],[-65.6378,-37.6811],[-65.638,-37.6995],[-65.0686,-37.7087],[-64.8589,-37.7114],[-64.5081,-37.7152],[-64.1678,-37.7179],[-64.1677,-37.5399],[-64.1674,-37.2661],[-64.1665,-36.9959]]]},"properties":{"id":253,"departamento":"UTRACAN","cabecera":"GENERAL ACHA","provincia":"LA PAMPA"}},
{"type":"Feature","geometry":{"type":"Polygon","coordinates":[[[-67.0961,-37.7108],[-67.0924,-38.0388],[-67.09,-38.2551],[-67.0883,-38.4007],[-67.0698,-38.4021],[-67.057,-38.4116],[-67.0306,-38.4156],[-67.007,-38.4243],[-66.9944,-38.4465],[-66.9728,-38.4432],[-66.9488,-38.4529],[-66.897,-38.4437],[-66.8931,-38.4603],[-66.8692,-38.4651],[-66.8544,-38.4756],[-66.8313,-38.4775],[-66.8095,-38.4848],[-66.792,-38.4798],[-66.7813,-38.484],[-66.7663,-38.5043],[-66.751,-38.5085],[-66.7466,-38.5175],[-66.7126,-38.5226],[-66.6632,-38.5382],[-66.6494,-38.5356],[-66.6349,-38.5432],[-66.6338,-38.5568],[-66.6157,-38.5587],[-66.5951,-38.5887],[-66.5998,-38.5997],[-66.5901,-38.6157],[-66.5789,-38.6206],[-66.583,-38.6345],[-66.5966,-38.6477],[-66.5919,-38.6698],[-66.6067,-38.6797],[-66.5729,-38.7019],[-66.5534,-38.6984],[-66.5359,-38.7211],[-66.5234,-38.716],[-66.4988,-38.718],[-66.4894,-38.7282],[-66.4745,-38.729],[-66.4445,-38.7455],[-66.4044,-38.7441],[-66.3883,-38.7389],[-66.3749,-38.7458],[-66.3546,-38.7463],[-66.3418,-38.7577],[-66.3127,-38.7444],[-66.2605,-38.7448],[-66.2468,-38.7356],[-66.2157,-38.7401],[-66.1856,-38.7315],[-66.1629,-38.7372],[-66.1579,-38.7294],[-66.1313,-38.7385],[-66.1107,-38.7361],[-66.1049,-38.7276],[-66.0768,-38.7326],[-66.0749,-38.7441],[-66.0552,-38.7431],[-66.0339,-38.7509],[-66.0197,-38.7413],[-65.9969,-38.7469],[-65.9803,-38.7442],[-65.9473,-38.7483],[-65.9502,-38.762],[-65.9107,-38.7657],[-65.9126,-38.7812],[-65.8749,-38.7777],[-65.8581,-38.7989],[-65.8411,-38.7866],[-65.827,-38.7969],[-65.8044,-38.7936],[-65.7903,-38.7962],[-65.7796,-38.8102],[-65.7162,-38.8188],[-65.7018,-38.8165],[-65.6958,-38.8315],[-65.6625,-38.8267],[-65.6566,-38.6013],[-65.6525,-38.442],[-65.6457,-38.1849],[-65.6409,-37.8801],[-65.638,-37.6995],[-65.6378,-37.6811],[-65.9566,-37.6887],[-66.1998,-37.6939],[-66.5282,-37.7009],[-67.0961,-37.7108]]]},"properties":{"id":254,"departamento":"CURACO","cabecera":"PUELCHES","provincia":"LA PAMPA"}},
{"type":"Feature","geometry":{"type":"Polygon","coordinates":[[[-65.638,-37.6995],[-65.6409,-37.8801],[-65.6457,-38.1849],[-65.6525,-38.442],[-65.6566,-38.6013],[-65.6625,-38.8267],[-65.6318,-38.8181],[-65.625,-38.8028],[-65.6141,-38.8072],[-65.6034,-38.777],[-65.5774,-38.7755],[-65.5716,-38.784],[-65.5265,-38.7785],[-65.5025,-38.7981],[-65.4561,-38.8153],[-65.4378,-38.8155],[-65.3908,-38.8305],[-65.3808,-38.8532],[-65.3376,-38.8457],[-65.3122,-38.8309],[-65.2662,-38.8223],[-65.2563,-38.8321],[-65.2418,-38.831],[-65.2139,-38.837],[-65.1918,-38.8366],[-65.1857,-38.8275],[-65.1914,-38.8104],[-65.1612,-38.8033],[-65.1466,-38.8167],[-65.1281,-38.8047],[-65.0971,-38.8003],[-65.0902,-38.8082],[-65.0615,-38.8099],[-65.0336,-38.8175],[-65.0214,-38.8138],[-65.0017,-38.8191],[-64.9672,-38.8202],[-64.9264,-38.8329],[-64.8894,-38.8254],[-64.8773,-38.8144],[-64.8557,-38.8247],[-64.8279,-38.8257],[-64.8095,-38.8158],[-64.7846,-38.8269],[-64.766,-38.8301],[-64.7326,-38.8414],[-64.707,-38.8374],[-64.6915,-38.8432],[-64.6728,-38.8332],[-64.6328,-38.8459],[-64.6304,-38.8527],[-64.6047,-38.8477],[-64.6044,-38.8562],[-64.5835,-38.8604],[-64.5243,-38.8607],[-64.5147,-38.8683],[-64.5145,-38.6767],[-64.5136,-38.4321],[-64.5129,-38.2507],[-64.5121,-38.1624],[-64.5081,-37.7152],[-64.8589,-37.7114],[-65.0686,-37.7087],[-65.638,-37.6995]]]},"properties":{"id":255,"departamento":"LIHUEL CALEL","cabecera":"CUCHILLO CO","provincia":"LA PAMPA"}},
{"type":"Feature","geometry":{"type":"Polygon","coordinates":[[[-64.4845,-35],[-64.8472,-34.9996],[-65.1175,-35],[-65.1171,-35.8074],[-64.8772,-35.8106],[-64.4884,-35.8146],[-64.4867,-35.4588],[-64.4858,-35.2756],[-64.4845,-35]]]},"properties":{"id":256,"departamento":"RANCUL","cabecera":"PARERA","provincia":"LA PAMPA"}},
{"type":"Feature","geometry":{"type":"Polygon","coordinates":[[[-64.4884,-35.8146],[-64.8772,-35.8106],[-65.1171,-35.8074],[-65.1169,-35.997],[-65.0437,-35.9993],[-65.0479,-36.2622],[-64.8057,-36.265],[-64.4909,-36.2681],[-64.1632,-36.2704],[-63.9368,-36.2714],[-63.9364,-36.0924],[-63.9361,-35.9127],[-63.9359,-35.818],[-64.2153,-35.8166],[-64.4884,-35.8146]]]},"properties":{"id":257,"departamento":"CONHELO","cabecera":"EDUARDO CASTEX","provincia":"LA PAMPA"}},
{"type":"Feature","geometry":{"type":"Polygon","coordinates":[[[-63.9359,-35.818],[-63.9361,-35.9127],[-63.7734,-35.9131],[-63.3842,-35.9134],[-63.3843,-35.4591],[-63.7196,-35.4601],[-63.937,-35.4602],[-63.9358,-35.7522],[-63.9359,-35.818]]]},"properties":{"id":384,"departamento":"MARACO","cabecera":"GENERAL PICO","provincia":"LA PAMPA"}},
{"type":"Feature","geometry":{"type":"Polygon","coordinates":[[[-63.9369,-36.3643],[-63.7118,-36.3647],[-63.3841,-36.3645],[-63.3841,-36.1957],[-63.3842,-35.9134],[-63.7734,-35.9131],[-63.9361,-35.9127],[-63.9364,-36.0924],[-63.9368,-36.2714],[-63.9369,-36.3643]]]},"properties":{"id":385,"departamento":"QUEMU QUEMU","cabecera":"QUEMU QUEMU","provincia":"LA PAMPA"}},
{"type":"Feature","geometry":{"type":"Polygon","coordinates":[[[-63.384,-36.8137],[-63.384,-36.5799],[-63.3841,-36.3645],[-63.7118,-36.3647],[-63.9369,-36.3643],[-63.9374,-36.6777],[-63.9377,-36.812],[-63.789,-36.8122],[-63.384,-36.8137]]]},"properties":{"id":386,"departamento":"CATRILO","cabecera":"CATRILO","provincia":"LA PAMPA"}},
{"type":"Feature","geometry":{"type":"Polygon","coordinates":[[[-64.5147,-38.8683],[-64.4821,-38.865],[-64.444,-38.869],[-64.428,-38.8793],[-64.3731,-38.8915],[-64.3465,-38.8848],[-64.3311,-38.9046],[-64.3152,-38.9061],[-64.2958,-38.8971],[-64.2905,-38.9075],[-64.2309,-38.9237],[-64.1933,-38.9439],[-64.1354,-38.9695],[-64.1036,-38.9782],[-64.0909,-38.9877],[-64.0675,-38.9908],[-64.066,-39.0037],[-64.0494,-39],[-64.0145,-39.001],[-64.0103,-39.0175],[-63.9964,-39.0363],[-63.9579,-39.0459],[-63.9583,-39.0523],[-63.9335,-39.0616],[-63.9162,-39.0863],[-63.8955,-39.1077],[-63.8713,-39.0953],[-63.8591,-39.1097],[-63.8431,-39.1085],[-63.8327,-39.1211],[-63.8194,-39.1265],[-63.7932,-39.123],[-63.7769,-39.1289],[-63.759,-39.1277],[-63.7634,-39.154],[-63.7458,-39.1626],[-63.7331,-39.1846],[-63.7163,-39.1962],[-63.6935,-39.2057],[-63.6755,-39.2035],[-63.6764,-39.2188],[-63.6558,-39.2278],[-63.6334,-39.2284],[-63.6354,-39.2453],[-63.6083,-39.2527],[-63.596,-39.2461],[-63.581,-39.2589],[-63.5681,-39.2582],[-63.5487,-39.2681],[-63.5377,-39.2808],[-63.5412,-39.2967],[-63.5002,-39.3128],[-63.4895,-39.3065],[-63.46,-39.3283],[-63.453,-39.3204],[-63.4349,-39.3292],[-63.4192,-39.3264],[-63.3835,-39.3285],[-63.3829,-39.2129],[-63.3836,-39.1351],[-63.3836,-38.9614],[-63.3837,-38.2571],[-63.7471,-38.2563],[-63.9375,-38.2557],[-64.5129,-38.2507],[-64.5136,-38.4321],[-64.5145,-38.6767],[-64.5147,-38.8683]]]},"properties":{"id":388,"departamento":"CALEU CALEU","cabecera":"LA ADELA","provincia":"LA PAMPA"}},
{"type":"Feature","geometry":{"type":"Polygon","coordinates":[[[-64.1674,-37.2661],[-64.1677,-37.5399],[-64.1678,-37.7179],[-63.9367,-37.7193],[-63.7112,-37.7203],[-63.3838,-37.7198],[-63.3839,-37.2699],[-63.5444,-37.2694],[-63.8228,-37.2683],[-64.1674,-37.2661]]]},"properties":{"id":389,"departamento":"GUATRACHE","cabecera":"GUATRACHE","provincia":"LA PAMPA"}},
{"type":"Feature","geometry":{"type":"Polygon","coordinates":[[[-64.5081,-37.7152],[-64.5121,-38.1624],[-64.5129,-38.2507],[-63.9375,-38.2557],[-63.7471,-38.2563],[-63.3837,-38.2571],[-63.3838,-37.8098],[-63.3838,-37.7198],[-63.7112,-37.7203],[-63.9367,-37.7193],[-64.1678,-37.7179],[-64.5081,-37.7152]]]},"properties":{"id":390,"departamento":"HUCAL","cabecera":"BERNASCONI","provincia":"LA PAMPA"}},
{"type":"Feature","geometry":{"type":"Polygon","coordinates":[[[-63.937,-35.4602],[-63.7196,-35.4601],[-63.3843,-35.4591],[-63.3843,-35.369],[-63.3843,-35.0001],[-63.5278,-35],[-63.9387,-35],[-63.9382,-35.1462],[-63.937,-35.4602]]]},"properties":{"id":392,"departamento":"CHAPALEUFU","cabecera":"INTENDENTE ALVEAR","provincia":"LA PAMPA"}},
{"type":"Feature","geometry":{"type":"Polygon","coordinates":[[[-67.1202,-35.9995],[-67.1949,-35.9995],[-68.2692,-35.9996],[-68.2961,-35.9996],[-68.2961,-36.1725],[-68.2502,-36.1725],[-68.2502,-36.2384],[-68.2501,-36.811],[-68.0331,-36.8091],[-67.111,-36.8007],[-67.1166,-36.3136],[-67.1202,-35.9995]]]},"properties":{"id":495,"departamento":"CHICAL CO","cabecera":"ALGARROBO DEL AGUILA","provincia":"LA PAMPA"}},
{"type":"Feature","geometry":{"type":"Polygon","coordinates":[[[-67.111,-36.8007],[-68.0331,-36.8091],[-68.2501,-36.811],[-68.25,-37.2394],[-68.25,-37.5767],[-68.2397,-37.5843],[-68.2018,-37.5889],[-68.1514,-37.5805],[-68.1303,-37.5911],[-68.1001,-37.5955],[-68.09,-37.5931],[-68.0657,-37.6018],[-68.0458,-37.5959],[-68.0191,-37.6028],[-67.9909,-37.6042],[-67.9807,-37.609],[-67.9499,-37.6029],[-67.9381,-37.605],[-67.9239,-37.6172],[-67.9044,-37.6145],[-67.8791,-37.62],[-67.8471,-37.6183],[-67.8136,-37.643],[-67.7934,-37.6463],[-67.7685,-37.6754],[-67.7737,-37.6877],[-67.7607,-37.7104],[-67.7649,-37.7235],[-67.7514,-37.7378],[-67.7576,-37.7458],[-67.7408,-37.7631],[-67.7442,-37.7762],[-67.7374,-37.7918],[-67.7255,-37.7919],[-67.721,-37.8064],[-67.7279,-37.8173],[-67.7275,-37.8456],[-67.7327,-37.8598],[-67.7481,-37.8652],[-67.7805,-37.894],[-67.8136,-37.9008],[-67.8194,-37.9085],[-67.8454,-37.918],[-67.8731,-37.9406],[-67.8747,-37.9547],[-67.904,-37.9836],[-67.8913,-37.999],[-67.8932,-38.0145],[-67.8831,-38.0188],[-67.8684,-38.0364],[-67.8637,-38.0519],[-67.833,-38.0578],[-67.8121,-38.0707],[-67.7901,-38.0635],[-67.7843,-38.0534],[-67.7424,-38.0758],[-67.7258,-38.0931],[-67.7301,-38.1148],[-67.7154,-38.1305],[-67.6974,-38.1268],[-67.6856,-38.1381],[-67.6823,-38.1625],[-67.6684,-38.1795],[-67.6565,-38.2018],[-67.5932,-38.2406],[-67.5479,-38.2563],[-67.5287,-38.2577],[-67.4303,-38.2529],[-67.3641,-38.2538],[-67.3171,-38.2476],[-67.2812,-38.225],[-67.2611,-38.2171],[-67.1991,-38.2123],[-67.1861,-38.2165],[-67.1966,-38.2538],[-67.1774,-38.2619],[-67.1724,-38.2792],[-67.1528,-38.2926],[-67.1584,-38.3078],[-67.1478,-38.3316],[-67.156,-38.3495],[-67.1393,-38.3614],[-67.1178,-38.3575],[-67.1108,-38.3739],[-67.0883,-38.4007],[-67.09,-38.2551],[-67.0924,-38.0388],[-67.0961,-37.7108],[-67.0979,-37.5504],[-67.1015,-37.3439],[-67.1107,-36.8243],[-67.111,-36.8007]]]},"properties":{"id":496,"departamento":"PUELEN","cabecera":"25 DE MAYO","provincia":"LA PAMPA"}}
]}