{"type":"FeatureCollection", "features": [
{"type":"Feature","geometry":{"type":"Polygon","coordinates":[[[-67.8534,-29.0771],[-68.2453,-29.2243],[-68.7079,-29.0597],[-68.9482,-28.9711],[-68.9318,-28.9891],[-68.9325,-29.0179],[-68.9257,-29.0259],[-68.914,-29.0288],[-68.9084,-29.0471],[-68.908,-29.0728],[-68.9176,-29.0717],[-68.9252,-29.0894],[-68.9238,-29.1059],[-68.9129,-29.1111],[-68.9149,-29.1344],[-68.9338,-29.1492],[-68.9327,-29.1615],[-68.9469,-29.1688],[-68.9585,-29.1642],[-68.963,-29.1499],[-68.9752,-29.1499],[-68.9784,-29.1623],[-68.9933,-29.1755],[-69.0009,-29.1899],[-68.9941,-29.1987],[-68.9895,-29.2183],[-68.9791,-29.2305],[-68.9922,-29.2531],[-68.9891,-29.274],[-68.9696,-29.2784],[-68.9582,-29.2849],[-68.9623,-29.3111],[-68.9734,-29.3154],[-68.9855,-29.3285],[-68.9746,-29.3642],[-68.9879,-29.375],[-69.0024,-29.4019],[-68.9967,-29.4152],[-68.9802,-29.4226],[-68.9741,-29.4424],[-68.9752,-29.4565],[-68.9898,-29.4781],[-69.0014,-29.4787],[-69.009,-29.4953],[-69.0313,-29.5237],[-69.0294,-29.5425],[-69.0343,-29.5589],[-69.0319,-29.5846],[-69.0231,-29.5936],[-69.0192,-29.6209],[-69.0202,-29.6318],[-69.0135,-29.6396],[-68.9575,-29.6575],[-68.9341,-29.6445],[-68.9364,-29.624],[-68.9331,-29.618],[-68.9181,-29.6222],[-68.9078,-29.6198],[-68.897,-29.6095],[-68.8881,-29.6088],[-68.8873,-29.6217],[-68.8736,-29.6316],[-68.8316,-29.634],[-68.8047,-29.6254],[-68.7833,-29.6245],[-68.7713,-29.6312],[-68.7477,-29.6317],[-68.7355,-29.6254],[-68.7128,-29.6291],[-68.6907,-29.6383],[-68.6815,-29.6465],[-68.6686,-29.6399],[-68.6396,-29.639],[-68.6218,-29.6456],[-68.6025,-29.6442],[-68.5731,-29.6379],[-68.5202,-29.6375],[-68.4677,-29.6443],[-68.4413,-29.6505],[-68.2585,-29.7469],[-68.2678,-29.7586],[-68.2586,-29.7648],[-68.2538,-29.7807],[-68.2323,-29.7788],[-68.2221,-29.7843],[-68.199,-29.7811],[-68.1859,-29.8008],[-68.1822,-29.8226],[-68.1844,-29.8481],[-68.1769,-29.8586],[-68.1634,-29.8651],[-68.1656,-29.8734],[-68.1596,-29.8843],[-68.1052,-29.8842],[-68.0917,-29.8895],[-68.0724,-29.8914],[-68.0455,-29.908],[-68.013,-29.9494],[-67.9982,-29.9757],[-67.992,-29.9792],[-67.951,-29.9367],[-67.9373,-29.919],[-67.8976,-29.8756],[-67.8608,-29.8413],[-67.8426,-29.8272],[-67.8204,-29.8044],[-67.7889,-29.7776],[-67.7235,-29.7263],[-67.6871,-29.7046],[-67.6125,-29.656],[-67.6821,-29.5362],[-67.6941,-29.5085],[-67.6945,-29.5],[-67.7139,-29.4657],[-67.7252,-29.4376],[-67.7442,-29.4182],[-67.7581,-29.3958],[-67.7679,-29.3542],[-67.8001,-29.3223],[-67.8226,-29.2895],[-67.8382,-29.2536],[-67.8512,-29.2129],[-67.8564,-29.1706],[-67.8582,-29.1409],[-67.8534,-29.0771]]]},"properties":{"id":395,"departamento":"CORONEL FELIPE VARELA","cabecera":"VILLA UNION","provincia":"LA RIOJA"}},
{"type":"Feature","geometry":{"type":"Polygon","coordinates":[[[-66.7347,-28.8523],[-66.8366,-28.628],[-67.0119,-28.6038],[-67.0138,-28.6209],[-67.0268,-28.6386],[-67.0477,-28.6494],[-67.0647,-28.6526],[-67.0687,-28.7186],[-67.1422,-28.8482],[-67.0444,-28.9711],[-66.9625,-29.0092],[-66.9489,-29.084],[-66.9433,-29.109],[-66.9264,-29.1298],[-66.9154,-29.1381],[-66.8747,-29.1614],[-66.8622,-29.1744],[-66.8446,-29.1647],[-66.8349,-29.1551],[-66.8163,-29.1204],[-66.8015,-29.0754],[-66.7974,-29.0677],[-66.7754,-29.049],[-66.7347,-28.8523]]]},"properties":{"id":231,"departamento":"CASTRO BARROS","cabecera":"AMINGA","provincia":"LA RIOJA"}},
{"type":"Feature","geometry":{"type":"Polygon","coordinates":[[[-67.1422,-28.8482],[-67.1748,-28.9055],[-67.1985,-28.9472],[-67.2091,-28.971],[-67.2159,-29.0132],[-67.2177,-29.043],[-67.2156,-29.06],[-67.1991,-29.1134],[-67.2026,-29.1213],[-67.2187,-29.1367],[-67.2227,-29.1705],[-67.2111,-29.1985],[-67.1959,-29.2251],[-67.1846,-29.2666],[-67.1744,-29.2807],[-67.1578,-29.2898],[-67.1481,-29.2992],[-67.141,-29.3283],[-67.1342,-29.3396],[-67.1145,-29.3585],[-67.1068,-29.3694],[-67.1005,-29.39],[-67.09,-29.4055],[-67.0818,-29.4197],[-67.0715,-29.4288],[-67.0577,-29.4328],[-67.0386,-29.4308],[-67.0254,-29.4253],[-66.9901,-29.4026],[-66.9762,-29.3906],[-66.946,-29.3573],[-66.9419,-29.345],[-66.9351,-29.3028],[-66.9242,-29.2793],[-66.9032,-29.2617],[-66.8913,-29.2384],[-66.8851,-29.2047],[-66.8781,-29.1889],[-66.8622,-29.1744],[-66.8747,-29.1614],[-66.9154,-29.1381],[-66.9264,-29.1298],[-66.9433,-29.109],[-66.9489,-29.084],[-66.9625,-29.0092],[-67.0444,-28.9711],[-67.1422,-28.8482]]]},"properties":{"id":232,"departamento":"SANAGASTA","cabecera":"VILLA SANAGASTA","provincia":"LA RIOJA"}},
{"type":"Feature","geometry":{"type":"Polygon","coordinates":[[[-65.6417,-30.754],[-65.6495,-30.7534],[-65.9684,-30.7496],[-66.3533,-30.7477],[-66.3257,-30.7929],[-66.3902,-30.8488],[-66.4114,-30.9389],[-66.4899,-30.9869],[-66.4807,-31.0957],[-66.463,-31.096],[-66.4276,-31.1361],[-66.4193,-31.1875],[-66.3081,-31.1887],[-66.2653,-31.2032],[-66.1973,-31.2262],[-65.9387,-31.3124],[-65.7713,-31.3682],[-65.7715,-31.2464],[-65.772,-31.0445],[-65.7192,-30.9268],[-65.6417,-30.754]]]},"properties":{"id":238,"departamento":"GENERAL OCAMPO","cabecera":"VILLA SANTA RITA DE CATUNA","provincia":"LA RIOJA"}},
{"type":"Feature","geometry":{"type":"Polygon","coordinates":[[[-67.6125,-29.656],[-67.5368,-29.7861],[-66.9763,-29.819],[-66.9946,-29.793],[-67.0159,-29.7757],[-67.0286,-29.7575],[-67.0336,-29.7152],[-67.0458,-29.6968],[-67.0559,-29.6638],[-67.0606,-29.6386],[-67.0458,-29.5847],[-67.0308,-29.5533],[-67.0319,-29.5364],[-67.0403,-29.5165],[-67.0516,-29.4977],[-67.0859,-29.474],[-67.0956,-29.4592],[-67.1011,-29.4428],[-67.1014,-29.43],[-67.09,-29.4055],[-67.1005,-29.39],[-67.1068,-29.3694],[-67.1145,-29.3585],[-67.1342,-29.3396],[-67.141,-29.3283],[-67.1481,-29.2992],[-67.1578,-29.2898],[-67.1744,-29.2807],[-67.1846,-29.2666],[-67.1959,-29.2251],[-67.2111,-29.1985],[-67.2227,-29.1705],[-67.2187,-29.1367],[-67.2026,-29.1213],[-67.1991,-29.1134],[-67.2156,-29.06],[-67.2177,-29.043],[-67.2159,-29.0132],[-67.8352,-29.0146],[-67.8397,-29.0187],[-67.8534,-29.0771],[-67.8582,-29.1409],[-67.8564,-29.1706],[-67.8512,-29.2129],[-67.8382,-29.2536],[-67.8226,-29.2895],[-67.8001,-29.3223],[-67.7679,-29.3542],[-67.7581,-29.3958],[-67.7442,-29.4182],[-67.7252,-29.4376],[-67.7139,-29.4657],[-67.6945,-29.5],[-67.6941,-29.5085],[-67.6821,-29.5362],[-67.6125,-29.656]]]},"properties":{"id":233,"departamento":"CHILECITO","cabecera":"CHILECITO","provincia":"LA RIOJA"}},
{"type":"Feature","geometry":{"type":"Polygon","coordinates":[[[-66.4822,-30.1864],[-66.5256,-30.1472],[-66.6322,-30.1102],[-66.6092,-29.8491],[-66.8472,-29.8297],[-66.8606,-29.9983],[-66.8675,-30.0186],[-66.8764,-30.0288],[-66.8759,-30.0498],[-66.862,-30.077],[-66.8566,-30.1151],[-66.8568,-30.1834],[-66.8591,-30.2176],[-66.8641,-30.3653],[-66.861,-30.4036],[-66.865,-30.4159],[-66.8769,-30.4345],[-66.8916,-30.4516],[-66.9002,-30.4669],[-66.9171,-30.5313],[-66.7813,-30.5347],[-66.7804,-30.5651],[-66.7637,-30.6096],[-66.7484,-30.6315],[-66.737,-30.6396],[-66.6919,-30.6569],[-66.6687,-30.6641],[-66.625,-30.6713],[-66.6125,-30.6775],[-66.5824,-30.7395],[-66.3847,-30.6767],[-66.4034,-30.6569],[-66.4197,-30.6308],[-66.4196,-30.6095],[-66.4061,-30.5821],[-66.3844,-30.5536],[-66.3716,-30.5307],[-66.3718,-30.5097],[-66.3949,-30.4824],[-66.4042,-30.4674],[-66.4289,-30.4071],[-66.4447,-30.3806],[-66.4539,-30.3563],[-66.4655,-30.3375],[-66.4738,-30.3085],[-66.4952,-30.28],[-66.5014,-30.264],[-66.4976,-30.2342],[-66.4822,-30.1864]]]},"properties":{"id":234,"departamento":"GENERAL ANGEL V. PEÑALOZA","cabecera":"TAMA","provincia":"LA RIOJA"}},
{"type":"Feature","geometry":{"type":"Polygon","coordinates":[[[-65.6417,-30.754],[-65.5208,-30.4845],[-65.4906,-30.3717],[-65.4962,-30.371],[-65.7525,-30.3825],[-65.9976,-30.3936],[-66.2324,-30.5266],[-66.3718,-30.5097],[-66.3716,-30.5307],[-66.3844,-30.5536],[-66.4061,-30.5821],[-66.4196,-30.6095],[-66.4197,-30.6308],[-66.4034,-30.6569],[-66.3847,-30.6767],[-66.3664,-30.702],[-66.3613,-30.7141],[-66.3533,-30.7477],[-65.9684,-30.7496],[-65.6495,-30.7534],[-65.6417,-30.754]]]},"properties":{"id":239,"departamento":"GENERAL BELGRANO","cabecera":"OLTA","provincia":"LA RIOJA"}},
{"type":"Feature","geometry":{"type":"Polygon","coordinates":[[[-66.3718,-30.5097],[-66.2324,-30.5266],[-65.9976,-30.3936],[-65.7525,-30.3825],[-65.4962,-30.371],[-65.4906,-30.3717],[-65.423,-30.1196],[-65.49,-29.9593],[-65.5449,-29.8277],[-65.7008,-29.8271],[-65.8195,-29.8592],[-66.4303,-30.0243],[-66.4822,-30.1864],[-66.4976,-30.2342],[-66.5014,-30.264],[-66.4952,-30.28],[-66.4738,-30.3085],[-66.4655,-30.3375],[-66.4539,-30.3563],[-66.4447,-30.3806],[-66.4289,-30.4071],[-66.4042,-30.4674],[-66.3949,-30.4824],[-66.3718,-30.5097]]]},"properties":{"id":240,"departamento":"CHAMICAL","cabecera":"CHAMICAL","provincia":"LA RIOJA"}},
{"type":"Feature","geometry":{"type":"Polygon","coordinates":[[[-67.992,-29.9792],[-67.9901,-29.9881],[-67.9796,-29.9949],[-67.9684,-30.0093],[-67.9592,-30.0106],[-67.9293,-30.0363],[-67.9043,-30.0603],[-67.9053,-30.0672],[-67.8877,-30.0798],[-67.8727,-30.0795],[-67.8701,-30.0898],[-67.857,-30.1005],[-67.8174,-30.1214],[-67.8163,-30.1272],[-67.6863,-30.2149],[-67.6787,-30.2313],[-67.635,-30.2641],[-67.6312,-30.2707],[-67.6112,-30.2859],[-67.6064,-30.293],[-67.5909,-30.2981],[-67.5917,-30.3263],[-67.5767,-30.3789],[-67.5797,-30.3954],[-67.577,-30.4062],[-67.5078,-30.5157],[-67.4149,-30.5157],[-67.1826,-30.5231],[-66.9171,-30.5313],[-66.9002,-30.4669],[-66.8916,-30.4516],[-66.8769,-30.4345],[-66.865,-30.4159],[-66.861,-30.4036],[-66.8641,-30.3653],[-66.8591,-30.2176],[-66.8568,-30.1834],[-66.8566,-30.1151],[-66.862,-30.077],[-66.8759,-30.0498],[-66.8764,-30.0288],[-66.8675,-30.0186],[-66.8606,-29.9983],[-66.8472,-29.8297],[-66.9763,-29.819],[-67.5368,-29.7861],[-67.6125,-29.656],[-67.6871,-29.7046],[-67.7235,-29.7263],[-67.7889,-29.7776],[-67.8204,-29.8044],[-67.8426,-29.8272],[-67.8608,-29.8413],[-67.8976,-29.8756],[-67.9373,-29.919],[-67.951,-29.9367],[-67.992,-29.9792]]]},"properties":{"id":235,"departamento":"INDEPENDENCIA","cabecera":"PATQUIA","provincia":"LA RIOJA"}},
{"type":"Feature","geometry":{"type":"Polygon","coordinates":[[[-66.3533,-30.7477],[-66.3613,-30.7141],[-66.3664,-30.702],[-66.3847,-30.6767],[-66.5824,-30.7395],[-66.6125,-30.6775],[-66.625,-30.6713],[-66.6687,-30.6641],[-66.6919,-30.6569],[-66.737,-30.6396],[-66.7484,-30.6315],[-66.7637,-30.6096],[-66.7804,-30.5651],[-66.7813,-30.5347],[-66.9171,-30.5313],[-67.1826,-30.5231],[-67.4149,-30.5157],[-67.5078,-30.5157],[-67.4849,-30.548],[-67.4599,-30.5654],[-67.4463,-30.578],[-67.4309,-30.5986],[-67.4245,-30.6143],[-67.4101,-30.6275],[-67.3867,-30.6429],[-67.3552,-30.6574],[-67.3135,-30.6739],[-67.2989,-30.6815],[-67.2828,-30.6953],[-67.253,-30.7368],[-67.2206,-30.7692],[-67.1971,-30.8135],[-67.1876,-30.8285],[-67.1705,-30.848],[-67.1576,-30.8576],[-67.1426,-30.8797],[-67.125,-30.8975],[-67.0853,-30.9142],[-67.0851,-30.9201],[-67.1041,-30.9751],[-67.1124,-31.0106],[-67.1039,-31.0251],[-67.0922,-31.0608],[-67.0999,-31.0836],[-67.0596,-31.0841],[-66.7449,-31.091],[-66.4807,-31.0957],[-66.4899,-30.9869],[-66.4114,-30.9389],[-66.3902,-30.8488],[-66.3257,-30.7929],[-66.3533,-30.7477]]]},"properties":{"id":236,"departamento":"GENERAL JUAN F. QUIROGA","cabecera":"MALANZAN","provincia":"LA RIOJA"}},
{"type":"Feature","geometry":{"type":"Polygon","coordinates":[[[-66.4807,-31.0957],[-66.7449,-31.091],[-67.0596,-31.0841],[-67.0999,-31.0836],[-67.1257,-31.1607],[-67.0753,-31.2274],[-67.1091,-31.3828],[-66.9585,-31.6327],[-66.8752,-31.6327],[-66.8452,-31.7146],[-66.8253,-31.7613],[-66.7281,-31.7627],[-66.5053,-31.7671],[-66.3112,-31.8269],[-66.2975,-31.8067],[-66.291,-31.7819],[-66.2916,-31.7605],[-66.2848,-31.7313],[-66.2772,-31.7155],[-66.2605,-31.6898],[-66.2663,-31.6603],[-66.2838,-31.6298],[-66.2868,-31.5959],[-66.2864,-31.5788],[-66.2909,-31.5448],[-66.3026,-31.5168],[-66.3458,-31.4596],[-66.3568,-31.4312],[-66.3411,-31.2581],[-66.3357,-31.2468],[-66.2653,-31.2032],[-66.3081,-31.1887],[-66.4193,-31.1875],[-66.4276,-31.1361],[-66.463,-31.096],[-66.4807,-31.0957]]]},"properties":{"id":237,"departamento":"ROSARIO VERA PEÑALOZA","cabecera":"CHEPES","provincia":"LA RIOJA"}},
{"type":"Feature","geometry":{"type":"Polygon","coordinates":[[[-66.2653,-31.2032],[-66.3357,-31.2468],[-66.3411,-31.2581],[-66.3568,-31.4312],[-66.3458,-31.4596],[-66.3026,-31.5168],[-66.2909,-31.5448],[-66.2864,-31.5788],[-66.2868,-31.5959],[-66.2838,-31.6298],[-66.2663,-31.6603],[-66.2605,-31.6898],[-66.2772,-31.7155],[-66.2848,-31.7313],[-66.2916,-31.7605],[-66.291,-31.7819],[-66.2975,-31.8067],[-66.3112,-31.8269],[-66.5053,-31.7671],[-66.7281,-31.7627],[-66.8253,-31.7613],[-66.8043,-31.8088],[-66.792,-31.8254],[-66.7684,-31.8479],[-66.7227,-31.8838],[-66.6618,-31.9205],[-66.6045,-31.9234],[-66.6048,-31.9341],[-66.5666,-31.9504],[-66.3937,-31.9847],[-66.3684,-31.9973],[-66.3548,-31.9905],[-66.3381,-31.9437],[-66.3324,-31.9382],[-66.2996,-31.9311],[-66.2283,-31.9413],[-66.1602,-31.9635],[-66.1611,-31.9385],[-66.1513,-31.936],[-66.1316,-31.9436],[-66.0795,-31.9713],[-66.0682,-31.9405],[-66.0692,-31.9365],[-65.979,-31.8892],[-65.9414,-31.9032],[-65.9142,-31.91],[-65.8877,-31.9102],[-65.8662,-31.9024],[-65.8346,-31.8986],[-65.7701,-31.8886],[-65.7704,-31.7386],[-65.7713,-31.3682],[-65.9387,-31.3124],[-66.1973,-31.2262],[-66.2653,-31.2032]]]},"properties":{"id":241,"departamento":"GENERAL SAN MARTIN","cabecera":"ULAPES","provincia":"LA RIOJA"}},
{"type":"Feature","geometry":{"type":"Polygon","coordinates":[[[-67.8607,-28.2942],[-67.8716,-28.2855],[-67.8737,-28.2694],[-67.8824,-28.269],[-67.8942,-28.2591],[-67.8938,-28.2496],[-67.9052,-28.2331],[-67.9116,-28.2089],[-67.9127,-28.1854],[-67.9222,-28.1739],[-67.926,-28.1586],[-67.9247,-28.138],[-67.9149,-28.1141],[-67.938,-28.108],[-67.9572,-28.1101],[-67.979,-28.1167],[-68.0224,-28.1247],[-68.0236,-28.1385],[-68.0344,-28.1444],[-68.0538,-28.1398],[-68.0799,-28.1668],[-68.1109,-28.1708],[-68.1235,-28.15],[-68.1296,-28.1224],[-68.1373,-28.1179],[-68.1412,-28.1018],[-68.152,-28.1077],[-68.1649,-28.1084],[-68.1723,-28.0923],[-68.1831,-28.086],[-68.2018,-28.0833],[-68.2341,-28.0823],[-68.2462,-28.0711],[-68.2552,-28.0834],[-68.2747,-28.0951],[-68.2897,-28.0808],[-68.2961,-28.0626],[-68.2904,-28.0321],[-68.2943,-28.0234],[-68.312,-28.0245],[-68.3358,-28.0376],[-68.3424,-28.0233],[-68.3517,-28.0172],[-68.3841,-28.0119],[-68.3939,-28.005],[-68.411,-28.0068],[-68.44,-28.0254],[-68.4573,-28.0148],[-68.4611,-28.0048],[-68.4542,-27.9947],[-68.4519,-27.9718],[-68.4538,-27.9392],[-68.4491,-27.9167],[-68.441,-27.8967],[-68.4403,-27.8737],[-68.4518,-27.8687],[-68.4583,-27.852],[-68.4898,-27.8466],[-68.5145,-27.8386],[-68.5264,-27.8036],[-68.5391,-27.7854],[-68.5349,-27.7667],[-68.539,-27.7536],[-68.534,-27.7336],[-68.5372,-27.7152],[-68.5461,-27.7111],[-68.5618,-27.7354],[-68.5632,-27.7704],[-68.5669,-27.783],[-68.5879,-27.8188],[-68.6046,-27.8067],[-68.6093,-27.7988],[-68.6242,-27.7917],[-68.641,-27.802],[-68.6652,-27.8099],[-68.6816,-27.8105],[-68.7029,-27.8159],[-68.716,-27.8152],[-68.7295,-27.8058],[-68.7222,-27.7924],[-68.7414,-27.7826],[-68.7853,-27.7682],[-68.799,-27.7557],[-69.0953,-27.7948],[-69.1053,-27.833],[-69.1157,-27.8586],[-69.1301,-27.8682],[-69.1211,-27.8982],[-69.1438,-27.9189],[-69.1567,-27.9344],[-69.1556,-27.9479],[-69.1805,-27.9716],[-69.2075,-27.9636],[-69.2212,-27.9714],[-69.2371,-27.9665],[-69.2511,-27.9893],[-69.2506,-28.0046],[-69.2654,-28.0149],[-69.2628,-28.0472],[-69.2771,-28.0518],[-69.3007,-28.0714],[-69.2963,-28.0791],[-69.3038,-28.1029],[-69.3066,-28.1279],[-69.3224,-28.1426],[-69.335,-28.1636],[-69.3621,-28.1802],[-69.3803,-28.1813],[-69.3815,-28.2123],[-69.3898,-28.2218],[-69.4279,-28.2034],[-69.4552,-28.1834],[-69.4626,-28.1926],[-69.4368,-28.2086],[-69.3224,-28.2706],[-69.2167,-28.328],[-68.2188,-28.8691],[-68.0127,-28.9027],[-67.8355,-29.008],[-67.833,-28.9811],[-67.8277,-28.9516],[-67.8282,-28.9132],[-67.8247,-28.8813],[-67.8771,-28.7611],[-67.8298,-28.5355],[-67.8617,-28.4098],[-67.8763,-28.3648],[-67.8737,-28.3265],[-67.8652,-28.3115],[-67.8607,-28.2942]]]},"properties":{"id":242,"departamento":"VINCHINA","cabecera":"VILLA SAN JOSE DE VINCHINA","provincia":"LA RIOJA"}},
{"type":"Feature","geometry":{"type":"Polygon","coordinates":[[[-67.1748,-28.9055],[-67.1937,-28.8903],[-67.2139,-28.8696],[-67.2255,-28.8502],[-67.2341,-28.8167],[-67.2524,-28.7589],[-67.259,-28.7339],[-67.2645,-28.7003],[-67.2635,-28.665],[-67.2552,-28.606],[-67.2536,-28.5715],[-67.2567,-28.5517],[-67.2622,-28.5371],[-67.2765,-28.5177],[-67.2963,-28.5008],[-67.3331,-28.4784],[-67.4038,-28.4409],[-67.4307,-28.4227],[-67.4474,-28.4042],[-67.449,-28.3875],[-67.4464,-28.368],[-67.688,-28.312],[-67.7067,-28.3144],[-67.7202,-28.3211],[-67.7389,-28.32],[-67.7625,-28.3341],[-67.7564,-28.3537],[-67.7794,-28.3482],[-67.8058,-28.3496],[-67.8156,-28.376],[-67.8235,-28.3716],[-67.8346,-28.3764],[-67.8463,-28.3744],[-67.8487,-28.3531],[-67.8465,-28.326],[-67.8414,-28.3133],[-67.8607,-28.2942],[-67.8652,-28.3115],[-67.8737,-28.3265],[-67.8763,-28.3648],[-67.8617,-28.4098],[-67.8298,-28.5355],[-67.8771,-28.7611],[-67.8247,-28.8813],[-67.8282,-28.9132],[-67.8277,-28.9516],[-67.833,-28.9811],[-67.8355,-29.008],[-67.8352,-29.0146],[-67.2159,-29.0132],[-67.2091,-28.971],[-67.1985,-28.9472],[-67.1748,-28.9055]]]},"properties":{"id":243,"departamento":"FAMATINA","cabecera":"FAMATINA","provincia":"LA RIOJA"}},
{"type":"Feature","geometry":{"type":"Polygon","coordinates":[[[-67.0119,-28.6038],[-67.0127,-28.5699],[-66.995,-28.5302],[-66.9888,-28.5097],[-66.9877,-28.4798],[-66.9909,-28.4587],[-66.9981,-28.4338],[-67.0224,-28.3782],[-67.0228,-28.3569],[-67.0119,-28.338],[-66.9426,-28.2662],[-66.9902,-28.2633],[-66.9998,-28.257],[-67.0162,-28.2543],[-67.0226,-28.2608],[-67.0436,-28.2628],[-67.0473,-28.2681],[-67.0747,-28.2702],[-67.1554,-28.3844],[-67.3753,-28.3845],[-67.4464,-28.368],[-67.449,-28.3875],[-67.4474,-28.4042],[-67.4307,-28.4227],[-67.4038,-28.4409],[-67.3331,-28.4784],[-67.2963,-28.5008],[-67.2765,-28.5177],[-67.2622,-28.5371],[-67.2567,-28.5517],[-67.2536,-28.5715],[-67.2552,-28.606],[-67.2635,-28.665],[-67.2645,-28.7003],[-67.259,-28.7339],[-67.2524,-28.7589],[-67.2341,-28.8167],[-67.2255,-28.8502],[-67.2139,-28.8696],[-67.1937,-28.8903],[-67.1748,-28.9055],[-67.1422,-28.8482],[-67.0687,-28.7186],[-67.0647,-28.6526],[-67.0477,-28.6494],[-67.0268,-28.6386],[-67.0138,-28.6209],[-67.0119,-28.6038]]]},"properties":{"id":244,"departamento":"SAN BLAS DE LOS SAUCES","cabecera":"SAN BLAS","provincia":"LA RIOJA"}},
{"type":"Feature","geometry":{"type":"Polygon","coordinates":[[[-66.7347,-28.8523],[-66.353,-28.7329],[-66.3525,-28.7218],[-66.3726,-28.7188],[-66.3838,-28.7052],[-66.3852,-28.6934],[-66.396,-28.677],[-66.4962,-28.6223],[-66.4963,-28.5313],[-66.5322,-28.5315],[-66.5256,-28.5209],[-66.5273,-28.5126],[-66.5169,-28.4843],[-66.5157,-28.4626],[-66.5708,-28.2886],[-66.6632,-28.2831],[-66.9426,-28.2662],[-67.0119,-28.338],[-67.0228,-28.3569],[-67.0224,-28.3782],[-66.9981,-28.4338],[-66.9909,-28.4587],[-66.9877,-28.4798],[-66.9888,-28.5097],[-66.995,-28.5302],[-67.0127,-28.5699],[-67.0119,-28.6038],[-66.8366,-28.628],[-66.7347,-28.8523]]]},"properties":{"id":245,"departamento":"ARAUCO","cabecera":"AIMOGASTA","provincia":"LA RIOJA"}},
{"type":"Feature","geometry":{"type":"Polygon","coordinates":[[[-67.8534,-29.0771],[-67.8397,-29.0187],[-67.8352,-29.0146],[-67.8355,-29.008],[-68.0127,-28.9027],[-68.2188,-28.8691],[-69.2167,-28.328],[-69.3224,-28.2706],[-69.4368,-28.2086],[-69.4626,-28.1926],[-69.4788,-28.2071],[-69.4824,-28.2232],[-69.4749,-28.2367],[-69.4899,-28.2572],[-69.502,-28.2627],[-69.4996,-28.2832],[-69.5199,-28.3116],[-69.5234,-28.3297],[-69.5596,-28.3425],[-69.5826,-28.3525],[-69.5876,-28.3779],[-69.5964,-28.3901],[-69.6078,-28.3942],[-69.6272,-28.3785],[-69.6349,-28.3841],[-69.6298,-28.3938],[-69.6057,-28.419],[-69.5954,-28.4172],[-69.5706,-28.4053],[-69.5552,-28.4058],[-69.5375,-28.4159],[-69.5248,-28.4285],[-69.5096,-28.4305],[-69.507,-28.4228],[-69.4883,-28.4139],[-69.4697,-28.4155],[-69.4587,-28.429],[-69.4358,-28.4483],[-69.4255,-28.4518],[-69.4064,-28.4485],[-69.3759,-28.4485],[-69.3507,-28.4385],[-69.3242,-28.4237],[-69.316,-28.4117],[-69.2024,-28.5964],[-69.2166,-28.6065],[-69.2149,-28.6377],[-69.2179,-28.6483],[-69.2086,-28.6703],[-69.2098,-28.6816],[-69.1987,-28.7096],[-69.1705,-28.7388],[-69.162,-28.7611],[-68.9082,-28.861],[-68.9183,-28.8635],[-68.9243,-28.8818],[-68.9337,-28.8974],[-68.9334,-28.9077],[-68.9489,-28.92],[-68.9506,-28.9331],[-68.9612,-28.9394],[-68.9598,-28.9542],[-68.9482,-28.9711],[-68.7079,-29.0597],[-68.2453,-29.2243],[-67.8534,-29.0771]]]},"properties":{"id":300,"departamento":"GENERAL LAMADRID","cabecera":"VILLA CASTELLI","provincia":"LA RIOJA"}},
{"type":"Feature","geometry":{"type":"Polygon","coordinates":[[[-66.8622,-29.1744],[-66.8781,-29.1889],[-66.8851,-29.2047],[-66.8913,-29.2384],[-66.9032,-29.2617],[-66.9242,-29.2793],[-66.9351,-29.3028],[-66.9419,-29.345],[-66.946,-29.3573],[-66.9762,-29.3906],[-66.9901,-29.4026],[-67.0254,-29.4253],[-67.0386,-29.4308],[-67.0577,-29.4328],[-67.0715,-29.4288],[-67.0818,-29.4197],[-67.09,-29.4055],[-67.1014,-29.43],[-67.1011,-29.4428],[-67.0956,-29.4592],[-67.0859,-29.474],[-67.0516,-29.4977],[-67.0403,-29.5165],[-67.0319,-29.5364],[-67.0308,-29.5533],[-67.0458,-29.5847],[-67.0606,-29.6386],[-67.0559,-29.6638],[-67.0458,-29.6968],[-67.0336,-29.7152],[-67.0286,-29.7575],[-67.0159,-29.7757],[-66.9946,-29.793],[-66.9763,-29.819],[-66.8472,-29.8297],[-66.6092,-29.8491],[-66.6322,-30.1102],[-66.5256,-30.1472],[-66.4822,-30.1864],[-66.4303,-30.0243],[-65.8195,-29.8592],[-65.7008,-29.8271],[-65.5449,-29.8277],[-65.6223,-29.6425],[-65.7195,-29.41],[-65.7173,-29.3286],[-65.7482,-29.2697],[-65.8144,-29.2698],[-65.8147,-29.1809],[-65.926,-29.0822],[-65.9478,-29.0774],[-66.0995,-28.9441],[-66.282,-28.8903],[-66.312,-28.8867],[-66.3282,-28.876],[-66.368,-28.8664],[-66.3916,-28.868],[-66.4031,-28.857],[-66.4001,-28.8394],[-66.4114,-28.8142],[-66.3967,-28.8022],[-66.3893,-28.802],[-66.3662,-28.7455],[-66.353,-28.7329],[-66.7347,-28.8523],[-66.7754,-29.049],[-66.7974,-29.0677],[-66.8015,-29.0754],[-66.8163,-29.1204],[-66.8349,-29.1551],[-66.8446,-29.1647],[-66.8622,-29.1744]]]},"properties":{"id":432,"departamento":"CAPITAL","cabecera":"LA RIOJA","provincia":"LA RIOJA"}}
]}