{"type":"FeatureCollection", "features": [
{"type":"Feature","geometry":{"type":"Polygon","coordinates":[[[-63.3819,-39.8719],[-63.6438,-39.8715],[-64,-39.8708],[-65,-39.8586],[-65.2455,-39.8507],[-65.2373,-39.8616],[-65.2137,-39.8709],[-65.2834,-39.9253],[-65.1932,-39.9798],[-65.194,-40.4365],[-65.0039,-40.4348],[-64.6015,-40.4389],[-64.083,-40.4422],[-63.9976,-40.5063],[-63.8453,-40.3903],[-63.8503,-40.4023],[-63.8429,-40.4089],[-63.8309,-40.4105],[-63.5316,-40.4093],[-63.3873,-40.4087],[-63.3803,-40.4086],[-63.3819,-39.8719]]]},"properties":{"id":291,"departamento":"CONESA","cabecera":"GENERAL CONESA","provincia":"RIO NEGRO"}},
{"type":"Feature","geometry":{"type":"Polygon","coordinates":[[[-65.7281,-42.0003],[-65.7281,-41.9986],[-65.7345,-41.8399],[-65.7551,-41.332],[-65.7578,-41.2443],[-65.7901,-41.1824],[-65.785,-40.6652],[-65.7762,-39.9985],[-65.7742,-39.9187],[-65.9997,-39.918],[-66.8257,-39.9106],[-66.8283,-39.9984],[-66.8593,-41.1683],[-66.8728,-41.803],[-66.8769,-42.0002],[-65.9736,-42.0003],[-65.7281,-42.0003]]]},"properties":{"id":368,"departamento":"VALCHETA","cabecera":"VALCHETA","provincia":"RIO NEGRO"}},
{"type":"Feature","geometry":{"type":"Polygon","coordinates":[[[-65.2834,-39.9253],[-65.2946,-39.9185],[-65.7742,-39.9187],[-65.7762,-39.9985],[-65.785,-40.6652],[-65.7901,-41.1824],[-65.7578,-41.2443],[-65.7551,-41.332],[-65.7345,-41.8399],[-65.7281,-41.9986],[-65.7281,-42.0003],[-65.0693,-42.0003],[-65.0682,-41.9826],[-65.0746,-41.9651],[-65.0615,-41.9342],[-65.0633,-41.9013],[-65.0576,-41.8816],[-65.0429,-41.8742],[-65.049,-41.8624],[-65.0473,-41.8373],[-65.0163,-41.8326],[-65.0167,-41.7987],[-65.0127,-41.7797],[-64.9989,-41.7711],[-65.0027,-41.7561],[-65.0114,-41.7522],[-65.0204,-41.7349],[-65.0232,-41.721],[-65.0202,-41.7073],[-65.0242,-41.6915],[-65.026,-41.667],[-65.0227,-41.6184],[-65.0265,-41.6112],[-65.0133,-41.6078],[-64.9998,-41.5727],[-65.0067,-41.5573],[-65.0015,-41.5476],[-64.9934,-41.5464],[-64.9878,-41.5188],[-64.992,-41.501],[-65.0003,-41.4861],[-65.0234,-41.4777],[-65.0439,-41.4625],[-65.0545,-41.4444],[-65.0525,-41.434],[-65.0653,-41.4189],[-65.0761,-41.4007],[-65.0786,-41.3784],[-65.0915,-41.3619],[-65.0927,-41.3471],[-65.1016,-41.3357],[-65.0988,-41.3218],[-65.1042,-41.3173],[-65.11,-41.295],[-65.1184,-41.2786],[-65.1218,-41.2533],[-65.1365,-41.2276],[-65.137,-41.2145],[-65.1466,-41.1771],[-65.1516,-41.1725],[-65.1477,-41.1452],[-65.1518,-41.1268],[-65.152,-41.1065],[-65.1647,-41.0809],[-65.1682,-41.0683],[-65.1573,-41.0519],[-65.1614,-41.0183],[-65.1659,-41],[-65.1663,-40.9798],[-65.1638,-40.9538],[-65.1571,-40.9298],[-65.1471,-40.9042],[-65.1252,-40.8813],[-65.1236,-40.8686],[-65.1289,-40.8568],[-65.1133,-40.8321],[-65.0834,-40.8085],[-65.061,-40.7987],[-65.0512,-40.7844],[-65.018,-40.7644],[-64.984,-40.7568],[-64.9493,-40.7558],[-64.9042,-40.7625],[-64.9006,-40.7582],[-64.9244,-40.7478],[-64.9571,-40.7493],[-64.9564,-40.7447],[-64.9222,-40.7405],[-64.9167,-40.7273],[-64.9562,-40.7217],[-64.9545,-40.7096],[-64.9138,-40.7097],[-64.9004,-40.7139],[-64.8474,-40.7159],[-64.8207,-40.7303],[-64.8114,-40.7252],[-64.7752,-40.7398],[-64.8006,-40.7491],[-64.7926,-40.7577],[-64.7974,-40.7682],[-64.7975,-40.7805],[-64.7892,-40.7809],[-64.779,-40.7688],[-64.7512,-40.7699],[-64.7336,-40.7875],[-64.75,-40.789],[-64.7502,-40.7965],[-64.742,-40.8107],[-64.7741,-40.8032],[-64.7914,-40.8031],[-64.8081,-40.7937],[-64.842,-40.7845],[-64.9033,-40.8044],[-64.8998,-40.8166],[-64.8901,-40.8228],[-64.868,-40.8305],[-64.7815,-40.8187],[-64.7571,-40.8176],[-64.7122,-40.8257],[-64.6764,-40.8388],[-64.6553,-40.8404],[-64.6032,-40.8502],[-64.6027,-40.725],[-64.6015,-40.4389],[-65.0039,-40.4348],[-65.194,-40.4365],[-65.1932,-39.9798],[-65.2834,-39.9253]]]},"properties":{"id":369,"departamento":"SAN ANTONIO","cabecera":"SAN ANTONIO OESTE","provincia":"RIO NEGRO"}},
{"type":"Feature","geometry":{"type":"Polygon","coordinates":[[[-66.8257,-39.9106],[-67.8722,-39.8109],[-68,-39.9054],[-68.1268,-39.9983],[-68.2315,-40.0731],[-68.0085,-40.1582],[-68.0306,-40.6646],[-68.0693,-41.6061],[-68.0853,-41.9952],[-68.0857,-42.0001],[-66.8769,-42.0002],[-66.8728,-41.803],[-66.8593,-41.1683],[-66.8283,-39.9984],[-66.8257,-39.9106]]]},"properties":{"id":370,"departamento":"9 DE JULIO","cabecera":"SIERRA COLORADA","provincia":"RIO NEGRO"}},
{"type":"Feature","geometry":{"type":"Polygon","coordinates":[[[-69.4412,-41.9301],[-69.5894,-41.7296],[-69.7553,-41.5052],[-70.2697,-41.4153],[-70.6164,-41.4134],[-70.689,-41.438],[-70.8131,-41.5229],[-70.9292,-41.4276],[-71,-41.5084],[-71.0304,-41.5419],[-71.2295,-41.4998],[-71.2255,-41.6654],[-71.2666,-41.7335],[-71.3064,-41.8209],[-71.2258,-41.8558],[-71.2401,-41.954],[-71.1751,-41.9998],[-71.1749,-42],[-69.3895,-42.0001],[-69.4412,-41.9301]]]},"properties":{"id":371,"departamento":"ÑORQUINCO","cabecera":"NORQUINCO","provincia":"RIO NEGRO"}},
{"type":"Feature","geometry":{"type":"Polygon","coordinates":[[[-68.2315,-40.0731],[-68.5948,-40.1326],[-68.7863,-40.4284],[-69,-40.4436],[-69.3867,-40.4688],[-69.8079,-40.6651],[-69.8885,-40.848],[-70.1795,-41.0263],[-69.9533,-41.1351],[-70,-41.1764],[-70.2697,-41.4153],[-69.7553,-41.5052],[-69.5894,-41.7296],[-69.4412,-41.9301],[-69.3895,-42.0001],[-69.3357,-42.0001],[-68.3892,-42.0001],[-68.0857,-42.0001],[-68.0853,-41.9952],[-68.0693,-41.6061],[-68.0306,-40.6646],[-68.0085,-40.1582],[-68.2315,-40.0731]]]},"properties":{"id":372,"departamento":"25 DE MAYO","cabecera":"MAQUINCHAO","provincia":"RIO NEGRO"}},
{"type":"Feature","geometry":{"type":"Polygon","coordinates":[[[-67.8722,-39.8109],[-67.3628,-39.4669],[-67.001,-39.3777],[-66.5716,-39.2829],[-66.5712,-39.2713],[-66.5655,-39.092],[-66.581,-39.0914],[-66.6109,-39.0975],[-66.6221,-39.1023],[-66.6391,-39.1016],[-66.6599,-39.1028],[-66.6796,-39.1067],[-66.7009,-39.1208],[-66.7244,-39.1282],[-66.728,-39.1406],[-66.7496,-39.1364],[-66.7641,-39.1419],[-66.7711,-39.1383],[-66.7956,-39.1438],[-66.8173,-39.1358],[-66.84,-39.1369],[-66.859,-39.1461],[-66.8591,-39.1582],[-66.8841,-39.1598],[-66.9053,-39.155],[-66.9197,-39.1597],[-66.9349,-39.1562],[-66.9427,-39.1617],[-66.9608,-39.1639],[-66.968,-39.1715],[-66.98,-39.1704],[-66.99,-39.1775],[-67.0014,-39.1758],[-67.0224,-39.1805],[-67.0376,-39.1726],[-67.0708,-39.1706],[-67.0808,-39.1672],[-67.1031,-39.167],[-67.1291,-39.1597],[-67.1665,-39.1366],[-67.1642,-39.1241],[-67.1771,-39.1218],[-67.1893,-39.1254],[-67.1943,-39.1143],[-67.2063,-39.1054],[-67.2148,-39.1049],[-67.2239,-39.1152],[-67.2381,-39.1129],[-67.2544,-39.115],[-67.2648,-39.1109],[-67.2781,-39.0981],[-67.2925,-39.1018],[-67.3033,-39.0984],[-67.3286,-39.1056],[-67.3457,-39.1004],[-67.3517,-39.0947],[-67.3669,-39.0903],[-67.3724,-39.0979],[-67.3831,-39.0931],[-67.408,-39.0896],[-67.4306,-39.0792],[-67.4389,-39.0787],[-67.4552,-39.087],[-67.4662,-39.0813],[-67.4807,-39.0869],[-67.4893,-39.0838],[-67.5066,-39.0857],[-67.5312,-39.0765],[-67.5394,-39.0849],[-67.5607,-39.0862],[-67.5836,-39.1035],[-67.606,-39.1109],[-67.622,-39.1134],[-67.6504,-39.111],[-67.6663,-39.099],[-67.6917,-39.0964],[-67.7089,-39.0878],[-67.7182,-39.075],[-67.7323,-39.0684],[-67.7445,-39.0702],[-67.7575,-39.065],[-67.7615,-39.0577],[-67.7745,-39.0514],[-67.7826,-39.0538],[-67.7968,-39.0415],[-67.8182,-39.0364],[-67.8547,-39.0317],[-67.8681,-39.0263],[-67.8737,-39.019],[-67.9145,-39.009],[-67.9412,-39.0109],[-67.9616,-38.9964],[-68.0017,-38.9918],[-68.0133,-38.9965],[-68.0214,-38.9904],[-68.0388,-38.9988],[-68.0475,-38.9844],[-68.062,-38.9951],[-68.0807,-38.9949],[-68.0987,-38.989],[-68.1176,-38.9883],[-68.1509,-38.975],[-68.1635,-38.9803],[-68.1777,-38.9672],[-68.2122,-38.9744],[-68.2311,-38.9915],[-68.2374,-38.9869],[-68.254,-38.9895],[-68.2632,-38.9833],[-68.2746,-38.9865],[-68.3045,-38.9776],[-68.3041,-38.9882],[-68.3541,-39.0019],[-68.3674,-39.0164],[-68.3965,-39.0257],[-68.4133,-39.0344],[-68.4285,-39.0292],[-68.4468,-39.0405],[-68.4694,-39.0462],[-68.4752,-39.0538],[-68.4972,-39.0684],[-68.5069,-39.0713],[-68.5162,-39.0672],[-68.5219,-39.0781],[-68.5426,-39.0787],[-68.5479,-39.0863],[-68.5626,-39.092],[-68.5854,-39.1096],[-68.5947,-39.1202],[-68.6143,-39.1351],[-68.6273,-39.1489],[-68.6563,-39.1676],[-68.6625,-39.178],[-68.6533,-39.1992],[-68.6655,-39.2173],[-68.6814,-39.227],[-68.6939,-39.2304],[-68.7017,-39.2416],[-68.7141,-39.2435],[-68.7304,-39.2505],[-68.7546,-39.2696],[-68.7881,-39.278],[-68.8024,-39.2849],[-68.8101,-39.2935],[-68.8185,-39.3126],[-68.8178,-39.3314],[-68.8081,-39.3474],[-68.824,-39.3749],[-68.8478,-39.393],[-68.8865,-39.4025],[-68.921,-39.4248],[-68.9279,-39.438],[-68.9291,-39.459],[-68.9665,-39.4836],[-68.988,-39.506],[-68.9999,-39.5152],[-69.0384,-39.5262],[-69.057,-39.5264],[-69.0815,-39.5219],[-69.1073,-39.5147],[-69.1249,-39.5209],[-69.1717,-39.5574],[-69.1833,-39.5632],[-69.2201,-39.5693],[-69.2357,-39.5752],[-69.2801,-39.5987],[-69.2779,-39.6162],[-69.2691,-39.6214],[-69.2824,-39.6404],[-69.2937,-39.6455],[-69.3,-39.6564],[-69.314,-39.6539],[-69.3344,-39.679],[-69.343,-39.6804],[-69.3494,-39.6933],[-69.3471,-39.7099],[-69.3672,-39.7183],[-69.3703,-39.7289],[-69.3912,-39.7338],[-69.3892,-39.7429],[-69.4068,-39.747],[-69.4107,-39.7584],[-69.4232,-39.7688],[-69.4385,-39.7685],[-69.4509,-39.7787],[-69.4733,-39.784],[-69.4956,-39.7979],[-69.5092,-39.8158],[-69.5221,-39.8128],[-69.5349,-39.8153],[-69.558,-39.8095],[-69.5638,-39.8139],[-69.5875,-39.8154],[-69.5969,-39.8305],[-69.6115,-39.831],[-69.6291,-39.8426],[-69.6465,-39.8359],[-69.6616,-39.8461],[-69.6842,-39.8506],[-69.6987,-39.8472],[-69.7186,-39.8576],[-69.7261,-39.8667],[-69.755,-39.8764],[-69.7616,-39.9986],[-69.7791,-40.2496],[-69.8079,-40.6651],[-69.3867,-40.4688],[-69,-40.4436],[-68.7863,-40.4284],[-68.5948,-40.1326],[-68.2315,-40.0731],[-68.1268,-39.9983],[-68,-39.9054],[-67.8722,-39.8109]]]},"properties":{"id":376,"departamento":"EL CUY","cabecera":"EL CUY","provincia":"RIO NEGRO"}},
{"type":"Feature","geometry":{"type":"Polygon","coordinates":[[[-70.2697,-41.4153],[-70,-41.1764],[-69.9533,-41.1351],[-70.1795,-41.0263],[-69.8885,-40.848],[-69.8079,-40.6651],[-69.7791,-40.2496],[-69.7616,-39.9986],[-69.755,-39.8764],[-69.7594,-39.8823],[-69.7733,-39.886],[-69.7938,-39.8833],[-69.8089,-39.8985],[-69.8225,-39.8959],[-69.8406,-39.9028],[-69.8451,-39.9093],[-69.8644,-39.9105],[-69.8799,-39.9214],[-69.88,-39.9298],[-69.8943,-39.9386],[-69.9071,-39.9405],[-69.9161,-39.9367],[-69.9314,-39.9437],[-69.9349,-39.9562],[-69.9525,-39.9611],[-69.9555,-39.9686],[-69.9706,-39.978],[-69.9752,-39.996],[-69.9863,-40.0136],[-69.9979,-40.0226],[-70.0054,-40.0474],[-69.996,-40.086],[-69.9948,-40.1031],[-69.9707,-40.121],[-69.9696,-40.1365],[-69.9578,-40.1554],[-69.9503,-40.179],[-69.962,-40.1857],[-69.9868,-40.1792],[-69.9914,-40.1901],[-70.0078,-40.2084],[-70.0276,-40.2158],[-70.0588,-40.249],[-70.0579,-40.2635],[-70.0501,-40.3022],[-70.0496,-40.3178],[-70.0544,-40.3299],[-70.0627,-40.3746],[-70.103,-40.4057],[-70.1312,-40.413],[-70.1531,-40.414],[-70.1749,-40.4276],[-70.1769,-40.449],[-70.1681,-40.4743],[-70.1706,-40.483],[-70.1895,-40.4942],[-70.2187,-40.4971],[-70.2299,-40.5029],[-70.2473,-40.5054],[-70.2799,-40.5029],[-70.3139,-40.5083],[-70.3674,-40.5185],[-70.4106,-40.5329],[-70.4284,-40.5354],[-70.4372,-40.5228],[-70.4483,-40.5226],[-70.462,-40.5134],[-70.5021,-40.5092],[-70.5135,-40.5031],[-70.5256,-40.5074],[-70.5377,-40.5033],[-70.544,-40.5134],[-70.5583,-40.5251],[-70.5956,-40.5376],[-70.6214,-40.5515],[-70.6294,-40.5584],[-70.6428,-40.5848],[-70.6539,-40.5913],[-70.6869,-40.5949],[-70.7123,-40.5918],[-70.7287,-40.5818],[-70.7478,-40.5858],[-70.7771,-40.584],[-70.7951,-40.5906],[-70.8554,-40.5934],[-70.8686,-40.5985],[-70.8731,-40.6148],[-70.883,-40.6215],[-70.8976,-40.6217],[-70.9323,-40.6387],[-70.9608,-40.6416],[-70.9765,-40.6487],[-70.9955,-40.6688],[-71.0118,-40.6793],[-71.0147,-40.6999],[-71.0268,-40.7129],[-71.0251,-40.7208],[-71.0442,-40.7291],[-71.0695,-40.7297],[-71.0848,-40.7245],[-71.0968,-40.7294],[-71.1015,-40.7462],[-71.1196,-40.759],[-71.1175,-40.7667],[-71.123,-40.7797],[-71.1174,-40.7832],[-71.1179,-40.8051],[-71.0998,-40.8141],[-71.1016,-40.8222],[-71.0934,-40.8329],[-71.086,-40.8535],[-71.0724,-40.8507],[-71.0493,-40.8714],[-71.0458,-40.885],[-71.0398,-40.8887],[-71.0344,-40.9038],[-71.0362,-40.925],[-71.0321,-40.9313],[-71.0374,-40.9427],[-71.0377,-40.958],[-71.0486,-40.9616],[-71.0586,-40.9796],[-71.1027,-40.9914],[-71.0986,-41.0003],[-71.1146,-41.0074],[-71.1251,-41.0224],[-71.1297,-41.0465],[-71.1474,-41.0572],[-71.1607,-41.0536],[-71.1749,-41.0562],[-71.2194,-41.0862],[-71.1838,-41.0876],[-71.1696,-41.0846],[-71.162,-41.0879],[-71.146,-41.0847],[-71.1433,-41.1086],[-71.1296,-41.1199],[-71.1201,-41.1202],[-71.1147,-41.1293],[-71.1152,-41.1487],[-71.1514,-41.1799],[-71.1616,-41.1932],[-71.1595,-41.2171],[-71.1708,-41.2441],[-71.1783,-41.2496],[-71.1911,-41.2716],[-71.2112,-41.2874],[-71.2172,-41.2965],[-71.2122,-41.3049],[-71.2161,-41.3132],[-71.2023,-41.3149],[-71.182,-41.3266],[-71.1947,-41.3368],[-71.2243,-41.3361],[-71.2314,-41.3855],[-71.2295,-41.4998],[-71.0304,-41.5419],[-71,-41.5084],[-70.9292,-41.4276],[-70.8131,-41.5229],[-70.689,-41.438],[-70.6164,-41.4134],[-70.2697,-41.4153]]]},"properties":{"id":377,"departamento":"PILCANIYEU","cabecera":"PILCANIYEU","provincia":"RIO NEGRO"}},
{"type":"Feature","geometry":{"type":"Polygon","coordinates":[[[-63.3819,-39.8719],[-63.3827,-39.5827],[-63.3835,-39.3287],[-63.4192,-39.3264],[-63.4349,-39.3292],[-63.453,-39.3204],[-63.46,-39.3283],[-63.4805,-39.3111],[-63.4895,-39.3065],[-63.5002,-39.3128],[-63.5412,-39.2967],[-63.5377,-39.2808],[-63.5487,-39.2681],[-63.5681,-39.2582],[-63.581,-39.2589],[-63.596,-39.2461],[-63.6083,-39.2527],[-63.6227,-39.2464],[-63.6354,-39.2453],[-63.6334,-39.2284],[-63.6558,-39.2278],[-63.6764,-39.2188],[-63.6695,-39.2109],[-63.6755,-39.2035],[-63.6935,-39.2057],[-63.7163,-39.1962],[-63.7243,-39.1865],[-63.7331,-39.1846],[-63.7458,-39.1626],[-63.7634,-39.154],[-63.759,-39.1277],[-63.7769,-39.1289],[-63.7882,-39.1092],[-63.7932,-39.123],[-63.8194,-39.1265],[-63.8327,-39.1211],[-63.8431,-39.1085],[-63.8591,-39.1097],[-63.8713,-39.0953],[-63.8955,-39.1077],[-63.9162,-39.0863],[-63.9291,-39.0942],[-63.9344,-39.0858],[-63.9266,-39.0733],[-63.9335,-39.0616],[-63.9583,-39.0523],[-63.9579,-39.0459],[-63.9799,-39.0385],[-63.9964,-39.0363],[-64.0022,-39.0255],[-63.9903,-39.0153],[-63.9968,-39.0102],[-64.0103,-39.0175],[-64.0145,-39.001],[-64.0321,-39.0025],[-64.0494,-39],[-64.0582,-39.0097],[-64.066,-39.0037],[-64.0675,-38.9908],[-64.0909,-38.9877],[-64.1036,-38.9782],[-64.1272,-38.9685],[-64.1354,-38.9695],[-64.1933,-38.9439],[-64.2057,-38.9405],[-64.2101,-38.9338],[-64.2309,-38.9237],[-64.2441,-38.9229],[-64.2621,-38.9153],[-64.276,-38.9153],[-64.2905,-38.9075],[-64.2958,-38.8971],[-64.3152,-38.9061],[-64.3311,-38.9046],[-64.3435,-38.8937],[-64.3465,-38.8848],[-64.3591,-38.8902],[-64.3731,-38.8915],[-64.3797,-38.8874],[-64.3943,-38.8877],[-64.3946,-38.8741],[-64.4087,-38.8827],[-64.4164,-38.8741],[-64.428,-38.8793],[-64.444,-38.869],[-64.4624,-38.8684],[-64.4764,-38.86],[-64.4821,-38.865],[-64.5152,-38.8684],[-64.5243,-38.8607],[-64.5373,-38.8589],[-64.5572,-38.8614],[-64.5835,-38.8604],[-64.6044,-38.8562],[-64.6047,-38.8477],[-64.6304,-38.8527],[-64.6328,-38.8459],[-64.6728,-38.8332],[-64.6915,-38.8432],[-64.707,-38.8374],[-64.7326,-38.8414],[-64.766,-38.8301],[-64.7846,-38.8269],[-64.8095,-38.8158],[-64.8279,-38.8257],[-64.8557,-38.8247],[-64.8773,-38.8144],[-64.8894,-38.8254],[-64.907,-38.8277],[-64.9131,-38.8329],[-64.9264,-38.8329],[-64.9672,-38.8202],[-65.0017,-38.8191],[-65.0214,-38.8138],[-65.0336,-38.8175],[-65.0615,-38.8099],[-65.0902,-38.8082],[-65.0971,-38.8003],[-65.1166,-38.8009],[-65.1281,-38.8047],[-65.1357,-38.8163],[-65.1466,-38.8167],[-65.1612,-38.8033],[-65.1914,-38.8104],[-65.1857,-38.8275],[-65.1918,-38.8366],[-65.2082,-38.8315],[-65.2161,-38.838],[-65.2232,-39.0165],[-65.2247,-39.0731],[-65.2455,-39.8507],[-65,-39.8586],[-64,-39.8708],[-63.6438,-39.8715],[-63.3819,-39.8719]]]},"properties":{"id":442,"departamento":"PICHI MAHUIDA","cabecera":"RIO COLORADO","provincia":"RIO NEGRO"}},
{"type":"Feature","geometry":{"type":"Polygon","coordinates":[[[-64.6015,-40.4389],[-64.6027,-40.725],[-64.6032,-40.8502],[-64.5821,-40.857],[-64.5434,-40.8644],[-64.5113,-40.8779],[-64.5046,-40.8835],[-64.4579,-40.9021],[-64.4343,-40.904],[-64.3997,-40.917],[-64.3951,-40.9271],[-64.3793,-40.9336],[-64.3114,-40.956],[-64.2813,-40.974],[-64.2487,-40.9904],[-64.2281,-40.9966],[-64.2062,-41.0098],[-64.1772,-41.0138],[-64.1384,-41.0221],[-64.1057,-41.0218],[-64.1012,-41.0323],[-64.0686,-41.0398],[-63.994,-41.0609],[-63.9505,-41.0764],[-63.9226,-41.0921],[-63.903,-41.1102],[-63.8969,-41.1226],[-63.8711,-41.1374],[-63.8363,-41.1431],[-63.7886,-41.159],[-63.7772,-41.1604],[-63.7314,-41.1571],[-63.6519,-41.157],[-63.6018,-41.156],[-63.5407,-41.161],[-63.48,-41.1598],[-63.4373,-41.162],[-63.3542,-41.1527],[-63.321,-41.1511],[-63.3019,-41.1526],[-63.2821,-41.1573],[-63.2291,-41.1592],[-63.2126,-41.1578],[-63.1439,-41.1574],[-63.1043,-41.1537],[-63.089,-41.1491],[-63.0533,-41.144],[-63.0345,-41.1311],[-63.0107,-41.121],[-62.993,-41.1095],[-62.9354,-41.094],[-62.9225,-41.0889],[-62.8845,-41.0794],[-62.8324,-41.0562],[-62.7995,-41.0353],[-62.7892,-41.0259],[-62.798,-41.0084],[-62.802,-40.9826],[-62.8265,-40.9615],[-62.8341,-40.949],[-62.8454,-40.9409],[-62.8525,-40.9257],[-62.8644,-40.9141],[-62.879,-40.8948],[-62.9156,-40.8697],[-62.9299,-40.8474],[-62.944,-40.8402],[-62.9511,-40.8227],[-62.9603,-40.8169],[-62.9788,-40.816],[-62.991,-40.801],[-63,-40.7978],[-63.0327,-40.7931],[-63.0432,-40.776],[-63.0569,-40.7696],[-63.1031,-40.7599],[-63.1136,-40.7474],[-63.1397,-40.7416],[-63.1553,-40.7296],[-63.1731,-40.7271],[-63.1921,-40.7167],[-63.204,-40.7228],[-63.2407,-40.7248],[-63.2709,-40.7229],[-63.2817,-40.729],[-63.298,-40.7208],[-63.2975,-40.7127],[-63.315,-40.7068],[-63.3594,-40.7212],[-63.3654,-40.7027],[-63.3793,-40.7098],[-63.3803,-40.4086],[-63.3873,-40.4087],[-63.5316,-40.4093],[-63.8309,-40.4105],[-63.8429,-40.4089],[-63.8503,-40.4023],[-63.8453,-40.3903],[-63.9976,-40.5063],[-64.083,-40.4422],[-64.6015,-40.4389]]]},"properties":{"id":443,"departamento":"ADOLFO ALSINA","cabecera":"VIEDMA","provincia":"RIO NEGRO"}},
{"type":"Feature","geometry":{"type":"Polygon","coordinates":[[[-71.2295,-41.4998],[-71.2314,-41.3855],[-71.2243,-41.3361],[-71.1947,-41.3368],[-71.182,-41.3266],[-71.2023,-41.3149],[-71.2161,-41.3132],[-71.2122,-41.3049],[-71.2172,-41.2965],[-71.2112,-41.2874],[-71.1911,-41.2716],[-71.1783,-41.2496],[-71.1708,-41.2441],[-71.1595,-41.2171],[-71.1616,-41.1932],[-71.1514,-41.1799],[-71.1152,-41.1487],[-71.1147,-41.1293],[-71.1201,-41.1202],[-71.1296,-41.1199],[-71.1433,-41.1086],[-71.146,-41.0847],[-71.162,-41.0879],[-71.1696,-41.0846],[-71.1838,-41.0876],[-71.2194,-41.0862],[-71.2521,-41.0979],[-71.2886,-41.1006],[-71.3062,-41.1001],[-71.3438,-41.0938],[-71.3607,-41.0887],[-71.4225,-41.0622],[-71.4564,-41.0417],[-71.5028,-41.0367],[-71.5577,-41.0224],[-71.6076,-41.0349],[-71.6326,-41.0346],[-71.6562,-41.0311],[-71.7027,-41.0218],[-71.7483,-41.0225],[-71.7853,-41.0188],[-71.818,-41.0231],[-71.8458,-41.0317],[-71.8331,-41.0429],[-71.8358,-41.0504],[-71.8179,-41.0623],[-71.8282,-41.0735],[-71.8398,-41.0775],[-71.8518,-41.0993],[-71.8454,-41.111],[-71.8373,-41.1158],[-71.8438,-41.1295],[-71.8398,-41.1331],[-71.8394,-41.1504],[-71.8586,-41.1619],[-71.8796,-41.1628],[-71.8871,-41.1675],[-71.8784,-41.1806],[-71.8724,-41.1978],[-71.8738,-41.2066],[-71.8539,-41.2157],[-71.8589,-41.2342],[-71.8472,-41.2411],[-71.8517,-41.25],[-71.8345,-41.2717],[-71.846,-41.2698],[-71.8507,-41.2602],[-71.8649,-41.2558],[-71.8845,-41.2603],[-71.8975,-41.271],[-71.8968,-41.279],[-71.8855,-41.2928],[-71.8771,-41.2967],[-71.8768,-41.3085],[-71.8864,-41.316],[-71.8828,-41.3249],[-71.8987,-41.3311],[-71.9108,-41.3578],[-71.889,-41.3688],[-71.8896,-41.374],[-71.8645,-41.3984],[-71.8699,-41.4105],[-71.863,-41.4223],[-71.8356,-41.432],[-71.8354,-41.4439],[-71.8436,-41.4521],[-71.8374,-41.4751],[-71.8292,-41.4844],[-71.8393,-41.4938],[-71.8521,-41.5148],[-71.8481,-41.5336],[-71.8293,-41.5503],[-71.8339,-41.5719],[-71.8452,-41.5651],[-71.8579,-41.5738],[-71.8639,-41.5844],[-71.8743,-41.5889],[-71.8779,-41.6017],[-71.8855,-41.6063],[-71.8711,-41.6176],[-71.8583,-41.6433],[-71.836,-41.6463],[-71.8366,-41.6652],[-71.8297,-41.6755],[-71.8155,-41.6752],[-71.817,-41.6899],[-71.7944,-41.6947],[-71.7916,-41.7037],[-71.809,-41.7175],[-71.7842,-41.735],[-71.7758,-41.7662],[-71.7612,-41.7854],[-71.774,-41.7928],[-71.7646,-41.817],[-71.7706,-41.8298],[-71.7907,-41.8308],[-71.7977,-41.8423],[-71.7895,-41.8598],[-71.7923,-41.8737],[-71.7892,-41.8903],[-71.7744,-41.9081],[-71.7729,-41.937],[-71.7937,-41.944],[-71.7943,-41.9616],[-71.7786,-41.9859],[-71.7731,-41.9999],[-71.6467,-41.9999],[-71.1751,-41.9998],[-71.2401,-41.954],[-71.2258,-41.8558],[-71.3064,-41.8209],[-71.2666,-41.7335],[-71.2255,-41.6654],[-71.2295,-41.4998]]]},"properties":{"id":446,"departamento":"BARILOCHE","cabecera":"SAN CARLOS DE BARILOCHE","provincia":"RIO NEGRO"}},
{"type":"Feature","geometry":{"type":"Polygon","coordinates":[[[-65.2455,-39.8507],[-65.2247,-39.0731],[-65.2232,-39.0165],[-65.2161,-38.838],[-65.2219,-38.8338],[-65.2418,-38.831],[-65.2563,-38.8321],[-65.2662,-38.8223],[-65.2805,-38.8214],[-65.2863,-38.8257],[-65.3122,-38.8309],[-65.3334,-38.8402],[-65.3376,-38.8457],[-65.3595,-38.8482],[-65.3704,-38.8553],[-65.3808,-38.8532],[-65.3908,-38.8305],[-65.4091,-38.8292],[-65.415,-38.8227],[-65.4378,-38.8155],[-65.4561,-38.8153],[-65.4612,-38.8069],[-65.4737,-38.8071],[-65.5025,-38.7981],[-65.5111,-38.7882],[-65.5265,-38.7785],[-65.5716,-38.784],[-65.5774,-38.7755],[-65.6034,-38.777],[-65.6078,-38.7838],[-65.6244,-38.7904],[-65.61,-38.7956],[-65.6141,-38.8072],[-65.625,-38.8028],[-65.6318,-38.8181],[-65.6401,-38.8092],[-65.6485,-38.8112],[-65.6486,-38.8244],[-65.6654,-38.8266],[-65.6751,-38.8316],[-65.6958,-38.8315],[-65.7018,-38.8165],[-65.7162,-38.8188],[-65.7523,-38.815],[-65.7796,-38.8102],[-65.7903,-38.7962],[-65.802,-38.8059],[-65.8102,-38.8022],[-65.8044,-38.7936],[-65.827,-38.7969],[-65.8411,-38.7866],[-65.8581,-38.7989],[-65.8658,-38.7892],[-65.882,-38.7893],[-65.8749,-38.7777],[-65.8919,-38.7777],[-65.9019,-38.7827],[-65.9126,-38.7812],[-65.9107,-38.7657],[-65.9289,-38.7638],[-65.9389,-38.7692],[-65.9502,-38.762],[-65.9473,-38.7483],[-65.9803,-38.7442],[-65.9969,-38.7469],[-66.0197,-38.7413],[-66.0243,-38.7506],[-66.0339,-38.7509],[-66.0552,-38.7431],[-66.0613,-38.7517],[-66.0749,-38.7441],[-66.0768,-38.7326],[-66.1049,-38.7276],[-66.1107,-38.7361],[-66.1264,-38.7337],[-66.1313,-38.7385],[-66.1579,-38.7294],[-66.1629,-38.7372],[-66.1755,-38.7367],[-66.1856,-38.7315],[-66.1963,-38.7373],[-66.2088,-38.732],[-66.2157,-38.7401],[-66.2468,-38.7356],[-66.2605,-38.7448],[-66.2722,-38.7441],[-66.2885,-38.7559],[-66.292,-38.7452],[-66.3127,-38.7444],[-66.3418,-38.7577],[-66.3546,-38.7463],[-66.3749,-38.7458],[-66.3883,-38.7389],[-66.4044,-38.7441],[-66.4445,-38.7455],[-66.4468,-38.7361],[-66.4605,-38.7362],[-66.4745,-38.729],[-66.4894,-38.7282],[-66.4988,-38.718],[-66.5234,-38.716],[-66.5359,-38.7211],[-66.5534,-38.6984],[-66.5729,-38.7019],[-66.5833,-38.6981],[-66.5893,-38.6894],[-66.6067,-38.6797],[-66.5919,-38.6698],[-66.598,-38.6595],[-66.5966,-38.6477],[-66.583,-38.6345],[-66.5789,-38.6206],[-66.5901,-38.6157],[-66.5998,-38.5997],[-66.5951,-38.5887],[-66.6058,-38.5808],[-66.6035,-38.5739],[-66.6157,-38.5587],[-66.6338,-38.5568],[-66.6331,-38.546],[-66.6448,-38.5379],[-66.6431,-38.7047],[-66.6424,-38.7754],[-66.6391,-39.1016],[-66.6221,-39.1023],[-66.6109,-39.0975],[-66.581,-39.0914],[-66.5655,-39.092],[-66.5712,-39.2713],[-66.5716,-39.2829],[-67.001,-39.3777],[-67.3628,-39.4669],[-67.8722,-39.8109],[-66.8257,-39.9106],[-65.9997,-39.918],[-65.7742,-39.9187],[-65.2946,-39.9185],[-65.2834,-39.9253],[-65.2137,-39.8709],[-65.2373,-39.8616],[-65.2455,-39.8507]]]},"properties":{"id":440,"departamento":"AVELLANEDA","cabecera":"CHOELE CHOEL","provincia":"RIO NEGRO"}},
{"type":"Feature","geometry":{"type":"Polygon","coordinates":[[[-66.6391,-39.1016],[-66.6424,-38.7754],[-66.6431,-38.7047],[-66.6448,-38.5379],[-66.6632,-38.5382],[-66.6903,-38.5295],[-66.7136,-38.531],[-66.7126,-38.5226],[-66.7466,-38.5175],[-66.751,-38.5085],[-66.7663,-38.5043],[-66.7813,-38.484],[-66.792,-38.4798],[-66.8095,-38.4848],[-66.8313,-38.4775],[-66.8544,-38.4756],[-66.8692,-38.4651],[-66.8931,-38.4603],[-66.897,-38.4437],[-66.9195,-38.4494],[-66.9488,-38.4529],[-66.9728,-38.4432],[-66.9804,-38.4485],[-66.9944,-38.4465],[-67.0031,-38.436],[-67.007,-38.4243],[-67.0306,-38.4156],[-67.057,-38.4116],[-67.0698,-38.4021],[-67.0918,-38.3996],[-67.0996,-38.3832],[-67.1108,-38.3739],[-67.1178,-38.3575],[-67.133,-38.3542],[-67.1393,-38.3614],[-67.153,-38.3568],[-67.156,-38.3495],[-67.1478,-38.3316],[-67.1584,-38.3078],[-67.1528,-38.2926],[-67.1579,-38.2852],[-67.1724,-38.2792],[-67.1774,-38.2619],[-67.1966,-38.2538],[-67.1938,-38.2378],[-67.1856,-38.2266],[-67.1861,-38.2165],[-67.1991,-38.2123],[-67.2611,-38.2171],[-67.2812,-38.225],[-67.3059,-38.2422],[-67.3171,-38.2476],[-67.3641,-38.2538],[-67.4303,-38.2529],[-67.4881,-38.2549],[-67.5287,-38.2577],[-67.5479,-38.2563],[-67.5932,-38.2406],[-67.6565,-38.2018],[-67.6684,-38.1795],[-67.6823,-38.1625],[-67.6796,-38.158],[-67.6856,-38.1381],[-67.6974,-38.1268],[-67.7075,-38.124],[-67.7154,-38.1305],[-67.7301,-38.1148],[-67.7268,-38.1057],[-67.7341,-38.0987],[-67.7258,-38.0931],[-67.7314,-38.0834],[-67.7424,-38.0758],[-67.7466,-38.0599],[-67.7568,-38.0669],[-67.7843,-38.0534],[-67.7901,-38.0635],[-67.8121,-38.0707],[-67.82,-38.0626],[-67.833,-38.0578],[-67.8512,-38.0658],[-67.849,-38.0541],[-67.8637,-38.0519],[-67.8684,-38.0364],[-67.876,-38.0339],[-67.8831,-38.0188],[-67.8932,-38.0145],[-67.8913,-37.999],[-67.8997,-37.9961],[-67.904,-37.9836],[-67.8843,-37.9662],[-67.8857,-37.9566],[-67.8747,-37.9547],[-67.8731,-37.9406],[-67.8584,-37.9269],[-67.8459,-37.9248],[-67.8454,-37.918],[-67.8194,-37.9085],[-67.8136,-37.9008],[-67.7805,-37.894],[-67.7776,-37.8886],[-67.7481,-37.8652],[-67.7327,-37.8598],[-67.7275,-37.8456],[-67.7297,-37.8333],[-67.7279,-37.8173],[-67.721,-37.8064],[-67.7255,-37.7919],[-67.7374,-37.7918],[-67.7442,-37.7762],[-67.7408,-37.7631],[-67.7576,-37.7458],[-67.7514,-37.7378],[-67.7612,-37.7328],[-67.7649,-37.7235],[-67.7607,-37.7104],[-67.7737,-37.6877],[-67.7685,-37.6754],[-67.7737,-37.6657],[-67.7934,-37.6463],[-67.8136,-37.643],[-67.8471,-37.6183],[-67.8625,-37.6175],[-67.8707,-37.6126],[-67.8791,-37.62],[-67.9044,-37.6145],[-67.9239,-37.6172],[-67.9381,-37.605],[-67.9499,-37.6029],[-67.9807,-37.609],[-67.9909,-37.6042],[-68.0191,-37.6028],[-68.0458,-37.5959],[-68.0657,-37.6018],[-68.09,-37.5931],[-68.1001,-37.5955],[-68.1207,-37.5905],[-68.1303,-37.5911],[-68.1514,-37.5805],[-68.2018,-37.5889],[-68.2397,-37.5843],[-68.25,-37.5767],[-68.2501,-37.7045],[-68.2513,-38.6797],[-68.2419,-38.6971],[-68.2168,-38.7094],[-68.1952,-38.711],[-68.1905,-38.7227],[-68.1707,-38.7275],[-68.1631,-38.7379],[-68.1405,-38.7433],[-68.1331,-38.7502],[-68.1212,-38.7467],[-68.1201,-38.7577],[-68.1255,-38.7694],[-68.119,-38.7752],[-68.114,-38.7888],[-68.116,-38.7966],[-68.1058,-38.8045],[-68.1097,-38.8127],[-68.0932,-38.8191],[-68.0951,-38.8305],[-68.0814,-38.8495],[-68.0937,-38.8575],[-68.0753,-38.876],[-68.0741,-38.8842],[-68.0643,-38.8963],[-68.0634,-38.9103],[-68.0504,-38.9119],[-68.0421,-38.9257],[-68.0395,-38.9417],[-68.008,-38.9587],[-68.0113,-38.9789],[-68.0017,-38.9918],[-67.9616,-38.9964],[-67.9412,-39.0109],[-67.9145,-39.009],[-67.8737,-39.019],[-67.8681,-39.0263],[-67.8547,-39.0317],[-67.8182,-39.0364],[-67.7968,-39.0415],[-67.7826,-39.0538],[-67.7745,-39.0514],[-67.7615,-39.0577],[-67.7575,-39.065],[-67.7445,-39.0702],[-67.7323,-39.0684],[-67.7182,-39.075],[-67.7089,-39.0878],[-67.6917,-39.0964],[-67.6663,-39.099],[-67.6504,-39.111],[-67.622,-39.1134],[-67.606,-39.1109],[-67.5836,-39.1035],[-67.5607,-39.0862],[-67.5394,-39.0849],[-67.5312,-39.0765],[-67.5066,-39.0857],[-67.4893,-39.0838],[-67.4807,-39.0869],[-67.4662,-39.0813],[-67.4552,-39.087],[-67.4389,-39.0787],[-67.4306,-39.0792],[-67.408,-39.0896],[-67.3831,-39.0931],[-67.3724,-39.0979],[-67.3669,-39.0903],[-67.3517,-39.0947],[-67.3457,-39.1004],[-67.3286,-39.1056],[-67.3033,-39.0984],[-67.2925,-39.1018],[-67.2781,-39.0981],[-67.2648,-39.1109],[-67.2544,-39.115],[-67.2381,-39.1129],[-67.2239,-39.1152],[-67.2148,-39.1049],[-67.2063,-39.1054],[-67.1943,-39.1143],[-67.1893,-39.1254],[-67.1771,-39.1218],[-67.1642,-39.1241],[-67.1665,-39.1366],[-67.1291,-39.1597],[-67.1031,-39.167],[-67.0808,-39.1672],[-67.0708,-39.1706],[-67.0376,-39.1726],[-67.0224,-39.1805],[-67.0014,-39.1758],[-66.99,-39.1775],[-66.98,-39.1704],[-66.968,-39.1715],[-66.9608,-39.1639],[-66.9427,-39.1617],[-66.9349,-39.1562],[-66.9197,-39.1597],[-66.9053,-39.155],[-66.8841,-39.1598],[-66.8591,-39.1582],[-66.859,-39.1461],[-66.84,-39.1369],[-66.8173,-39.1358],[-66.7956,-39.1438],[-66.7711,-39.1383],[-66.7641,-39.1419],[-66.7496,-39.1364],[-66.728,-39.1406],[-66.7244,-39.1282],[-66.7009,-39.1208],[-66.6796,-39.1067],[-66.6599,-39.1028],[-66.6391,-39.1016]]]},"properties":{"id":441,"departamento":"GENERAL ROCA","cabecera":"GENERAL ROCA","provincia":"RIO NEGRO"}}
]}