{"type":"FeatureCollection", "features": [
{"type":"Feature","geometry":{"type":"Polygon","coordinates":[[[-65.218,-24.7123],[-65.2865,-24.711],[-65.3184,-24.7294],[-65.3361,-24.7239],[-65.3567,-24.7107],[-65.3794,-24.711],[-65.3937,-24.7216],[-65.4426,-24.7197],[-65.476,-24.704],[-65.4847,-24.6957],[-65.5179,-24.68],[-65.5434,-24.6635],[-65.5712,-24.6548],[-65.5751,-24.6675],[-65.5737,-24.6736],[-65.5797,-24.7018],[-65.5803,-24.7186],[-65.5803,-24.7242],[-65.5812,-24.7362],[-65.5812,-24.7416],[-65.5823,-24.7707],[-65.5823,-24.7758],[-65.5732,-24.7968],[-65.581,-24.8059],[-65.5628,-24.8202],[-65.5348,-24.8315],[-65.5348,-24.8369],[-65.5215,-24.8559],[-65.4527,-24.8561],[-65.43,-24.8631],[-65.4051,-24.8657],[-65.3875,-24.8595],[-65.3755,-24.8611],[-65.3641,-24.8736],[-65.3662,-24.9077],[-65.3375,-24.9172],[-65.3282,-24.9385],[-65.314,-24.9497],[-65.3179,-24.9601],[-65.3167,-25.0171],[-65.3039,-25.0368],[-65.3029,-25.0655],[-65.2918,-25.0788],[-65.275,-25.0865],[-65.2417,-25.1276],[-65.2353,-25.1439],[-65.2423,-25.1595],[-65.2656,-25.1646],[-65.2814,-25.1842],[-65.2791,-25.2117],[-65.2755,-25.2351],[-65.2857,-25.2742],[-65.2827,-25.2797],[-65.2308,-25.2654],[-65.221,-25.2382],[-65.1983,-25.1972],[-65.1909,-25.1753],[-65.1691,-25.1552],[-65.159,-25.1279],[-65.1439,-25.1095],[-65.1206,-25.1015],[-65.0841,-25.1012],[-65.0885,-25.0671],[-65.0819,-25.0332],[-65.0669,-24.9953],[-65.0686,-24.984],[-65.0883,-24.9712],[-65.1073,-24.9715],[-65.1149,-24.9641],[-65.0989,-24.9464],[-65.0917,-24.9306],[-65.0897,-24.9076],[-65.082,-24.8806],[-65.0614,-24.8677],[-65.0438,-24.8513],[-65.0309,-24.8131],[-65.0308,-24.7962],[-65.0632,-24.7691],[-65.0695,-24.7596],[-65.0889,-24.7448],[-65.1562,-24.7452],[-65.1951,-24.7625],[-65.2436,-24.7751],[-65.2506,-24.7668],[-65.3,-24.7737],[-65.3007,-24.7573],[-65.2944,-24.7351],[-65.2531,-24.7225],[-65.2221,-24.7257],[-65.218,-24.7123]]]},"properties":{"id":204,"departamento":"CAPITAL","cabecera":"SALTA","provincia":"SALTA"}},
{"type":"Feature","geometry":{"type":"Polygon","coordinates":[[[-65.9966,-24.7906],[-66.0272,-24.7572],[-66.0582,-24.7611],[-66.1079,-24.7542],[-66.1154,-24.7568],[-66.1061,-24.7603],[-66.0898,-24.8114],[-66.0909,-24.8228],[-66.1015,-24.8559],[-66.1019,-24.879],[-66.1082,-24.9067],[-66.1308,-24.9146],[-66.1461,-24.9247],[-66.1956,-24.9325],[-66.2278,-24.9052],[-66.2532,-24.88],[-66.2539,-24.8572],[-66.27,-24.85],[-66.2885,-24.8524],[-66.3014,-24.8514],[-66.3199,-24.8531],[-66.3595,-24.8382],[-66.3844,-24.8431],[-66.4,-24.8345],[-66.4046,-24.8238],[-66.4068,-24.8125],[-66.4514,-24.8286],[-66.4597,-24.8372],[-66.4641,-24.8539],[-66.4787,-24.8641],[-66.5157,-24.8682],[-66.5475,-24.8959],[-66.5695,-24.9071],[-66.5834,-24.9188],[-66.597,-24.9445],[-66.5874,-24.9654],[-66.5855,-24.9883],[-66.5896,-25.0051],[-66.5749,-25.0304],[-66.5725,-25.0531],[-66.5964,-25.0933],[-66.5991,-25.1219],[-66.571,-25.1168],[-66.5411,-25.1078],[-66.5042,-25.114],[-66.4732,-25.1153],[-66.4666,-25.1252],[-66.4627,-25.1477],[-66.4525,-25.154],[-66.4226,-25.1331],[-66.4104,-25.1321],[-66.3805,-25.1415],[-66.368,-25.1421],[-66.3312,-25.1505],[-66.3205,-25.1565],[-66.315,-25.1847],[-66.3089,-25.1947],[-66.305,-25.2229],[-66.2983,-25.2325],[-66.2748,-25.2393],[-66.2569,-25.2363],[-66.2341,-25.2459],[-66.2026,-25.2465],[-66.1328,-25.2857],[-66.1097,-25.2947],[-66.0973,-25.2922],[-66.0425,-25.305],[-66.0299,-25.3052],[-66.0069,-25.3128],[-65.9877,-25.297],[-65.9337,-25.2675],[-65.8993,-25.2424],[-65.8805,-25.2412],[-65.8699,-25.2272],[-65.864,-25.2048],[-65.866,-25.1821],[-65.8793,-25.1709],[-65.8846,-25.1493],[-65.8741,-25.135],[-65.8506,-25.1266],[-65.8417,-25.1126],[-65.8565,-25.0717],[-65.8852,-25.0505],[-65.8911,-25.028],[-65.8902,-25.0165],[-65.8909,-25.0048],[-65.8909,-24.9997],[-65.8911,-24.9938],[-65.884,-24.9655],[-65.8839,-24.9488],[-65.8975,-24.9393],[-65.9164,-24.9419],[-65.9271,-24.9362],[-65.9514,-24.8962],[-66.0012,-24.8527],[-66.0044,-24.841],[-65.9966,-24.7906]]]},"properties":{"id":205,"departamento":"CACHI","cabecera":"CACHI","provincia":"SALTA"}},
{"type":"Feature","geometry":{"type":"Polygon","coordinates":[[[-65.5215,-24.8559],[-65.5115,-24.8623],[-65.5124,-24.8683],[-65.5123,-24.8737],[-65.5211,-24.9067],[-65.4976,-24.9316],[-65.5139,-24.949],[-65.5304,-24.9798],[-65.514,-24.9864],[-65.505,-24.9995],[-65.5074,-25.0227],[-65.5044,-25.0498],[-65.5043,-25.0498],[-65.4745,-25.0471],[-65.442,-25.0647],[-65.4029,-25.0813],[-65.3925,-25.067],[-65.3818,-25.0724],[-65.3277,-25.1277],[-65.2996,-25.1504],[-65.2838,-25.16],[-65.2656,-25.1646],[-65.2423,-25.1595],[-65.2353,-25.1439],[-65.2417,-25.1276],[-65.275,-25.0865],[-65.2918,-25.0788],[-65.3029,-25.0655],[-65.3039,-25.0368],[-65.3167,-25.0171],[-65.3179,-24.9601],[-65.314,-24.9497],[-65.3282,-24.9385],[-65.3375,-24.9172],[-65.3662,-24.9077],[-65.3641,-24.8736],[-65.3755,-24.8611],[-65.3875,-24.8595],[-65.4051,-24.8657],[-65.43,-24.8631],[-65.4527,-24.8561],[-65.5215,-24.8559]]]},"properties":{"id":206,"departamento":"CERRILLOS","cabecera":"CERRILLOS","provincia":"SALTA"}},
{"type":"Feature","geometry":{"type":"Polygon","coordinates":[[[-65.2656,-25.1646],[-65.2838,-25.16],[-65.2996,-25.1504],[-65.3277,-25.1277],[-65.3818,-25.0724],[-65.3925,-25.067],[-65.4029,-25.0813],[-65.442,-25.0647],[-65.4745,-25.0471],[-65.5043,-25.0498],[-65.5044,-25.0498],[-65.5146,-25.0429],[-65.5548,-25.0264],[-65.6105,-25.0226],[-65.6394,-25.0341],[-65.6873,-25.0472],[-65.7068,-25.0831],[-65.7378,-25.1005],[-65.7495,-25.0965],[-65.7643,-25.0781],[-65.7748,-25.0718],[-65.7999,-25.0703],[-65.8312,-25.074],[-65.8565,-25.0717],[-65.8417,-25.1126],[-65.8506,-25.1266],[-65.8741,-25.135],[-65.8846,-25.1493],[-65.8793,-25.1709],[-65.866,-25.1821],[-65.8551,-25.1827],[-65.8424,-25.1939],[-65.8482,-25.2041],[-65.8435,-25.2265],[-65.8311,-25.2591],[-65.8239,-25.2987],[-65.8206,-25.3005],[-65.8022,-25.2971],[-65.7835,-25.2991],[-65.7605,-25.3189],[-65.7413,-25.308],[-65.7276,-25.2821],[-65.7111,-25.2389],[-65.7083,-25.1818],[-65.6981,-25.1758],[-65.6733,-25.1802],[-65.6454,-25.1935],[-65.6274,-25.1963],[-65.611,-25.2049],[-65.602,-25.191],[-65.5764,-25.1736],[-65.5683,-25.1945],[-65.5555,-25.2067],[-65.5308,-25.2075],[-65.4648,-25.1878],[-65.4226,-25.187],[-65.4099,-25.1732],[-65.3932,-25.1769],[-65.3846,-25.1852],[-65.3816,-25.2077],[-65.3593,-25.2169],[-65.3027,-25.2174],[-65.2791,-25.2117],[-65.2814,-25.1842],[-65.2656,-25.1646]]]},"properties":{"id":207,"departamento":"CHICOANA","cabecera":"CHICOANA","provincia":"SALTA"}},
{"type":"Feature","geometry":{"type":"Polygon","coordinates":[[[-65.2791,-25.2117],[-65.3027,-25.2174],[-65.3593,-25.2169],[-65.3816,-25.2077],[-65.3846,-25.1852],[-65.3932,-25.1769],[-65.4099,-25.1732],[-65.4226,-25.187],[-65.4648,-25.1878],[-65.5308,-25.2075],[-65.5555,-25.2067],[-65.5683,-25.1945],[-65.5764,-25.1736],[-65.602,-25.191],[-65.611,-25.2049],[-65.6274,-25.1963],[-65.6454,-25.1935],[-65.6733,-25.1802],[-65.6981,-25.1758],[-65.7083,-25.1818],[-65.7111,-25.2389],[-65.7276,-25.2821],[-65.7413,-25.308],[-65.7605,-25.3189],[-65.7835,-25.2991],[-65.8022,-25.2971],[-65.8206,-25.3005],[-65.8203,-25.3098],[-65.7962,-25.35],[-65.7924,-25.3783],[-65.7743,-25.3837],[-65.7831,-25.4104],[-65.7899,-25.4501],[-65.7785,-25.4887],[-65.767,-25.5092],[-65.7491,-25.5575],[-65.763,-25.5833],[-65.7734,-25.5895],[-65.7753,-25.6006],[-65.7581,-25.6374],[-65.7702,-25.6749],[-65.7883,-25.6715],[-65.8044,-25.6892],[-65.8374,-25.7063],[-65.8435,-25.7226],[-65.8461,-25.7455],[-65.8627,-25.7764],[-65.8596,-25.7859],[-65.7885,-25.8103],[-65.7983,-25.8311],[-65.7995,-25.8742],[-65.7796,-25.8892],[-65.7584,-25.8771],[-65.7478,-25.8828],[-65.7373,-25.8772],[-65.7163,-25.883],[-65.7087,-25.8434],[-65.6956,-25.8111],[-65.6915,-25.7827],[-65.6933,-25.7253],[-65.6902,-25.7141],[-65.6687,-25.6725],[-65.6561,-25.6525],[-65.646,-25.6462],[-65.6333,-25.648],[-65.6226,-25.6419],[-65.6014,-25.6206],[-65.5729,-25.5978],[-65.5414,-25.5548],[-65.5309,-25.534],[-65.499,-25.4914],[-65.4959,-25.4804],[-65.476,-25.4662],[-65.4683,-25.4505],[-65.4642,-25.4163],[-65.4454,-25.3737],[-65.439,-25.334],[-65.4285,-25.3072],[-65.4072,-25.286],[-65.396,-25.2799],[-65.373,-25.2976],[-65.3433,-25.3078],[-65.3462,-25.3245],[-65.3457,-25.3532],[-65.3358,-25.3923],[-65.3371,-25.4323],[-65.3278,-25.4388],[-65.2684,-25.4199],[-65.2315,-25.4122],[-65.2031,-25.3996],[-65.1819,-25.3847],[-65.1664,-25.3684],[-65.1619,-25.3464],[-65.1707,-25.319],[-65.1793,-25.3036],[-65.2231,-25.2813],[-65.2308,-25.2654],[-65.2827,-25.2797],[-65.2857,-25.2742],[-65.2755,-25.2351],[-65.2791,-25.2117]]]},"properties":{"id":208,"departamento":"LA VIÑA","cabecera":"LA VIÑA","provincia":"SALTA"}},
{"type":"Feature","geometry":{"type":"Polygon","coordinates":[[[-64.4905,-22.4419],[-64.4941,-22.4343],[-64.5141,-22.4456],[-64.5256,-22.4405],[-64.5127,-22.4166],[-64.5326,-22.3965],[-64.5565,-22.3865],[-64.5693,-22.3657],[-64.5646,-22.3616],[-64.5668,-22.3242],[-64.5536,-22.3201],[-64.5406,-22.3049],[-64.5355,-22.2916],[-64.545,-22.2746],[-64.5634,-22.2649],[-64.5802,-22.2496],[-64.5979,-22.2416],[-64.6026,-22.2252],[-64.6275,-22.2013],[-64.6521,-22.1883],[-64.6643,-22.1943],[-64.6882,-22.1859],[-64.7104,-22.1875],[-64.7229,-22.1952],[-64.7374,-22.1925],[-64.7537,-22.1774],[-64.7786,-22.1763],[-64.791,-22.163],[-64.8099,-22.1529],[-64.8182,-22.1435],[-64.8412,-22.1372],[-64.845,-22.1322],[-64.8767,-22.1154],[-64.887,-22.1279],[-64.9026,-22.1177],[-64.9238,-22.1189],[-64.9387,-22.108],[-64.9925,-22.0922],[-64.9975,-22.0827],[-65.1866,-22.0853],[-65.1953,-22.1103],[-65.1915,-22.1317],[-65.1933,-22.1437],[-65.2144,-22.1476],[-65.2302,-22.2286],[-65.2326,-22.2578],[-65.2397,-22.2796],[-65.239,-22.2919],[-65.23,-22.3224],[-65.245,-22.3337],[-65.2639,-22.3392],[-65.2654,-22.3489],[-65.2843,-22.3942],[-65.283,-22.4143],[-65.2959,-22.4228],[-65.2961,-22.4355],[-65.3134,-22.4798],[-65.3292,-22.4966],[-65.3395,-22.5152],[-65.3334,-22.5199],[-65.3175,-22.5108],[-65.2994,-22.5111],[-65.2769,-22.5206],[-65.2675,-22.5355],[-65.2625,-22.5389],[-65.2454,-22.5457],[-65.2395,-22.5474],[-65.1994,-22.5625],[-65.1676,-22.5803],[-65.1259,-22.5902],[-65.1075,-22.5916],[-65.0869,-22.58],[-65.0753,-22.5597],[-65.0573,-22.5576],[-65.0465,-22.5631],[-65.0294,-22.5796],[-64.9968,-22.5961],[-64.9721,-22.5963],[-64.9415,-22.5921],[-64.8921,-22.5887],[-64.8613,-22.5884],[-64.8454,-22.5803],[-64.8363,-22.5529],[-64.8375,-22.5415],[-64.8544,-22.5044],[-64.8577,-22.4816],[-64.8435,-22.4651],[-64.832,-22.4689],[-64.7921,-22.5264],[-64.7912,-22.5606],[-64.7644,-22.5838],[-64.7374,-22.629],[-64.7321,-22.6455],[-64.7352,-22.6741],[-64.7425,-22.7079],[-64.7264,-22.721],[-64.7084,-22.7132],[-64.6974,-22.6993],[-64.6929,-22.6825],[-64.6787,-22.6639],[-64.6393,-22.6471],[-64.6239,-22.6566],[-64.6064,-22.66],[-64.596,-22.6539],[-64.5659,-22.6545],[-64.5511,-22.6438],[-64.5428,-22.6162],[-64.5434,-22.6048],[-64.5214,-22.5703],[-64.5186,-22.5591],[-64.5206,-22.5362],[-64.5153,-22.5079],[-64.5163,-22.4735],[-64.507,-22.4588],[-64.4905,-22.4419]]]},"properties":{"id":209,"departamento":"SANTA VICTORIA","cabecera":"SANTA VICTORIA","provincia":"SALTA"}},
{"type":"Feature","geometry":{"type":"Polygon","coordinates":[[[-63.1337,-21.9993],[-63.3574,-21.9993],[-63.666,-21.9994],[-63.6647,-22.0145],[-63.6767,-22.0524],[-63.6896,-22.0172],[-63.7025,-22.0133],[-63.706,-21.9994],[-63.9317,-21.9994],[-63.9436,-22.0113],[-63.9413,-22.028],[-63.955,-22.0438],[-63.9592,-22.0856],[-63.9867,-22.0925],[-63.9989,-22.1241],[-64.0011,-22.1574],[-64.0171,-22.1671],[-64.0232,-22.1766],[-64.0175,-22.1864],[-64.0316,-22.1923],[-64.0267,-22.2086],[-64.0342,-22.2424],[-64.0461,-22.246],[-64.0646,-22.243],[-64.0744,-22.2587],[-64.0754,-22.2778],[-64.0976,-22.3124],[-64.0972,-22.3377],[-64.1042,-22.3532],[-64.1179,-22.3617],[-64.1106,-22.3821],[-64.1216,-22.3838],[-64.1166,-22.4038],[-64.1422,-22.4082],[-64.1454,-22.4192],[-64.14,-22.4311],[-64.1529,-22.4387],[-64.1627,-22.4545],[-64.1644,-22.4709],[-64.1819,-22.4702],[-64.1861,-22.4874],[-64.2031,-22.491],[-64.2129,-22.5205],[-64.2284,-22.5439],[-64.2441,-22.5611],[-64.2426,-22.5731],[-64.2475,-22.5905],[-64.2413,-22.5981],[-64.2497,-22.6084],[-64.27,-22.6603],[-64.2539,-22.6814],[-64.2658,-22.6853],[-64.2691,-22.6984],[-64.2621,-22.7353],[-64.2748,-22.7557],[-64.2768,-22.7705],[-64.2894,-22.7924],[-64.2906,-22.8099],[-64.2824,-22.8169],[-64.287,-22.8397],[-64.2994,-22.8417],[-64.2995,-22.8604],[-64.2988,-22.8817],[-64.3096,-22.8954],[-64.3164,-22.9161],[-64.3146,-22.9267],[-64.3249,-22.9333],[-64.3286,-22.9376],[-64.3209,-22.9828],[-64.2943,-22.9969],[-64.285,-23.0182],[-64.2631,-23.028],[-64.2322,-23.0768],[-64.2247,-23.0674],[-64.2133,-23.0711],[-64.2059,-23.0986],[-64.2136,-23.121],[-64.2018,-23.1176],[-64.1957,-23.1512],[-64.1747,-23.1712],[-64.1856,-23.1745],[-64.2105,-23.157],[-64.2259,-23.1622],[-64.23,-23.173],[-64.2282,-23.1901],[-64.219,-23.2049],[-64.2032,-23.2138],[-64.1906,-23.2127],[-64.1776,-23.2449],[-64.1504,-23.234],[-64.1381,-23.2337],[-64.1081,-23.2261],[-64.0908,-23.2318],[-64.0665,-23.2562],[-64.022,-23.2532],[-63.9914,-23.27],[-64.0039,-23.2874],[-63.9889,-23.3014],[-63.9684,-23.289],[-63.9565,-23.2876],[-63.9397,-23.2949],[-63.8975,-23.3046],[-63.8685,-23.296],[-63.8563,-23.2966],[-63.8291,-23.3103],[-63.8023,-23.3417],[-63.7911,-23.3466],[-63.7539,-23.3484],[-63.7402,-23.3594],[-63.7089,-23.3594],[-63.6794,-23.3887],[-63.6604,-23.4112],[-63.6299,-23.431],[-63.6042,-23.456],[-63.5892,-23.4499],[-63.5644,-23.424],[-63.5356,-23.4457],[-63.5146,-23.4581],[-63.4913,-23.4661],[-63.4401,-23.4984],[-63.4105,-23.5192],[-63.3919,-23.5402],[-63.3696,-23.5631],[-63.3451,-23.5772],[-63.3195,-23.5878],[-63.2944,-23.4505],[-63.2706,-23.4518],[-63.2256,-23.1346],[-63.1952,-22.9195],[-63.119,-22.9197],[-63.1189,-22.7117],[-63.1187,-22.4818],[-63.1319,-22.4811],[-63.1326,-22.2992],[-63.1337,-21.9993]]]},"properties":{"id":210,"departamento":"GENERAL JOSE DE SAN MARTIN","cabecera":"GENERAL JOSE DE SAN MARTIN","provincia":"SALTA"}},
{"type":"Feature","geometry":{"type":"Polygon","coordinates":[[[-63.3919,-23.5402],[-63.4269,-23.6883],[-63.4398,-23.6857],[-63.4936,-23.9369],[-63.4853,-23.943],[-63.525,-24.115],[-63.4398,-24.1281],[-63.4418,-24.172],[-63.4168,-24.1717],[-63.4029,-24.1531],[-63.3723,-24.1472],[-63.3523,-24.1509],[-63.3691,-24.3026],[-63.2934,-24.28],[-63.2938,-24.3129],[-63.2257,-24.3105],[-63.2049,-24.2028],[-63.1622,-24.2033],[-63.1616,-24.2939],[-63.0432,-24.3687],[-63.0172,-24.2149],[-62.944,-24.2462],[-62.9435,-24.6976],[-63.2328,-24.7029],[-63.2364,-24.8641],[-63.1121,-24.8672],[-63.1133,-25.0598],[-63.1139,-25.2903],[-62.72,-24.8323],[-62.6634,-24.7664],[-62.3417,-24.3925],[-62.3419,-24.1079],[-62.3419,-23.846],[-62.342,-23.4954],[-62.3422,-22.7985],[-62.3423,-22.4539],[-62.3532,-22.4519],[-62.3722,-22.4569],[-62.3791,-22.4703],[-62.3886,-22.4521],[-62.4018,-22.4409],[-62.417,-22.4378],[-62.4236,-22.4254],[-62.4601,-22.3969],[-62.467,-22.3697],[-62.4861,-22.3778],[-62.5117,-22.3785],[-62.5378,-22.3683],[-62.5326,-22.3623],[-62.5474,-22.3265],[-62.5706,-22.3286],[-62.5732,-22.3081],[-62.6025,-22.3125],[-62.6176,-22.3012],[-62.6326,-22.3036],[-62.6426,-22.2963],[-62.6319,-22.2801],[-62.6384,-22.2584],[-62.6329,-22.244],[-62.6424,-22.2369],[-62.6615,-22.2501],[-62.6816,-22.23],[-62.6914,-22.2096],[-62.723,-22.1998],[-62.7312,-22.1946],[-62.7414,-22.1746],[-62.7734,-22.1505],[-62.7814,-22.164],[-62.7924,-22.1638],[-62.8116,-22.1304],[-62.8121,-22.1169],[-62.8207,-22.0975],[-62.805,-22.0802],[-62.8051,-22.0586],[-62.8151,-22.041],[-62.8161,-22.0185],[-62.8109,-21.9988],[-63,-21.9988],[-63.1337,-21.9993],[-63.1326,-22.2992],[-63.1319,-22.4811],[-63.1187,-22.4818],[-63.1189,-22.7117],[-63.119,-22.9197],[-63.1952,-22.9195],[-63.2256,-23.1346],[-63.2706,-23.4518],[-63.2944,-23.4505],[-63.3195,-23.5878],[-63.3451,-23.5772],[-63.3696,-23.5631],[-63.3919,-23.5402]]]},"properties":{"id":211,"departamento":"RIVADAVIA","cabecera":"RIVADAVIA","provincia":"SALTA"}},
{"type":"Feature","geometry":{"type":"Polygon","coordinates":[[[-65.2308,-25.2654],[-65.2231,-25.2813],[-65.1793,-25.3036],[-65.1707,-25.319],[-65.1619,-25.3464],[-65.1664,-25.3684],[-65.1819,-25.3847],[-65.1807,-25.3947],[-65.1642,-25.419],[-65.1575,-25.4411],[-65.1587,-25.4696],[-65.1484,-25.4843],[-65.1554,-25.5119],[-65.1451,-25.5263],[-65.1524,-25.5423],[-65.1639,-25.556],[-65.1669,-25.5722],[-65.1398,-25.6041],[-65.135,-25.6147],[-65.1236,-25.6353],[-65.1049,-25.6586],[-65.0809,-25.6653],[-65.0556,-25.6628],[-65.026,-25.672],[-65.0133,-25.6714],[-64.9466,-25.6545],[-64.8782,-25.6428],[-64.8544,-25.6499],[-64.8229,-25.6494],[-64.7862,-25.641],[-64.7588,-25.6264],[-64.7401,-25.6242],[-64.6998,-25.6077],[-64.6749,-25.6045],[-64.6477,-25.5901],[-64.6162,-25.5884],[-64.5492,-25.6055],[-64.4943,-25.6165],[-64.485,-25.6108],[-64.4825,-25.5763],[-64.4837,-25.5305],[-64.4744,-25.5228],[-64.4498,-25.5172],[-64.4076,-25.5259],[-64.3511,-25.52],[-64.3266,-25.5141],[-64.3076,-25.5135],[-64.2774,-25.5222],[-64.2364,-25.5371],[-64.2112,-25.5411],[-64.204,-25.5555],[-64.2133,-25.7072],[-64.1975,-25.7093],[-64.1964,-25.7277],[-64.0254,-25.7535],[-64.0077,-25.6734],[-63.9143,-25.6828],[-63.8784,-25.6843],[-63.8803,-25.6639],[-63.895,-25.6387],[-63.9511,-25.5697],[-63.9648,-25.5577],[-63.9834,-25.535],[-64.0104,-25.4962],[-64.0245,-25.4706],[-64.0485,-25.4114],[-64.055,-25.36],[-64.0619,-25.344],[-64.0824,-25.315],[-64.0892,-25.2929],[-64.0911,-25.2413],[-64.1051,-25.1853],[-64.1315,-25.1332],[-64.1667,-25.0856],[-64.2013,-25.0608],[-64.2137,-25.0584],[-64.2563,-25.0681],[-64.2978,-25.0943],[-64.3266,-25.1246],[-64.3653,-25.1904],[-64.3802,-25.2086],[-64.3925,-25.2117],[-64.4678,-25.2196],[-64.515,-25.2356],[-64.564,-25.272],[-64.5995,-25.3124],[-64.6286,-25.3424],[-64.66,-25.3616],[-64.6844,-25.3677],[-64.7033,-25.3682],[-64.7346,-25.3639],[-64.7462,-25.3594],[-64.7714,-25.3585],[-64.8334,-25.3308],[-64.8496,-25.3218],[-64.8762,-25.2973],[-64.8783,-25.2693],[-64.8825,-25.2525],[-64.9141,-25.203],[-64.9243,-25.176],[-64.9496,-25.1588],[-64.9592,-25.1465],[-64.9885,-25.1298],[-65.0175,-25.1187],[-65.0671,-25.112],[-65.0841,-25.1012],[-65.1206,-25.1015],[-65.1439,-25.1095],[-65.159,-25.1279],[-65.1691,-25.1552],[-65.1909,-25.1753],[-65.1983,-25.1972],[-65.221,-25.2382],[-65.2308,-25.2654]]]},"properties":{"id":212,"departamento":"METAN","cabecera":"METAN","provincia":"SALTA"}},
{"type":"Feature","geometry":{"type":"Polygon","coordinates":[[[-65.2385,-25.9347],[-65.262,-25.9318],[-65.285,-25.9221],[-65.3098,-25.9173],[-65.3416,-25.9179],[-65.3664,-25.9227],[-65.381,-25.9333],[-65.4053,-25.9737],[-65.4382,-26.0159],[-65.4817,-26.0386],[-65.513,-26.0413],[-65.5363,-26.0592],[-65.5321,-26.0913],[-65.5241,-26.0952],[-65.5046,-26.09],[-65.4766,-26.0953],[-65.4384,-26.1095],[-65.4225,-26.1085],[-65.4086,-26.0931],[-65.388,-26.0852],[-65.3631,-26.0592],[-65.3471,-26.0604],[-65.322,-26.0719],[-65.3181,-26.0803],[-65.2963,-26.0942],[-65.289,-26.1139],[-65.2926,-26.1272],[-65.2757,-26.1555],[-65.2736,-26.172],[-65.2229,-26.1829],[-65.2273,-26.1896],[-65.1935,-26.1924],[-65.0452,-26.2301],[-65.0394,-26.2336],[-65.0464,-26.2551],[-65.0405,-26.274],[-65.0322,-26.2722],[-64.9929,-26.2813],[-64.9995,-26.2403],[-64.983,-26.2354],[-64.9624,-26.2409],[-64.9301,-26.1874],[-64.8998,-26.1322],[-64.9012,-26.0946],[-64.8837,-26.0801],[-64.8754,-26.059],[-64.878,-26.0257],[-64.9021,-26.0176],[-64.9528,-26.0151],[-64.984,-26.0206],[-65.0212,-26.014],[-65.0719,-26.0107],[-65.0827,-26.0161],[-65.0826,-26.0328],[-65.1005,-26.0366],[-65.1428,-26.0248],[-65.1641,-26.0123],[-65.1824,-26.0074],[-65.2107,-25.9947],[-65.2318,-25.973],[-65.2316,-25.9562],[-65.2385,-25.9347]]]},"properties":{"id":213,"departamento":"LA CANDELARIA","cabecera":"LA CANDELARIA","provincia":"SALTA"}},
{"type":"Feature","geometry":{"type":"Polygon","coordinates":[[[-65.7163,-25.883],[-65.7244,-25.9281],[-65.7316,-25.9377],[-65.7479,-25.9466],[-65.7556,-25.9677],[-65.7412,-25.9783],[-65.723,-25.9731],[-65.7074,-25.9817],[-65.6762,-25.9872],[-65.6381,-25.9887],[-65.614,-25.9962],[-65.6137,-26.0353],[-65.6193,-26.0458],[-65.637,-26.0619],[-65.6577,-26.1156],[-65.6401,-26.111],[-65.63,-26.1234],[-65.6017,-26.1207],[-65.5481,-26.0875],[-65.5321,-26.0913],[-65.5363,-26.0592],[-65.513,-26.0413],[-65.4817,-26.0386],[-65.4382,-26.0159],[-65.4053,-25.9737],[-65.381,-25.9333],[-65.3664,-25.9227],[-65.3416,-25.9179],[-65.3098,-25.9173],[-65.285,-25.9221],[-65.262,-25.9318],[-65.2385,-25.9347],[-65.243,-25.9057],[-65.2511,-25.8841],[-65.2936,-25.8496],[-65.2716,-25.7984],[-65.277,-25.7796],[-65.2598,-25.7722],[-65.2556,-25.7621],[-65.2585,-25.7338],[-65.2492,-25.7125],[-65.2405,-25.7042],[-65.2129,-25.6902],[-65.1959,-25.6737],[-65.1739,-25.6459],[-65.1735,-25.6287],[-65.1662,-25.6207],[-65.135,-25.6147],[-65.1398,-25.6041],[-65.1669,-25.5722],[-65.1639,-25.556],[-65.1524,-25.5423],[-65.1451,-25.5263],[-65.1554,-25.5119],[-65.1484,-25.4843],[-65.1587,-25.4696],[-65.1575,-25.4411],[-65.1642,-25.419],[-65.1807,-25.3947],[-65.1819,-25.3847],[-65.2031,-25.3996],[-65.2315,-25.4122],[-65.2684,-25.4199],[-65.3278,-25.4388],[-65.3371,-25.4323],[-65.3358,-25.3923],[-65.3457,-25.3532],[-65.3462,-25.3245],[-65.3433,-25.3078],[-65.373,-25.2976],[-65.396,-25.2799],[-65.4072,-25.286],[-65.4285,-25.3072],[-65.439,-25.334],[-65.4454,-25.3737],[-65.4642,-25.4163],[-65.4683,-25.4505],[-65.476,-25.4662],[-65.4959,-25.4804],[-65.499,-25.4914],[-65.5309,-25.534],[-65.5414,-25.5548],[-65.5729,-25.5978],[-65.6014,-25.6206],[-65.6226,-25.6419],[-65.6333,-25.648],[-65.646,-25.6462],[-65.6561,-25.6525],[-65.6687,-25.6725],[-65.6902,-25.7141],[-65.6933,-25.7253],[-65.6915,-25.7827],[-65.6956,-25.8111],[-65.7087,-25.8434],[-65.7163,-25.883]]]},"properties":{"id":214,"departamento":"GUACHIPAS","cabecera":"GUACHIPAS","provincia":"SALTA"}},
{"type":"Feature","geometry":{"type":"Polygon","coordinates":[[[-65.7995,-25.8742],[-65.7947,-25.9392],[-65.8287,-25.9735],[-65.8554,-26.0126],[-65.8803,-26.0304],[-65.9108,-26.0369],[-65.9324,-26.0488],[-65.969,-26.0581],[-66.0007,-26.0577],[-66.0553,-26.0696],[-66.1116,-26.079],[-66.1254,-26.0906],[-66.1468,-26.1177],[-66.1606,-26.1413],[-66.1423,-26.1593],[-66.1382,-26.1751],[-66.1216,-26.1883],[-66.0998,-26.2205],[-66.0714,-26.2387],[-66.047,-26.2412],[-66.033,-26.2499],[-66,-26.264],[-65.7194,-26.3528],[-65.7108,-26.34],[-65.722,-26.3095],[-65.7075,-26.299],[-65.7198,-26.2764],[-65.708,-26.2583],[-65.7034,-26.2253],[-65.7101,-26.2185],[-65.703,-26.1902],[-65.6952,-26.1859],[-65.6924,-26.1646],[-65.6996,-26.1578],[-65.6979,-26.1437],[-65.6885,-26.1173],[-65.6577,-26.1156],[-65.637,-26.0619],[-65.6193,-26.0458],[-65.6137,-26.0353],[-65.614,-25.9962],[-65.6381,-25.9887],[-65.6762,-25.9872],[-65.7074,-25.9817],[-65.723,-25.9731],[-65.7412,-25.9783],[-65.7556,-25.9677],[-65.7479,-25.9466],[-65.7316,-25.9377],[-65.7244,-25.9281],[-65.7163,-25.883],[-65.7373,-25.8772],[-65.7478,-25.8828],[-65.7584,-25.8771],[-65.7796,-25.8892],[-65.7995,-25.8742]]]},"properties":{"id":215,"departamento":"CAFAYATE","cabecera":"CAFAYATE","provincia":"SALTA"}},
{"type":"Feature","geometry":{"type":"Polygon","coordinates":[[[-66.5991,-25.1219],[-66.5999,-25.1505],[-66.5827,-25.174],[-66.5486,-25.1882],[-66.533,-25.205],[-66.5335,-25.221],[-66.5174,-25.2446],[-66.5441,-25.2688],[-66.5555,-25.2847],[-66.5593,-25.2986],[-66.5816,-25.3212],[-66.5852,-25.3406],[-66.5994,-25.3631],[-66.5896,-25.3724],[-66.5753,-25.3732],[-66.5476,-25.3689],[-66.5344,-25.3756],[-66.5331,-25.391],[-66.5245,-25.4104],[-66.5201,-25.449],[-66.5361,-25.4665],[-66.5321,-25.5006],[-66.5428,-25.5224],[-66.5366,-25.5377],[-66.548,-25.5547],[-66.5648,-25.5668],[-66.5716,-25.5856],[-66.5632,-25.6014],[-66.5639,-25.6209],[-66.6067,-25.6295],[-66.6309,-25.6592],[-66.636,-25.6878],[-66.6486,-25.712],[-66.6913,-25.7037],[-66.7594,-25.706],[-66.7893,-25.6994],[-66.8129,-25.7001],[-66.8426,-25.7125],[-66.8631,-25.7437],[-66.8709,-25.7663],[-66.851,-25.781],[-66.8476,-25.7963],[-66.8476,-25.8291],[-66.8429,-25.8805],[-66.8524,-25.9131],[-66.8438,-25.9719],[-66.8324,-25.9878],[-66.8163,-25.9799],[-66.7596,-25.9452],[-66.721,-25.9909],[-66.7067,-26.0038],[-66.6639,-25.9806],[-66.6524,-25.9668],[-66.6271,-25.9495],[-66.5972,-25.9198],[-66.5665,-25.9157],[-66.547,-25.9298],[-66.5014,-25.9497],[-66.469,-25.968],[-66.4601,-25.961],[-66.4578,-25.9381],[-66.4603,-25.898],[-66.4675,-25.876],[-66.4641,-25.8476],[-66.4569,-25.8382],[-66.4496,-25.8162],[-66.4491,-25.799],[-66.4559,-25.7709],[-66.4501,-25.7312],[-66.4424,-25.7095],[-66.398,-25.6685],[-66.3877,-25.6541],[-66.3794,-25.6147],[-66.3836,-25.5862],[-66.3792,-25.5636],[-66.3601,-25.5342],[-66.3437,-25.5259],[-66.3084,-25.5135],[-66.2374,-25.4758],[-66.2192,-25.4716],[-66.1876,-25.4714],[-66.151,-25.4493],[-66.12,-25.4465],[-66.0507,-25.4493],[-66.0328,-25.4452],[-66.0176,-25.4203],[-66.0162,-25.3863],[-66.0065,-25.3589],[-66.0023,-25.3304],[-66.0069,-25.3128],[-66.0299,-25.3052],[-66.0425,-25.305],[-66.0973,-25.2922],[-66.1097,-25.2947],[-66.1328,-25.2857],[-66.2026,-25.2465],[-66.2341,-25.2459],[-66.2569,-25.2363],[-66.2748,-25.2393],[-66.2983,-25.2325],[-66.305,-25.2229],[-66.3089,-25.1947],[-66.315,-25.1847],[-66.3205,-25.1565],[-66.3312,-25.1505],[-66.368,-25.1421],[-66.3805,-25.1415],[-66.4104,-25.1321],[-66.4226,-25.1331],[-66.4525,-25.154],[-66.4627,-25.1477],[-66.4666,-25.1252],[-66.4732,-25.1153],[-66.5042,-25.114],[-66.5411,-25.1078],[-66.571,-25.1168],[-66.5991,-25.1219]]]},"properties":{"id":216,"departamento":"MOLINOS","cabecera":"MOLINOS","provincia":"SALTA"}},
{"type":"Feature","geometry":{"type":"Polygon","coordinates":[[[-65.0841,-25.1012],[-65.0671,-25.112],[-65.0175,-25.1187],[-64.9885,-25.1298],[-64.9592,-25.1465],[-64.9152,-25.1459],[-64.9004,-25.1355],[-64.895,-25.1251],[-64.892,-25.1023],[-64.895,-25.0737],[-64.893,-25.0511],[-64.8802,-25.0383],[-64.8742,-25.0226],[-64.8476,-25.0165],[-64.833,-25.0057],[-64.8077,-24.966],[-64.8112,-24.9319],[-64.7976,-24.8937],[-64.805,-24.88],[-64.7722,-24.8531],[-64.762,-24.8386],[-64.7644,-24.8215],[-64.7788,-24.7961],[-64.7962,-24.7898],[-64.7991,-24.7738],[-64.7767,-24.7394],[-64.7589,-24.7232],[-64.727,-24.6805],[-64.717,-24.6473],[-64.6997,-24.6306],[-64.6679,-24.6066],[-64.6849,-24.5894],[-64.6838,-24.5726],[-64.7044,-24.5636],[-64.7123,-24.5554],[-64.7264,-24.5297],[-64.7365,-24.5237],[-64.7554,-24.5233],[-64.7736,-24.5025],[-64.842,-24.4674],[-64.8539,-24.4701],[-64.8621,-24.4908],[-64.886,-24.519],[-64.8842,-24.5381],[-64.8934,-24.5557],[-64.8847,-24.5688],[-64.8895,-24.5798],[-64.9054,-24.5938],[-64.9604,-24.5948],[-65.0129,-24.5771],[-65.0388,-24.5742],[-65.0633,-24.5621],[-65.0888,-24.5557],[-65.0987,-24.531],[-65.1219,-24.5133],[-65.1361,-24.5078],[-65.1447,-24.4951],[-65.1788,-24.4683],[-65.2,-24.5123],[-65.2096,-24.5454],[-65.2126,-24.5682],[-65.2112,-24.5854],[-65.2208,-24.5997],[-65.2386,-24.605],[-65.2667,-24.6073],[-65.2765,-24.6472],[-65.2654,-24.6611],[-65.243,-24.701],[-65.2187,-24.7054],[-65.218,-24.7123],[-65.2221,-24.7257],[-65.2531,-24.7225],[-65.2944,-24.7351],[-65.3007,-24.7573],[-65.3,-24.7737],[-65.2506,-24.7668],[-65.2436,-24.7751],[-65.1951,-24.7625],[-65.1562,-24.7452],[-65.0889,-24.7448],[-65.0695,-24.7596],[-65.0632,-24.7691],[-65.0308,-24.7962],[-65.0309,-24.8131],[-65.0438,-24.8513],[-65.0614,-24.8677],[-65.082,-24.8806],[-65.0897,-24.9076],[-65.0917,-24.9306],[-65.0989,-24.9464],[-65.1149,-24.9641],[-65.1073,-24.9715],[-65.0883,-24.9712],[-65.0686,-24.984],[-65.0669,-24.9953],[-65.0819,-25.0332],[-65.0885,-25.0671],[-65.0841,-25.1012]]]},"properties":{"id":217,"departamento":"GENERAL GÜEMES","cabecera":"GENERAL MARTIN M. GUEMES","provincia":"SALTA"}},
{"type":"Feature","geometry":{"type":"Polygon","coordinates":[[[-66.0069,-25.3128],[-66.0023,-25.3304],[-66.0065,-25.3589],[-66.0162,-25.3863],[-66.0176,-25.4203],[-66.0328,-25.4452],[-66.0507,-25.4493],[-66.12,-25.4465],[-66.151,-25.4493],[-66.1876,-25.4714],[-66.2192,-25.4716],[-66.2374,-25.4758],[-66.3084,-25.5135],[-66.3437,-25.5259],[-66.3601,-25.5342],[-66.3792,-25.5636],[-66.3836,-25.5862],[-66.3794,-25.6147],[-66.3877,-25.6541],[-66.398,-25.6685],[-66.4424,-25.7095],[-66.4501,-25.7312],[-66.4559,-25.7709],[-66.4491,-25.799],[-66.4496,-25.8162],[-66.4569,-25.8382],[-66.4641,-25.8476],[-66.4675,-25.876],[-66.4603,-25.898],[-66.4578,-25.9381],[-66.4601,-25.961],[-66.469,-25.968],[-66.5014,-25.9497],[-66.547,-25.9298],[-66.5665,-25.9157],[-66.5972,-25.9198],[-66.6271,-25.9495],[-66.6524,-25.9668],[-66.6639,-25.9806],[-66.7067,-26.0038],[-66.721,-25.9909],[-66.7596,-25.9452],[-66.8163,-25.9799],[-66.8324,-25.9878],[-66.8069,-26.0168],[-66.7799,-26.0353],[-66.7772,-26.0488],[-66.7597,-26.0491],[-66.7546,-26.0585],[-66.7307,-26.0649],[-66.7292,-26.0719],[-66.7044,-26.081],[-66.6609,-26.0767],[-66.6548,-26.0968],[-66.6605,-26.1071],[-66.6413,-26.1133],[-66.6259,-26.1271],[-66.6205,-26.1439],[-66.5999,-26.1468],[-66.5843,-26.161],[-66.5734,-26.1846],[-66.5774,-26.1968],[-66.5687,-26.2252],[-66.5674,-26.2487],[-66.5417,-26.2595],[-66.5272,-26.2822],[-66.5504,-26.2805],[-66.5605,-26.2964],[-66.54,-26.3522],[-66.5082,-26.3648],[-66.4892,-26.3663],[-66.4775,-26.3593],[-66.461,-26.3641],[-66.4383,-26.3813],[-66.4241,-26.3872],[-66.4137,-26.3988],[-66.382,-26.4168],[-66.3748,-26.4126],[-66.3702,-26.3898],[-66.3553,-26.3521],[-66.34,-26.3393],[-66.3303,-26.3148],[-66.3312,-26.3037],[-66.3224,-26.29],[-66.302,-26.2707],[-66.306,-26.2623],[-66.2923,-26.2294],[-66.2723,-26.2097],[-66.2666,-26.1952],[-66.2541,-26.1897],[-66.2439,-26.1772],[-66.2306,-26.1492],[-66.1963,-26.1309],[-66.1708,-26.1338],[-66.1606,-26.1413],[-66.1468,-26.1177],[-66.1254,-26.0906],[-66.1116,-26.079],[-66.0553,-26.0696],[-66.0007,-26.0577],[-65.969,-26.0581],[-65.9324,-26.0488],[-65.9108,-26.0369],[-65.8803,-26.0304],[-65.8554,-26.0126],[-65.8287,-25.9735],[-65.7947,-25.9392],[-65.7995,-25.8742],[-65.7983,-25.8311],[-65.7885,-25.8103],[-65.8596,-25.7859],[-65.8627,-25.7764],[-65.8461,-25.7455],[-65.8435,-25.7226],[-65.8374,-25.7063],[-65.8044,-25.6892],[-65.7883,-25.6715],[-65.7702,-25.6749],[-65.7581,-25.6374],[-65.7753,-25.6006],[-65.7734,-25.5895],[-65.763,-25.5833],[-65.7491,-25.5575],[-65.767,-25.5092],[-65.7785,-25.4887],[-65.7899,-25.4501],[-65.7831,-25.4104],[-65.7743,-25.3837],[-65.7924,-25.3783],[-65.7962,-25.35],[-65.8203,-25.3098],[-65.8206,-25.3005],[-65.8239,-25.2987],[-65.8311,-25.2591],[-65.8435,-25.2265],[-65.8482,-25.2041],[-65.8424,-25.1939],[-65.8551,-25.1827],[-65.866,-25.1821],[-65.864,-25.2048],[-65.8699,-25.2272],[-65.8805,-25.2412],[-65.8993,-25.2424],[-65.9337,-25.2675],[-65.9877,-25.297],[-66.0069,-25.3128]]]},"properties":{"id":218,"departamento":"SAN CARLOS","cabecera":"SAN CARLOS","provincia":"SALTA"}},
{"type":"Feature","geometry":{"type":"Polygon","coordinates":[[[-65.5712,-24.6548],[-65.5687,-24.6174],[-65.5624,-24.5773],[-65.6106,-24.567],[-65.632,-24.5552],[-65.6605,-24.5442],[-65.6851,-24.5613],[-65.7089,-24.5671],[-65.7188,-24.5608],[-65.7088,-24.5465],[-65.692,-24.5387],[-65.6795,-24.5188],[-65.6591,-24.4646],[-65.6613,-24.4067],[-65.654,-24.391],[-65.6435,-24.3826],[-65.6587,-24.3699],[-65.6561,-24.3565],[-65.6686,-24.3397],[-65.6825,-24.3066],[-65.6705,-24.2572],[-65.6731,-24.247],[-65.6973,-24.2288],[-65.6961,-24.2142],[-65.7104,-24.1965],[-65.7255,-24.1868],[-65.73,-24.1729],[-65.7257,-24.1644],[-65.7334,-24.1498],[-65.7225,-24.1197],[-65.7236,-24.1047],[-65.7349,-24.0916],[-65.7367,-24.0802],[-65.7506,-24.0748],[-65.754,-24.056],[-65.7851,-24.056],[-65.8028,-24.0345],[-65.8273,-24.019],[-65.8431,-24.019],[-65.8674,-24.0033],[-65.9171,-24.0034],[-65.9431,-24.0082],[-65.9511,-23.9998],[-65.9363,-23.9751],[-65.942,-23.9675],[-65.9602,-23.9667],[-65.9798,-23.98],[-66.0212,-24.0412],[-66.04,-24.0838],[-66.0678,-24.1067],[-66.0945,-24.1213],[-66.1096,-24.1461],[-66.106,-24.1689],[-66.126,-24.1981],[-66.1414,-24.2537],[-66.1478,-24.27],[-66.1632,-24.2947],[-66.1563,-24.3169],[-66.1584,-24.3343],[-66.1655,-24.3504],[-66.1584,-24.3721],[-66.1644,-24.3941],[-66.1651,-24.4113],[-66.1603,-24.4218],[-66.1956,-24.4498],[-66.1651,-24.4506],[-66.1516,-24.4877],[-66.1456,-24.5159],[-66.1236,-24.5507],[-66.122,-24.562],[-66.1275,-24.5783],[-66.1315,-24.5819],[-66.1346,-24.5877],[-66.1369,-24.599],[-66.1376,-24.6105],[-66.1367,-24.6335],[-66.1344,-24.6506],[-66.133,-24.6965],[-66.1159,-24.7396],[-66.1216,-24.7552],[-66.1157,-24.7569],[-66.1154,-24.7568],[-66.1079,-24.7542],[-66.0582,-24.7611],[-66.0272,-24.7572],[-65.9966,-24.7906],[-66.0044,-24.841],[-66.0012,-24.8527],[-65.9514,-24.8962],[-65.9271,-24.9362],[-65.9164,-24.9419],[-65.8975,-24.9393],[-65.8839,-24.9488],[-65.884,-24.9655],[-65.8911,-24.9938],[-65.8909,-24.9997],[-65.8909,-25.0048],[-65.8902,-25.0165],[-65.8911,-25.028],[-65.8852,-25.0505],[-65.8565,-25.0717],[-65.8312,-25.074],[-65.7999,-25.0703],[-65.7748,-25.0718],[-65.7643,-25.0781],[-65.7495,-25.0965],[-65.7378,-25.1005],[-65.7068,-25.0831],[-65.6873,-25.0472],[-65.6394,-25.0341],[-65.6105,-25.0226],[-65.5548,-25.0264],[-65.5146,-25.0429],[-65.5044,-25.0498],[-65.5074,-25.0227],[-65.505,-24.9995],[-65.514,-24.9864],[-65.5304,-24.9798],[-65.5139,-24.949],[-65.4976,-24.9316],[-65.5211,-24.9067],[-65.5123,-24.8737],[-65.5124,-24.8683],[-65.5115,-24.8623],[-65.5215,-24.8559],[-65.5348,-24.8369],[-65.5348,-24.8315],[-65.5628,-24.8202],[-65.581,-24.8059],[-65.5732,-24.7968],[-65.5823,-24.7758],[-65.5823,-24.7707],[-65.5812,-24.7416],[-65.5812,-24.7362],[-65.5803,-24.7242],[-65.5803,-24.7186],[-65.5797,-24.7018],[-65.5737,-24.6736],[-65.5751,-24.6675],[-65.5712,-24.6548]]]},"properties":{"id":219,"departamento":"ROSARIO DE LERMA","cabecera":"ROSARIO DE LEMA","provincia":"SALTA"}},
{"type":"Feature","geometry":{"type":"Polygon","coordinates":[[[-66.3844,-24.8431],[-66.3995,-24.8346],[-66.3997,-24.8344],[-66.4043,-24.8239],[-66.4043,-24.8238],[-66.4066,-24.8125],[-66.4079,-24.807],[-66.4079,-24.8069],[-66.4082,-24.7954],[-66.4079,-24.7839],[-66.4103,-24.7669],[-66.4104,-24.7667],[-66.4172,-24.751],[-66.4172,-24.7509],[-66.4178,-24.7336],[-66.4141,-24.6937],[-66.4141,-24.6936],[-66.4095,-24.6711],[-66.4094,-24.6709],[-66.3947,-24.6462],[-66.3946,-24.646],[-66.3896,-24.6121],[-66.3895,-24.6119],[-66.3785,-24.5984],[-66.3781,-24.5982],[-66.3629,-24.5888],[-66.3626,-24.5885],[-66.355,-24.5678],[-66.355,-24.5677],[-66.3593,-24.5451],[-66.3594,-24.5449],[-66.3683,-24.5237],[-66.3684,-24.5234],[-66.4036,-24.4695],[-66.4037,-24.4693],[-66.4048,-24.458],[-66.4049,-24.4579],[-66.4181,-24.4322],[-66.4182,-24.432],[-66.421,-24.4036],[-66.4212,-24.4034],[-66.445,-24.3858],[-66.4684,-24.393],[-66.4855,-24.388],[-66.4888,-24.377],[-66.4867,-24.3541],[-66.5178,-24.3254],[-66.5016,-24.289],[-66.5031,-24.2547],[-66.4997,-24.244],[-66.2318,-24.4453],[-66.2313,-24.4457],[-66.1533,-24.0139],[-66.3438,-23.9119],[-66.3609,-23.904],[-66.3606,-23.9209],[-66.3667,-23.9321],[-66.3626,-23.9492],[-66.3677,-23.9692],[-66.3629,-23.9835],[-66.3408,-23.9837],[-66.3538,-23.9987],[-66.3505,-24.02],[-66.3661,-24.0406],[-66.3705,-24.0765],[-66.3632,-24.0847],[-66.3819,-24.122],[-66.3941,-24.1275],[-66.4029,-24.1156],[-66.4179,-24.1183],[-66.414,-24.1359],[-66.4209,-24.1468],[-66.4199,-24.1609],[-66.4594,-24.172],[-66.4788,-24.1846],[-66.469,-24.1984],[-66.4834,-24.213],[-66.5001,-24.1987],[-66.5121,-24.1974],[-66.5332,-24.2075],[-66.5436,-24.2076],[-66.5488,-24.1937],[-66.5587,-24.1873],[-66.5908,-24.188],[-66.6194,-24.1818],[-66.6463,-24.1725],[-66.666,-24.1575],[-66.6786,-24.1421],[-66.7141,-24.1323],[-66.7291,-24.1192],[-66.741,-24.0926],[-66.7522,-24.0871],[-66.7752,-24.0878],[-66.7938,-24.0968],[-66.8012,-24.0945],[-66.84,-24.0681],[-66.8673,-24.009],[-66.8778,-23.9998],[-66.8861,-23.9838],[-66.8823,-23.9728],[-66.9206,-23.9719],[-66.9275,-23.9762],[-66.9518,-23.9648],[-66.9573,-23.9488],[-66.9737,-23.931],[-66.9824,-23.9071],[-66.9976,-23.885],[-67.213,-23.6949],[-67.2566,-23.8291],[-67.3226,-24.0342],[-67.4588,-24.0885],[-67.6697,-24.1712],[-67.8621,-24.2472],[-68.0436,-24.3179],[-68.2456,-24.3963],[-68.2619,-24.404],[-68.2683,-24.4346],[-68.2972,-24.4555],[-68.3063,-24.482],[-68.3134,-24.4906],[-68.3414,-24.4916],[-68.3604,-24.4889],[-68.3916,-24.4916],[-68.3953,-24.5056],[-68.4059,-24.5173],[-68.403,-24.5255],[-68.4146,-24.5433],[-68.4206,-24.563],[-68.432,-24.5781],[-68.4345,-24.606],[-68.4506,-24.6029],[-68.4566,-24.6185],[-68.4744,-24.6214],[-68.4857,-24.6023],[-68.4932,-24.5996],[-68.5029,-24.6196],[-68.4939,-24.6377],[-68.4963,-24.6747],[-68.523,-24.7092],[-68.5348,-24.7129],[-68.5441,-24.7244],[-68.5467,-24.7538],[-68.562,-24.7641],[-68.5628,-24.785],[-68.5687,-24.7937],[-68.5596,-24.8045],[-68.5478,-24.808],[-68.5331,-24.8286],[-68.5332,-24.8583],[-68.5194,-24.8742],[-68.4918,-24.877],[-68.4871,-24.8949],[-68.4719,-24.9013],[-68.4419,-24.9062],[-68.4398,-24.9189],[-68.4308,-24.9311],[-68.4274,-24.9612],[-68.4087,-24.9737],[-68.4162,-24.9965],[-68.407,-25.03],[-68.3794,-25.0411],[-68.3704,-25.0544],[-68.3575,-25.0991],[-68.3455,-25.111],[-68.41,-25.1453],[-68.4352,-25.1281],[-68.4652,-25.1309],[-68.4715,-25.1506],[-68.4874,-25.1623],[-68.5072,-25.1683],[-68.2743,-25.1937],[-68.1036,-25.2123],[-67.8646,-25.2384],[-67.6699,-25.2391],[-66.8793,-25.2417],[-66.5593,-25.2986],[-66.5555,-25.2847],[-66.5441,-25.2688],[-66.5174,-25.2446],[-66.5335,-25.221],[-66.533,-25.205],[-66.5486,-25.1882],[-66.5827,-25.174],[-66.5999,-25.1505],[-66.5991,-25.1219],[-66.5964,-25.0933],[-66.5725,-25.0531],[-66.5749,-25.0304],[-66.5896,-25.0051],[-66.5855,-24.9883],[-66.5874,-24.9654],[-66.597,-24.9445],[-66.5834,-24.9188],[-66.5695,-24.9071],[-66.5475,-24.8959],[-66.5157,-24.8682],[-66.4787,-24.8641],[-66.4641,-24.8539],[-66.4597,-24.8372],[-66.4514,-24.8286],[-66.4068,-24.8125],[-66.4046,-24.8238],[-66.4,-24.8345],[-66.3844,-24.8431]]]},"properties":{"id":420,"departamento":"LOS ANDES","cabecera":"LOS ANDES","provincia":"SALTA"}},
{"type":"Feature","geometry":{"type":"Polygon","coordinates":[[[-66.1154,-24.7568],[-66.1157,-24.7569],[-66.1216,-24.7552],[-66.1159,-24.7396],[-66.133,-24.6965],[-66.1344,-24.6506],[-66.1367,-24.6335],[-66.1376,-24.6105],[-66.1369,-24.599],[-66.1346,-24.5877],[-66.1315,-24.5819],[-66.1275,-24.5783],[-66.122,-24.562],[-66.1236,-24.5507],[-66.1456,-24.5159],[-66.1516,-24.4877],[-66.1651,-24.4506],[-66.1956,-24.4498],[-66.1603,-24.4218],[-66.1651,-24.4113],[-66.1644,-24.3941],[-66.1584,-24.3721],[-66.1655,-24.3504],[-66.1584,-24.3343],[-66.1563,-24.3169],[-66.1632,-24.2947],[-66.1478,-24.27],[-66.1414,-24.2537],[-66.126,-24.1981],[-66.106,-24.1689],[-66.1096,-24.1461],[-66.0945,-24.1213],[-66.0678,-24.1067],[-66.04,-24.0838],[-66.0212,-24.0412],[-65.9798,-23.98],[-65.9909,-23.9817],[-65.9978,-23.9606],[-66.0019,-23.9289],[-66.0138,-23.925],[-66.0159,-23.9099],[-66.0112,-23.9013],[-66.0219,-23.8617],[-66.0198,-23.8467],[-66.0102,-23.8216],[-66.0081,-23.8027],[-66.0099,-23.7747],[-65.9872,-23.5097],[-65.9991,-23.5148],[-66.0528,-23.4779],[-66.073,-23.4686],[-66.094,-23.4549],[-66.1092,-23.4373],[-66.1423,-23.4219],[-66.1717,-23.4139],[-66.1849,-23.4217],[-66.1823,-23.4352],[-66.1945,-23.4531],[-66.2067,-23.4621],[-66.2176,-23.4825],[-66.2393,-23.4932],[-66.2494,-23.5117],[-66.2615,-23.5578],[-66.2659,-23.5635],[-66.2942,-23.5732],[-66.3046,-23.5701],[-66.3176,-23.5757],[-66.3278,-23.5973],[-66.3242,-23.6067],[-66.3339,-23.6236],[-66.3302,-23.6602],[-66.3572,-23.6751],[-66.3701,-23.6953],[-66.3666,-23.7298],[-66.3769,-23.7489],[-66.3632,-23.7789],[-66.3597,-23.7933],[-66.3638,-23.8246],[-66.3789,-23.8295],[-66.3793,-23.8503],[-66.3565,-23.8813],[-66.3609,-23.904],[-66.3438,-23.9119],[-66.1533,-24.0139],[-66.2313,-24.4457],[-66.2318,-24.4453],[-66.4997,-24.244],[-66.5031,-24.2547],[-66.5016,-24.289],[-66.5178,-24.3254],[-66.4867,-24.3541],[-66.4888,-24.377],[-66.4855,-24.388],[-66.4684,-24.393],[-66.445,-24.3858],[-66.4212,-24.4034],[-66.421,-24.4036],[-66.4182,-24.432],[-66.4181,-24.4322],[-66.4049,-24.4579],[-66.4048,-24.458],[-66.4037,-24.4693],[-66.4036,-24.4695],[-66.3684,-24.5234],[-66.3683,-24.5237],[-66.3594,-24.5449],[-66.3593,-24.5451],[-66.355,-24.5677],[-66.355,-24.5678],[-66.3626,-24.5885],[-66.3629,-24.5888],[-66.3781,-24.5982],[-66.3785,-24.5984],[-66.3895,-24.6119],[-66.3896,-24.6121],[-66.3946,-24.646],[-66.3947,-24.6462],[-66.4094,-24.6709],[-66.4095,-24.6711],[-66.4141,-24.6936],[-66.4141,-24.6937],[-66.4178,-24.7336],[-66.4172,-24.7509],[-66.4172,-24.751],[-66.4104,-24.7667],[-66.4103,-24.7669],[-66.4079,-24.7839],[-66.4082,-24.7954],[-66.4079,-24.8069],[-66.4079,-24.807],[-66.4066,-24.8125],[-66.4043,-24.8238],[-66.4043,-24.8239],[-66.3997,-24.8344],[-66.3995,-24.8346],[-66.3844,-24.8431],[-66.3595,-24.8382],[-66.3199,-24.8531],[-66.3014,-24.8514],[-66.2885,-24.8524],[-66.27,-24.85],[-66.2539,-24.8572],[-66.2532,-24.88],[-66.2278,-24.9052],[-66.1956,-24.9325],[-66.1461,-24.9247],[-66.1308,-24.9146],[-66.1082,-24.9067],[-66.1019,-24.879],[-66.1015,-24.8559],[-66.0909,-24.8228],[-66.0898,-24.8114],[-66.1061,-24.7603],[-66.1154,-24.7568]]]},"properties":{"id":422,"departamento":"LA POMA","cabecera":"LA POMA","provincia":"SALTA"}},
{"type":"Feature","geometry":{"type":"Polygon","coordinates":[[[-65.218,-24.7123],[-65.2187,-24.7054],[-65.243,-24.701],[-65.2654,-24.6611],[-65.2765,-24.6472],[-65.2667,-24.6073],[-65.2386,-24.605],[-65.2208,-24.5997],[-65.2112,-24.5854],[-65.2126,-24.5682],[-65.2096,-24.5454],[-65.2,-24.5123],[-65.1788,-24.4683],[-65.1937,-24.4586],[-65.2062,-24.4582],[-65.2291,-24.469],[-65.2277,-24.4859],[-65.2971,-24.4937],[-65.3033,-24.5005],[-65.3288,-24.4999],[-65.3539,-24.4917],[-65.3586,-24.4815],[-65.3504,-24.4726],[-65.3594,-24.4615],[-65.411,-24.4573],[-65.4238,-24.4515],[-65.4347,-24.4628],[-65.447,-24.4571],[-65.4543,-24.4391],[-65.4643,-24.4306],[-65.4906,-24.4282],[-65.5045,-24.4391],[-65.5064,-24.4566],[-65.5196,-24.4472],[-65.5408,-24.4515],[-65.5713,-24.4222],[-65.6002,-24.417],[-65.6116,-24.4072],[-65.6172,-24.3882],[-65.6435,-24.3826],[-65.654,-24.391],[-65.6613,-24.4067],[-65.6591,-24.4646],[-65.6795,-24.5188],[-65.692,-24.5387],[-65.7088,-24.5465],[-65.7188,-24.5608],[-65.7089,-24.5671],[-65.6851,-24.5613],[-65.6605,-24.5442],[-65.632,-24.5552],[-65.6106,-24.567],[-65.5624,-24.5773],[-65.5687,-24.6174],[-65.5712,-24.6548],[-65.5434,-24.6635],[-65.5179,-24.68],[-65.4847,-24.6957],[-65.476,-24.704],[-65.4426,-24.7197],[-65.3937,-24.7216],[-65.3794,-24.711],[-65.3567,-24.7107],[-65.3361,-24.7239],[-65.3184,-24.7294],[-65.2865,-24.711],[-65.218,-24.7123]]]},"properties":{"id":423,"departamento":"LA CALDERA","cabecera":"LA CALDERA","provincia":"SALTA"}},
{"type":"Feature","geometry":{"type":"Polygon","coordinates":[[[-65.3395,-22.5152],[-65.3469,-22.5243],[-65.3502,-22.5399],[-65.345,-22.556],[-65.3495,-22.5746],[-65.3446,-22.5867],[-65.3507,-22.6023],[-65.3265,-22.6129],[-65.287,-22.6415],[-65.2717,-22.6482],[-65.2713,-22.6588],[-65.2841,-22.675],[-65.3049,-22.7216],[-65.2966,-22.741],[-65.3018,-22.7646],[-65.285,-22.7767],[-65.2742,-22.7901],[-65.2792,-22.8275],[-65.2754,-22.8685],[-65.2765,-22.8882],[-65.2662,-22.8982],[-65.2369,-22.9135],[-65.2197,-22.9403],[-65.193,-22.9555],[-65.1788,-22.9694],[-65.1699,-22.9845],[-65.0974,-22.987],[-65.0697,-22.9952],[-65.0403,-22.9928],[-65.0272,-23.0021],[-65.0055,-22.9982],[-64.9926,-23.0103],[-64.9809,-23.0132],[-64.9627,-23.0096],[-64.9509,-23.0128],[-64.9349,-23.004],[-64.9124,-23.0132],[-64.8892,-23.0319],[-64.8345,-23.022],[-64.7968,-23.0419],[-64.7485,-23.032],[-64.7206,-23.0434],[-64.7087,-23.0414],[-64.6947,-23.0301],[-64.6652,-23.0206],[-64.6573,-23.0281],[-64.6516,-23.0503],[-64.6398,-23.0636],[-64.6222,-23.069],[-64.5726,-23.0712],[-64.5574,-23.0624],[-64.5528,-23.005],[-64.5473,-22.9769],[-64.5354,-22.9507],[-64.5378,-22.9283],[-64.5505,-22.9039],[-64.5146,-22.881],[-64.5057,-22.8416],[-64.5276,-22.7964],[-64.5208,-22.7685],[-64.5259,-22.7171],[-64.5425,-22.6933],[-64.566,-22.6746],[-64.5659,-22.6545],[-64.596,-22.6539],[-64.6064,-22.66],[-64.6239,-22.6566],[-64.6393,-22.6471],[-64.6787,-22.6639],[-64.6929,-22.6825],[-64.6974,-22.6993],[-64.7084,-22.7132],[-64.7264,-22.721],[-64.7425,-22.7079],[-64.7352,-22.6741],[-64.7321,-22.6455],[-64.7374,-22.629],[-64.7644,-22.5838],[-64.7912,-22.5606],[-64.7921,-22.5264],[-64.832,-22.4689],[-64.8435,-22.4651],[-64.8577,-22.4816],[-64.8544,-22.5044],[-64.8375,-22.5415],[-64.8363,-22.5529],[-64.8454,-22.5803],[-64.8613,-22.5884],[-64.8921,-22.5887],[-64.9415,-22.5921],[-64.9721,-22.5963],[-64.9968,-22.5961],[-65.0294,-22.5796],[-65.0465,-22.5631],[-65.0573,-22.5576],[-65.0753,-22.5597],[-65.0869,-22.58],[-65.1075,-22.5916],[-65.1259,-22.5902],[-65.1676,-22.5803],[-65.1994,-22.5625],[-65.2395,-22.5474],[-65.2454,-22.5457],[-65.2625,-22.5389],[-65.2675,-22.5355],[-65.2769,-22.5206],[-65.2994,-22.5111],[-65.3175,-22.5108],[-65.3334,-22.5199],[-65.3395,-22.5152]]]},"properties":{"id":424,"departamento":"IRUYA","cabecera":"IRUYA","provincia":"SALTA"}},
{"type":"Feature","geometry":{"type":"Polygon","coordinates":[[[-64.5659,-22.6545],[-64.566,-22.6746],[-64.5425,-22.6933],[-64.5259,-22.7171],[-64.5208,-22.7685],[-64.5276,-22.7964],[-64.5057,-22.8416],[-64.5146,-22.881],[-64.5505,-22.9039],[-64.5378,-22.9283],[-64.5354,-22.9507],[-64.5473,-22.9769],[-64.5528,-23.005],[-64.5574,-23.0624],[-64.5726,-23.0712],[-64.6222,-23.069],[-64.6398,-23.0636],[-64.6516,-23.0503],[-64.6573,-23.0281],[-64.6652,-23.0206],[-64.6947,-23.0301],[-64.7087,-23.0414],[-64.7206,-23.0434],[-64.7485,-23.032],[-64.7968,-23.0419],[-64.8345,-23.022],[-64.8892,-23.0319],[-64.9124,-23.0132],[-64.9349,-23.004],[-64.9509,-23.0128],[-64.9627,-23.0096],[-64.9809,-23.0132],[-64.9926,-23.0103],[-65.0055,-22.9982],[-65.0272,-23.0021],[-65.0403,-22.9928],[-65.0697,-22.9952],[-65.0974,-22.987],[-65.1699,-22.9845],[-65.143,-23.002],[-65.1347,-23.0016],[-65.1226,-23.0161],[-65.1064,-23.0249],[-65.0897,-23.0261],[-65.0671,-23.0487],[-65.0695,-23.0575],[-65.0602,-23.0677],[-65.0664,-23.0893],[-65.0615,-23.1166],[-65.0709,-23.1341],[-65.0459,-23.1527],[-65.0456,-23.1626],[-65.0646,-23.197],[-65.0722,-23.2013],[-65.0718,-23.2217],[-65.0652,-23.2334],[-65.0403,-23.2251],[-65.0342,-23.2347],[-65.0346,-23.2521],[-65.0159,-23.267],[-65.0142,-23.2783],[-65.0038,-23.2877],[-64.9886,-23.2805],[-64.9644,-23.2858],[-64.9524,-23.2715],[-64.9436,-23.2715],[-64.9284,-23.301],[-64.913,-23.3105],[-64.8997,-23.3354],[-64.905,-23.3508],[-64.8924,-23.3594],[-64.9027,-23.3755],[-64.8997,-23.3882],[-64.9104,-23.402],[-64.9042,-23.4069],[-64.9069,-23.4231],[-64.8969,-23.4384],[-64.8747,-23.4439],[-64.8681,-23.4509],[-64.8741,-23.4696],[-64.8642,-23.485],[-64.8466,-23.4906],[-64.8392,-23.4856],[-64.8171,-23.4882],[-64.805,-23.495],[-64.7864,-23.4945],[-64.7604,-23.4743],[-64.7409,-23.4785],[-64.7283,-23.465],[-64.6976,-23.4603],[-64.6834,-23.4545],[-64.668,-23.4663],[-64.6539,-23.4839],[-64.6354,-23.4843],[-64.6133,-23.4918],[-64.5854,-23.5116],[-64.5538,-23.5115],[-64.5348,-23.5267],[-64.527,-23.543],[-64.5093,-23.5595],[-64.4953,-23.5677],[-64.4968,-23.5774],[-64.4875,-23.5945],[-64.4695,-23.6078],[-64.4645,-23.6228],[-64.4483,-23.6338],[-64.411,-23.6271],[-64.3934,-23.6031],[-64.3963,-23.5921],[-64.3884,-23.5836],[-64.3971,-23.5734],[-64.386,-23.5659],[-64.3797,-23.5509],[-64.3643,-23.5364],[-64.3571,-23.5179],[-64.1571,-23.518],[-64.161,-24.0706],[-64.1537,-24.0798],[-64.1543,-24.12],[-64.1508,-24.1364],[-64.1567,-24.1462],[-64.0536,-24.1569],[-63.6477,-24.1989],[-63.63,-24.0987],[-63.525,-24.115],[-63.4853,-23.943],[-63.4936,-23.9369],[-63.4398,-23.6857],[-63.4269,-23.6883],[-63.3919,-23.5402],[-63.4105,-23.5192],[-63.4401,-23.4984],[-63.4913,-23.4661],[-63.5146,-23.4581],[-63.5356,-23.4457],[-63.5644,-23.424],[-63.5892,-23.4499],[-63.6042,-23.456],[-63.6299,-23.431],[-63.6604,-23.4112],[-63.6794,-23.3887],[-63.7089,-23.3594],[-63.7402,-23.3594],[-63.7539,-23.3484],[-63.7911,-23.3466],[-63.8023,-23.3417],[-63.8291,-23.3103],[-63.8563,-23.2966],[-63.8685,-23.296],[-63.8975,-23.3046],[-63.9397,-23.2949],[-63.9565,-23.2876],[-63.9684,-23.289],[-63.9889,-23.3014],[-64.0039,-23.2874],[-63.9914,-23.27],[-64.022,-23.2532],[-64.0665,-23.2562],[-64.0908,-23.2318],[-64.1081,-23.2261],[-64.1381,-23.2337],[-64.1504,-23.234],[-64.1776,-23.2449],[-64.1906,-23.2127],[-64.2032,-23.2138],[-64.219,-23.2049],[-64.2282,-23.1901],[-64.23,-23.173],[-64.2259,-23.1622],[-64.2105,-23.157],[-64.1856,-23.1745],[-64.1747,-23.1712],[-64.1957,-23.1512],[-64.2018,-23.1176],[-64.2136,-23.121],[-64.2059,-23.0986],[-64.2133,-23.0711],[-64.2247,-23.0674],[-64.2322,-23.0768],[-64.2631,-23.028],[-64.285,-23.0182],[-64.2943,-22.9969],[-64.3209,-22.9828],[-64.3286,-22.9376],[-64.3249,-22.9333],[-64.3146,-22.9267],[-64.3164,-22.9161],[-64.3096,-22.8954],[-64.2988,-22.8817],[-64.2995,-22.8604],[-64.3165,-22.8815],[-64.3186,-22.9018],[-64.3378,-22.9193],[-64.3415,-22.8995],[-64.3333,-22.8938],[-64.3382,-22.8638],[-64.337,-22.8348],[-64.33,-22.832],[-64.3365,-22.7881],[-64.3365,-22.767],[-64.3536,-22.7294],[-64.3721,-22.7268],[-64.3851,-22.7169],[-64.3956,-22.7172],[-64.4019,-22.6924],[-64.3979,-22.6831],[-64.4153,-22.6786],[-64.4189,-22.6671],[-64.4143,-22.6561],[-64.434,-22.6488],[-64.4416,-22.6393],[-64.4308,-22.6315],[-64.4265,-22.6024],[-64.4313,-22.5975],[-64.4278,-22.5788],[-64.4146,-22.5703],[-64.4183,-22.554],[-64.4144,-22.5382],[-64.4323,-22.5218],[-64.4508,-22.519],[-64.4458,-22.5075],[-64.4609,-22.4996],[-64.4613,-22.4902],[-64.4751,-22.4882],[-64.4858,-22.4763],[-64.4753,-22.4678],[-64.4891,-22.4564],[-64.4905,-22.4419],[-64.507,-22.4588],[-64.5163,-22.4735],[-64.5153,-22.5079],[-64.5206,-22.5362],[-64.5186,-22.5591],[-64.5214,-22.5703],[-64.5434,-22.6048],[-64.5428,-22.6162],[-64.5511,-22.6438],[-64.5659,-22.6545]]]},"properties":{"id":425,"departamento":"ORAN","cabecera":"SAN RAMON DE LA NUEVA ORAN","provincia":"SALTA"}},
{"type":"Feature","geometry":{"type":"Polygon","coordinates":[[[-63.525,-24.115],[-63.63,-24.0987],[-63.6477,-24.1989],[-64.0536,-24.1569],[-64.1567,-24.1462],[-64.1624,-24.1642],[-64.162,-24.1803],[-64.1703,-24.1943],[-64.175,-24.2149],[-64.1684,-24.2255],[-64.18,-24.2636],[-64.1926,-24.2858],[-64.2076,-24.305],[-64.2167,-24.3086],[-64.2233,-24.3279],[-64.245,-24.3362],[-64.2521,-24.3484],[-64.2527,-24.3631],[-64.2885,-24.4067],[-64.2984,-24.4046],[-64.3145,-24.4246],[-64.3655,-24.4202],[-64.3901,-24.4051],[-64.4207,-24.4026],[-64.437,-24.4267],[-64.4358,-24.4409],[-64.4546,-24.4641],[-64.4767,-24.4624],[-64.4916,-24.4817],[-64.5,-24.5064],[-64.531,-24.5044],[-64.5418,-24.5172],[-64.551,-24.5596],[-64.5579,-24.5731],[-64.5858,-24.5851],[-64.5935,-24.5827],[-64.6164,-24.5946],[-64.6313,-24.6078],[-64.6489,-24.6134],[-64.6679,-24.6066],[-64.6997,-24.6306],[-64.717,-24.6473],[-64.727,-24.6805],[-64.7589,-24.7232],[-64.7767,-24.7394],[-64.7991,-24.7738],[-64.7962,-24.7898],[-64.7788,-24.7961],[-64.7644,-24.8215],[-64.762,-24.8386],[-64.7722,-24.8531],[-64.805,-24.88],[-64.7976,-24.8937],[-64.8112,-24.9319],[-64.8077,-24.966],[-64.833,-25.0057],[-64.8476,-25.0165],[-64.8742,-25.0226],[-64.8802,-25.0383],[-64.893,-25.0511],[-64.895,-25.0737],[-64.892,-25.1023],[-64.895,-25.1251],[-64.9004,-25.1355],[-64.9152,-25.1459],[-64.9592,-25.1465],[-64.9496,-25.1588],[-64.9243,-25.176],[-64.9141,-25.203],[-64.8825,-25.2525],[-64.8783,-25.2693],[-64.8762,-25.2973],[-64.8496,-25.3218],[-64.8334,-25.3308],[-64.7714,-25.3585],[-64.7462,-25.3594],[-64.7346,-25.3639],[-64.7033,-25.3682],[-64.6844,-25.3677],[-64.66,-25.3616],[-64.6286,-25.3424],[-64.5995,-25.3124],[-64.564,-25.272],[-64.515,-25.2356],[-64.4678,-25.2196],[-64.3925,-25.2117],[-64.3802,-25.2086],[-64.3653,-25.1904],[-64.3266,-25.1246],[-64.2978,-25.0943],[-64.2563,-25.0681],[-64.2137,-25.0584],[-64.2013,-25.0608],[-64.1667,-25.0856],[-64.1315,-25.1332],[-64.1051,-25.1853],[-64.0911,-25.2413],[-64.0892,-25.2929],[-64.0824,-25.315],[-64.0619,-25.344],[-64.055,-25.36],[-64.0485,-25.4114],[-64.0245,-25.4706],[-64.0104,-25.4962],[-63.9834,-25.535],[-63.9648,-25.5577],[-63.9511,-25.5697],[-63.895,-25.6387],[-63.8803,-25.6639],[-63.8784,-25.6843],[-63.6605,-25.6854],[-63.5673,-25.7095],[-63.4761,-25.7098],[-63.4225,-25.649],[-63.1139,-25.2903],[-63.1133,-25.0598],[-63.1121,-24.8672],[-63.2364,-24.8641],[-63.2328,-24.7029],[-62.9435,-24.6976],[-62.944,-24.2462],[-63.0172,-24.2149],[-63.0432,-24.3687],[-63.1616,-24.2939],[-63.1622,-24.2033],[-63.2049,-24.2028],[-63.2257,-24.3105],[-63.2938,-24.3129],[-63.2934,-24.28],[-63.3691,-24.3026],[-63.3523,-24.1509],[-63.3723,-24.1472],[-63.4029,-24.1531],[-63.4168,-24.1717],[-63.4418,-24.172],[-63.4398,-24.1281],[-63.525,-24.115]]]},"properties":{"id":427,"departamento":"ANTA","cabecera":"JOAQUIN VICTOR GONZALEZ","provincia":"SALTA"}},
{"type":"Feature","geometry":{"type":"Polygon","coordinates":[[[-65.135,-25.6147],[-65.1662,-25.6207],[-65.1735,-25.6287],[-65.1739,-25.6459],[-65.1959,-25.6737],[-65.2129,-25.6902],[-65.2405,-25.7042],[-65.2492,-25.7125],[-65.2585,-25.7338],[-65.2556,-25.7621],[-65.2598,-25.7722],[-65.277,-25.7796],[-65.2716,-25.7984],[-65.2936,-25.8496],[-65.2511,-25.8841],[-65.243,-25.9057],[-65.2385,-25.9347],[-65.2316,-25.9562],[-65.2318,-25.973],[-65.2107,-25.9947],[-65.1824,-26.0074],[-65.1641,-26.0123],[-65.1428,-26.0248],[-65.1005,-26.0366],[-65.0826,-26.0328],[-65.0827,-26.0161],[-65.0719,-26.0107],[-65.0212,-26.014],[-64.984,-26.0206],[-64.9528,-26.0151],[-64.9021,-26.0176],[-64.878,-26.0257],[-64.8754,-26.059],[-64.8837,-26.0801],[-64.9012,-26.0946],[-64.8998,-26.1322],[-64.9301,-26.1874],[-64.9624,-26.2409],[-64.983,-26.2354],[-64.9995,-26.2403],[-64.9929,-26.2813],[-64.9737,-26.2769],[-64.9585,-26.3036],[-64.9509,-26.3068],[-64.9238,-26.2922],[-64.9123,-26.2918],[-64.8979,-26.2797],[-64.8873,-26.2825],[-64.8734,-26.2749],[-64.8583,-26.253],[-64.8394,-26.2367],[-64.8189,-26.2387],[-64.7909,-26.224],[-64.7579,-26.2254],[-64.7496,-26.2369],[-64.7265,-26.2418],[-64.7155,-26.2377],[-64.692,-26.2412],[-64.678,-26.238],[-64.6621,-26.2442],[-64.6422,-26.233],[-64.6333,-26.2345],[-64.6191,-26.2257],[-64.6083,-26.2268],[-64.5801,-26.2191],[-64.5613,-26.2245],[-64.5431,-26.2202],[-64.5175,-26.2238],[-64.4951,-26.2189],[-64.4255,-26.1159],[-64.4122,-26.1135],[-64.3965,-26.0459],[-64.4036,-26.0312],[-64.2681,-25.7],[-64.2133,-25.7072],[-64.204,-25.5555],[-64.2112,-25.5411],[-64.2364,-25.5371],[-64.2774,-25.5222],[-64.3076,-25.5135],[-64.3266,-25.5141],[-64.3511,-25.52],[-64.4076,-25.5259],[-64.4498,-25.5172],[-64.4744,-25.5228],[-64.4837,-25.5305],[-64.4825,-25.5763],[-64.485,-25.6108],[-64.4943,-25.6165],[-64.5492,-25.6055],[-64.6162,-25.5884],[-64.6477,-25.5901],[-64.6749,-25.6045],[-64.6998,-25.6077],[-64.7401,-25.6242],[-64.7588,-25.6264],[-64.7862,-25.641],[-64.8229,-25.6494],[-64.8544,-25.6499],[-64.8782,-25.6428],[-64.9466,-25.6545],[-65.0133,-25.6714],[-65.026,-25.672],[-65.0556,-25.6628],[-65.0809,-25.6653],[-65.1049,-25.6586],[-65.1236,-25.6353],[-65.135,-25.6147]]]},"properties":{"id":431,"departamento":"ROSARIO DE LA FRONTERA","cabecera":"ROSARIO DE LA FRONTERA","provincia":"SALTA"}}
]}