{"type":"FeatureCollection", "features": [
{"type":"Feature","geometry":{"type":"Polygon","coordinates":[[[-68.634,-31.4987],[-68.6438,-31.4922],[-68.6501,-31.4763],[-68.6635,-31.4864],[-68.6797,-31.5216],[-68.6884,-31.5348],[-68.7017,-31.5599],[-68.6895,-31.5614],[-68.693,-31.5811],[-68.6935,-31.6014],[-68.6962,-31.6144],[-68.655,-31.6151],[-68.6327,-31.6137],[-68.6312,-31.6042],[-68.616,-31.5768],[-68.6064,-31.5635],[-68.6013,-31.564],[-68.6081,-31.5385],[-68.5965,-31.5379],[-68.5692,-31.5506],[-68.5558,-31.5546],[-68.5462,-31.5443],[-68.5494,-31.5386],[-68.5659,-31.5337],[-68.5674,-31.5158],[-68.5576,-31.5113],[-68.5556,-31.5016],[-68.5656,-31.5026],[-68.5911,-31.5011],[-68.5993,-31.5028],[-68.6223,-31.5014],[-68.634,-31.4987]]]},"properties":{"id":194,"departamento":"RIVADAVIA","cabecera":"RIVADAVIA","provincia":"SAN JUAN"}},
{"type":"Feature","geometry":{"type":"Polygon","coordinates":[[[-68.4334,-31.4919],[-68.44,-31.4923],[-68.4763,-31.4819],[-68.504,-31.4922],[-68.5111,-31.4969],[-68.5054,-31.5078],[-68.5015,-31.5332],[-68.5037,-31.5406],[-68.4792,-31.542],[-68.4718,-31.5458],[-68.4574,-31.5635],[-68.4448,-31.5658],[-68.4389,-31.5524],[-68.4282,-31.5405],[-68.4161,-31.5413],[-68.4094,-31.5263],[-68.4223,-31.5116],[-68.4334,-31.4919]]]},"properties":{"id":195,"departamento":"SANTA LUCIA","cabecera":"SANTA LUCIA","provincia":"SAN JUAN"}},
{"type":"Feature","geometry":{"type":"Polygon","coordinates":[[[-68.5462,-31.5443],[-68.5217,-31.5491],[-68.5063,-31.5448],[-68.5037,-31.5406],[-68.5015,-31.5332],[-68.5054,-31.5078],[-68.5111,-31.4969],[-68.5404,-31.4984],[-68.5556,-31.5016],[-68.5576,-31.5113],[-68.5674,-31.5158],[-68.5659,-31.5337],[-68.5494,-31.5386],[-68.5462,-31.5443]]]},"properties":{"id":196,"departamento":"CAPITAL","cabecera":"SAN JUAN","provincia":"SAN JUAN"}},
{"type":"Feature","geometry":{"type":"Polygon","coordinates":[[[-68.6501,-31.4763],[-68.6618,-31.4649],[-68.6784,-31.4709],[-68.7027,-31.4927],[-68.711,-31.4966],[-68.762,-31.4994],[-68.7901,-31.5047],[-68.8314,-31.5081],[-68.8569,-31.5081],[-68.8823,-31.5102],[-68.9078,-31.509],[-68.9332,-31.5112],[-68.9651,-31.5109],[-68.9777,-31.5125],[-68.9956,-31.5081],[-68.9989,-31.4974],[-68.9962,-31.4812],[-68.9871,-31.455],[-68.9859,-31.4386],[-68.9889,-31.4281],[-68.9976,-31.4134],[-68.9999,-31.4027],[-69.0008,-31.3647],[-69.0086,-31.356],[-69.019,-31.3496],[-69.0292,-31.3359],[-69.0382,-31.304],[-69.043,-31.2939],[-69.0572,-31.283],[-69.0638,-31.2743],[-69.0791,-31.2645],[-69.0915,-31.262],[-69.1075,-31.2532],[-69.1259,-31.2489],[-69.1386,-31.2488],[-69.1818,-31.2399],[-69.2008,-31.2409],[-69.2325,-31.2395],[-69.2349,-31.2708],[-69.239,-31.2966],[-69.2394,-31.3198],[-69.2349,-31.3325],[-69.216,-31.3523],[-69.2049,-31.38],[-69.2012,-31.4022],[-69.2029,-31.4279],[-69.216,-31.4631],[-69.2061,-31.4872],[-69.2026,-31.509],[-69.1922,-31.5321],[-69.1719,-31.5483],[-69.1548,-31.5696],[-69.1519,-31.5789],[-69.1518,-31.6054],[-69.1598,-31.6327],[-69.1633,-31.6763],[-69.1603,-31.6895],[-69.1551,-31.6989],[-69.1572,-31.7185],[-69.1451,-31.7434],[-69.131,-31.7884],[-69.115,-31.8227],[-69.1039,-31.8434],[-69.1056,-31.8727],[-69.1115,-31.896],[-68.6808,-31.8914],[-68.6758,-31.8774],[-68.6694,-31.8451],[-68.6662,-31.82],[-68.6649,-31.7517],[-68.67,-31.7116],[-68.6914,-31.6908],[-68.6964,-31.6789],[-68.6996,-31.6589],[-68.701,-31.6362],[-68.6962,-31.6144],[-68.6935,-31.6014],[-68.693,-31.5811],[-68.6895,-31.5614],[-68.7017,-31.5599],[-68.6884,-31.5348],[-68.6797,-31.5216],[-68.6635,-31.4864],[-68.6501,-31.4763]]]},"properties":{"id":192,"departamento":"ZONDA","cabecera":"VILLA BASILIO NIEVAS","provincia":"SAN JUAN"}},
{"type":"Feature","geometry":{"type":"Polygon","coordinates":[[[-68.634,-31.4987],[-68.6296,-31.495],[-68.6269,-31.4816],[-68.6055,-31.4446],[-68.6003,-31.4166],[-68.5907,-31.3836],[-68.5669,-31.3377],[-68.5559,-31.322],[-68.5475,-31.2927],[-68.5408,-31.2802],[-68.5335,-31.2454],[-68.5322,-31.2281],[-68.5325,-31.2014],[-68.5313,-31.173],[-68.5257,-31.1441],[-68.5197,-31.1217],[-68.5103,-31.0983],[-68.4966,-31.0704],[-68.4895,-31.0389],[-68.4852,-31.0275],[-68.4876,-31.0167],[-68.5038,-31.0146],[-68.6335,-31.0165],[-68.7426,-31.0166],[-68.7459,-30.979],[-68.7534,-30.9418],[-68.7517,-30.9104],[-68.7537,-30.8789],[-68.7576,-30.8669],[-68.7853,-30.8298],[-68.795,-30.8205],[-68.8004,-30.8086],[-68.7977,-30.7965],[-68.7997,-30.784],[-68.8149,-30.7627],[-68.8201,-30.7379],[-68.8218,-30.7128],[-68.8216,-30.6875],[-68.834,-30.665],[-68.8453,-30.6488],[-68.8761,-30.6139],[-68.8753,-30.595],[-68.8703,-30.5702],[-68.8773,-30.56],[-68.9112,-30.5488],[-68.9255,-30.5464],[-68.9473,-30.5458],[-68.9952,-30.5393],[-69.0684,-30.5352],[-69.0699,-30.5479],[-69.0662,-30.5745],[-69.0642,-30.6003],[-69.058,-30.6201],[-69.0576,-30.6334],[-69.1118,-30.6357],[-69.1158,-30.6398],[-69.1156,-30.6592],[-69.1068,-30.6802],[-69.1065,-30.6924],[-69.0943,-30.7135],[-69.092,-30.7334],[-69.0996,-30.7571],[-69.1044,-30.7857],[-69.1156,-30.8002],[-69.1262,-30.8199],[-69.1276,-30.8381],[-69.1262,-30.8521],[-69.1354,-30.9041],[-69.1409,-30.9166],[-69.1547,-30.9361],[-69.1662,-30.9676],[-69.1732,-30.9984],[-69.1782,-31.0088],[-69.1983,-31.0347],[-69.2139,-31.0596],[-69.2311,-31.0925],[-69.2478,-31.1645],[-69.2473,-31.1875],[-69.2361,-31.2219],[-69.2325,-31.2395],[-69.2008,-31.2409],[-69.1818,-31.2399],[-69.1386,-31.2488],[-69.1259,-31.2489],[-69.1075,-31.2532],[-69.0915,-31.262],[-69.0791,-31.2645],[-69.0638,-31.2743],[-69.0572,-31.283],[-69.043,-31.2939],[-69.0382,-31.304],[-69.0292,-31.3359],[-69.019,-31.3496],[-69.0086,-31.356],[-69.0008,-31.3647],[-68.9999,-31.4027],[-68.9976,-31.4134],[-68.9889,-31.4281],[-68.9859,-31.4386],[-68.9871,-31.455],[-68.9962,-31.4812],[-68.9989,-31.4974],[-68.9956,-31.5081],[-68.9777,-31.5125],[-68.9651,-31.5109],[-68.9332,-31.5112],[-68.9078,-31.509],[-68.8823,-31.5102],[-68.8569,-31.5081],[-68.8314,-31.5081],[-68.7901,-31.5047],[-68.762,-31.4994],[-68.711,-31.4966],[-68.7027,-31.4927],[-68.6784,-31.4709],[-68.6618,-31.4649],[-68.6501,-31.4763],[-68.6438,-31.4922],[-68.634,-31.4987]]]},"properties":{"id":189,"departamento":"ULLUM","cabecera":"VILLA IBA¥EZ","provincia":"SAN JUAN"}},
{"type":"Feature","geometry":{"type":"Polygon","coordinates":[[[-68.0259,-31.4504],[-68.0087,-31.4242],[-67.9952,-31.409],[-67.9832,-31.3999],[-67.964,-31.3816],[-67.9335,-31.3466],[-67.9145,-31.3214],[-67.897,-31.2891],[-67.8849,-31.241],[-67.8817,-31.2193],[-67.8761,-31.1952],[-67.873,-31.1595],[-67.8704,-31.1489],[-67.8479,-31.1064],[-67.8076,-31.0371],[-67.7855,-30.9959],[-67.8011,-30.9901],[-67.8283,-30.9827],[-67.8751,-30.9659],[-67.9108,-30.9432],[-67.9212,-30.933],[-67.9275,-30.9205],[-68.3353,-30.9221],[-68.3354,-31.2847],[-68.365,-31.3093],[-68.3974,-31.3386],[-68.4323,-31.3824],[-68.4445,-31.4026],[-68.4493,-31.4171],[-68.461,-31.4432],[-68.4744,-31.4516],[-68.4649,-31.4556],[-68.4499,-31.4469],[-68.4186,-31.4528],[-68.3933,-31.4549],[-68.3633,-31.4556],[-68.2727,-31.4545],[-68.0259,-31.4504]]]},"properties":{"id":190,"departamento":"ANGACO","cabecera":"EL SALVADOR","provincia":"SAN JUAN"}},
{"type":"Feature","geometry":{"type":"Polygon","coordinates":[[[-68.6223,-31.5014],[-68.6117,-31.4938],[-68.6006,-31.4904],[-68.5846,-31.48],[-68.5718,-31.4761],[-68.5476,-31.462],[-68.5361,-31.4596],[-68.5126,-31.4492],[-68.5009,-31.4484],[-68.4744,-31.4516],[-68.461,-31.4432],[-68.4493,-31.4171],[-68.4445,-31.4026],[-68.4323,-31.3824],[-68.3974,-31.3386],[-68.365,-31.3093],[-68.3354,-31.2847],[-68.3353,-30.9221],[-68.4339,-30.9223],[-68.4373,-30.9471],[-68.4537,-30.9589],[-68.4949,-30.985],[-68.4985,-30.9904],[-68.5038,-31.0146],[-68.4876,-31.0167],[-68.4852,-31.0275],[-68.4895,-31.0389],[-68.4966,-31.0704],[-68.5103,-31.0983],[-68.5197,-31.1217],[-68.5257,-31.1441],[-68.5313,-31.173],[-68.5325,-31.2014],[-68.5322,-31.2281],[-68.5335,-31.2454],[-68.5408,-31.2802],[-68.5475,-31.2927],[-68.5559,-31.322],[-68.5669,-31.3377],[-68.5907,-31.3836],[-68.6003,-31.4166],[-68.6055,-31.4446],[-68.6269,-31.4816],[-68.6296,-31.495],[-68.634,-31.4987],[-68.6223,-31.5014]]]},"properties":{"id":191,"departamento":"ALBARDON","cabecera":"VILLA GENERAL SAN MARTIN","provincia":"SAN JUAN"}},
{"type":"Feature","geometry":{"type":"Polygon","coordinates":[[[-68.5556,-31.5016],[-68.5404,-31.4984],[-68.5111,-31.4969],[-68.504,-31.4922],[-68.4763,-31.4819],[-68.44,-31.4923],[-68.4334,-31.4919],[-68.4478,-31.4695],[-68.4649,-31.4556],[-68.4744,-31.4516],[-68.5009,-31.4484],[-68.5126,-31.4492],[-68.5361,-31.4596],[-68.5476,-31.462],[-68.5718,-31.4761],[-68.5846,-31.48],[-68.6006,-31.4904],[-68.6117,-31.4938],[-68.6223,-31.5014],[-68.5993,-31.5028],[-68.5911,-31.5011],[-68.5656,-31.5026],[-68.5556,-31.5016]]]},"properties":{"id":193,"departamento":"CHIMBAS","cabecera":"CHIMBAS","provincia":"SAN JUAN"}},
{"type":"Feature","geometry":{"type":"Polygon","coordinates":[[[-68.4448,-31.5658],[-68.4435,-31.5885],[-68.4395,-31.6027],[-68.432,-31.6159],[-68.425,-31.6436],[-68.4148,-31.6744],[-68.4138,-31.6891],[-68.4078,-31.714],[-68.4031,-31.7203],[-68.3829,-31.7614],[-68.3829,-31.7788],[-68.3758,-31.7919],[-68.3669,-31.7657],[-68.3692,-31.7475],[-68.3611,-31.7268],[-68.3533,-31.7209],[-68.3439,-31.6868],[-68.3415,-31.6578],[-68.3488,-31.6406],[-68.3498,-31.6149],[-68.3556,-31.5898],[-68.3595,-31.5815],[-68.3621,-31.5653],[-68.3791,-31.5594],[-68.3878,-31.548],[-68.3932,-31.5353],[-68.4094,-31.5263],[-68.4161,-31.5413],[-68.4282,-31.5405],[-68.4389,-31.5524],[-68.4448,-31.5658]]]},"properties":{"id":197,"departamento":"9 DE JULIO","cabecera":"VILLA NUEVE DE JULIO","provincia":"SAN JUAN"}},
{"type":"Feature","geometry":{"type":"Polygon","coordinates":[[[-68.6013,-31.564],[-68.5734,-31.571],[-68.5226,-31.5864],[-68.5209,-31.5896],[-68.5251,-31.6084],[-68.5311,-31.6218],[-68.5066,-31.6313],[-68.514,-31.6429],[-68.5229,-31.6641],[-68.5236,-31.6766],[-68.5102,-31.7154],[-68.5069,-31.7328],[-68.4976,-31.7673],[-68.4941,-31.7742],[-68.4777,-31.7895],[-68.449,-31.8105],[-68.4348,-31.8234],[-68.4029,-31.8318],[-68.3937,-31.8326],[-68.3938,-31.8216],[-68.3799,-31.808],[-68.3758,-31.7919],[-68.3829,-31.7788],[-68.3829,-31.7614],[-68.4031,-31.7203],[-68.4078,-31.714],[-68.4138,-31.6891],[-68.4148,-31.6744],[-68.425,-31.6436],[-68.432,-31.6159],[-68.4395,-31.6027],[-68.4435,-31.5885],[-68.4448,-31.5658],[-68.4574,-31.5635],[-68.4718,-31.5458],[-68.4792,-31.542],[-68.5037,-31.5406],[-68.5063,-31.5448],[-68.5217,-31.5491],[-68.5462,-31.5443],[-68.5558,-31.5546],[-68.5692,-31.5506],[-68.5965,-31.5379],[-68.6081,-31.5385],[-68.6013,-31.564]]]},"properties":{"id":198,"departamento":"RAWSON","cabecera":"VILLA KRAUSE","provincia":"SAN JUAN"}},
{"type":"Feature","geometry":{"type":"Polygon","coordinates":[[[-68.6962,-31.6144],[-68.701,-31.6362],[-68.6996,-31.6589],[-68.6964,-31.6789],[-68.6914,-31.6908],[-68.67,-31.7116],[-68.6649,-31.7517],[-68.6662,-31.82],[-68.6694,-31.8451],[-68.6758,-31.8774],[-68.6808,-31.8914],[-68.553,-31.8646],[-68.4442,-31.8661],[-68.4308,-31.8733],[-68.4348,-31.8234],[-68.449,-31.8105],[-68.4777,-31.7895],[-68.4941,-31.7742],[-68.4976,-31.7673],[-68.5069,-31.7328],[-68.5102,-31.7154],[-68.5236,-31.6766],[-68.5229,-31.6641],[-68.514,-31.6429],[-68.5066,-31.6313],[-68.5311,-31.6218],[-68.5251,-31.6084],[-68.5209,-31.5896],[-68.5226,-31.5864],[-68.5734,-31.571],[-68.6013,-31.564],[-68.6064,-31.5635],[-68.616,-31.5768],[-68.6312,-31.6042],[-68.6327,-31.6137],[-68.655,-31.6151],[-68.6962,-31.6144]]]},"properties":{"id":199,"departamento":"POCITO","cabecera":"VILLA ALBERASTAIN","provincia":"SAN JUAN"}},
{"type":"Feature","geometry":{"type":"Polygon","coordinates":[[[-68.4094,-31.5263],[-68.3932,-31.5353],[-68.3878,-31.548],[-68.3791,-31.5594],[-68.3621,-31.5653],[-68.2738,-31.5718],[-67.9844,-31.6108],[-68.0259,-31.4504],[-68.2727,-31.4545],[-68.3633,-31.4556],[-68.3933,-31.4549],[-68.4186,-31.4528],[-68.4499,-31.4469],[-68.4649,-31.4556],[-68.4478,-31.4695],[-68.4334,-31.4919],[-68.4223,-31.5116],[-68.4094,-31.5263]]]},"properties":{"id":200,"departamento":"SAN MARTIN","cabecera":"VILLA SAN MARTIN","provincia":"SAN JUAN"}},
{"type":"Feature","geometry":{"type":"Polygon","coordinates":[[[-68.0259,-31.4504],[-67.9844,-31.6108],[-68.2738,-31.5718],[-68.3621,-31.5653],[-68.3595,-31.5815],[-68.3556,-31.5898],[-68.3498,-31.6149],[-68.3488,-31.6406],[-68.3415,-31.6578],[-68.3439,-31.6868],[-68.0723,-31.7414],[-67.7444,-31.8061],[-67.4858,-31.8571],[-67.4671,-31.8604],[-67.4645,-31.8593],[-67.2418,-31.8808],[-67.137,-31.8338],[-67.0782,-31.849],[-67.0502,-31.8575],[-67.006,-31.8553],[-66.8857,-31.8977],[-66.6618,-31.9205],[-66.7227,-31.8838],[-66.7684,-31.8479],[-66.792,-31.8254],[-66.8043,-31.8088],[-66.8129,-31.7911],[-66.8452,-31.7146],[-66.8752,-31.6327],[-66.9585,-31.6327],[-67.0789,-31.4329],[-67.1116,-31.4335],[-67.1407,-31.436],[-67.1664,-31.4365],[-67.2139,-31.4398],[-67.2572,-31.4463],[-67.2786,-31.4481],[-67.293,-31.4385],[-67.3303,-31.4038],[-67.3478,-31.3799],[-67.3508,-31.358],[-67.3603,-31.3376],[-67.3717,-31.3011],[-67.3838,-31.2748],[-67.3967,-31.2421],[-67.4064,-31.2288],[-67.4138,-31.2079],[-67.4139,-31.1891],[-67.4118,-31.1735],[-67.4066,-31.1552],[-67.4093,-31.1365],[-67.4134,-31.1243],[-67.4327,-31.0941],[-67.4368,-31.0822],[-67.4338,-31.073],[-67.4247,-31.0635],[-67.4252,-31.0574],[-67.4536,-31.0329],[-67.4761,-31.0227],[-67.4932,-31.0171],[-67.4937,-31.0114],[-67.4861,-31.0006],[-67.4756,-30.9919],[-67.4592,-30.9713],[-67.4605,-30.9588],[-67.4672,-30.9476],[-67.4792,-30.941],[-67.4951,-30.928],[-67.5007,-30.9174],[-67.7184,-30.9191],[-67.9275,-30.9205],[-67.9212,-30.933],[-67.9108,-30.9432],[-67.8751,-30.9659],[-67.8283,-30.9827],[-67.8011,-30.9901],[-67.7855,-30.9959],[-67.8076,-31.0371],[-67.8479,-31.1064],[-67.8704,-31.1489],[-67.873,-31.1595],[-67.8761,-31.1952],[-67.8817,-31.2193],[-67.8849,-31.241],[-67.897,-31.2891],[-67.9145,-31.3214],[-67.9335,-31.3466],[-67.964,-31.3816],[-67.9832,-31.3999],[-67.9952,-31.409],[-68.0087,-31.4242],[-68.0259,-31.4504]]]},"properties":{"id":201,"departamento":"CAUCETE","cabecera":"CAUCETE","provincia":"SAN JUAN"}},
{"type":"Feature","geometry":{"type":"Polygon","coordinates":[[[-68.5038,-31.0146],[-68.4985,-30.9904],[-68.4949,-30.985],[-68.4537,-30.9589],[-68.4373,-30.9471],[-68.4339,-30.9223],[-68.3353,-30.9221],[-67.9275,-30.9205],[-67.7184,-30.9191],[-67.5007,-30.9174],[-67.5092,-30.906],[-67.5222,-30.8951],[-67.5312,-30.8813],[-67.5596,-30.8485],[-67.5753,-30.8414],[-67.6035,-30.8057],[-67.6151,-30.7936],[-67.6244,-30.78],[-67.6342,-30.7707],[-67.6602,-30.7534],[-67.6679,-30.7468],[-67.6899,-30.7179],[-67.7083,-30.6984],[-67.7357,-30.6504],[-67.744,-30.6231],[-67.7447,-30.5916],[-67.7486,-30.5763],[-67.7502,-30.5448],[-67.7502,-30.5133],[-67.7563,-30.4987],[-67.7721,-30.4814],[-67.7935,-30.4415],[-67.8007,-30.4203],[-67.7994,-30.3827],[-67.8036,-30.3579],[-67.8284,-30.3453],[-67.8473,-30.3305],[-67.8669,-30.304],[-67.8777,-30.2841],[-67.8977,-30.2579],[-67.9131,-30.2404],[-67.9192,-30.229],[-67.9373,-30.2056],[-67.9565,-30.1972],[-67.9886,-30.1926],[-68.0057,-30.1816],[-68.0154,-30.1648],[-68.0181,-30.1557],[-68.0254,-30.1089],[-68.035,-30.0819],[-68.0474,-30.0628],[-68.063,-30.0309],[-68.0675,-30.019],[-68.0746,-30.012],[-68.0847,-29.9952],[-68.1023,-29.9795],[-68.1132,-29.9634],[-68.1297,-29.9467],[-68.1502,-29.9175],[-68.1592,-29.9278],[-68.1693,-29.9514],[-68.1748,-29.9594],[-68.2026,-29.9884],[-68.2148,-30.0077],[-68.2274,-30.0154],[-68.2377,-30.0014],[-68.2495,-29.9651],[-68.2597,-29.9416],[-68.2695,-29.9247],[-68.2793,-29.901],[-68.2909,-29.8647],[-68.3138,-29.8326],[-68.3358,-29.8076],[-68.3525,-29.794],[-68.3239,-29.7784],[-68.3161,-29.7719],[-68.2699,-29.7409],[-68.4413,-29.6505],[-68.4677,-29.6443],[-68.5202,-29.6375],[-68.5387,-29.6396],[-68.5467,-29.6375],[-68.5731,-29.6379],[-68.5917,-29.6404],[-68.6025,-29.6442],[-68.6218,-29.6456],[-68.6396,-29.639],[-68.6537,-29.6409],[-68.6686,-29.6399],[-68.6815,-29.6465],[-68.6907,-29.6383],[-68.7128,-29.6291],[-68.7355,-29.6254],[-68.7477,-29.6317],[-68.7713,-29.6312],[-68.7833,-29.6245],[-68.8047,-29.6254],[-68.8316,-29.634],[-68.8526,-29.6321],[-68.8589,-29.6355],[-68.8736,-29.6316],[-68.8873,-29.6217],[-68.8881,-29.6088],[-68.897,-29.6095],[-68.9078,-29.6198],[-68.9181,-29.6222],[-68.9331,-29.618],[-68.9364,-29.624],[-68.9341,-29.6445],[-68.9383,-29.6516],[-68.9483,-29.6505],[-68.9575,-29.6575],[-68.9634,-29.653],[-69.004,-29.6428],[-69.0158,-29.6372],[-69.0251,-29.6781],[-69.0245,-29.7254],[-69.0254,-29.7379],[-69.0314,-29.769],[-69.0369,-29.816],[-69.0449,-29.8368],[-69.0453,-29.8493],[-69.0415,-29.8901],[-69.0403,-29.9216],[-69.0342,-29.9622],[-69.0359,-29.9872],[-69.045,-30.0078],[-69.0517,-30.0151],[-69.0521,-30.0402],[-69.0384,-30.076],[-69.039,-30.1233],[-69.0493,-30.1728],[-69.0545,-30.2135],[-69.0524,-30.267],[-69.0473,-30.2853],[-69.0381,-30.2988],[-69.0329,-30.3171],[-69.0378,-30.3322],[-69.0492,-30.3443],[-69.048,-30.3589],[-69.0383,-30.3682],[-69.0353,-30.3771],[-69.0403,-30.3955],[-69.0473,-30.4095],[-69.0461,-30.4156],[-69.0343,-30.4316],[-69.0239,-30.4516],[-69.0161,-30.4791],[-69.0122,-30.5009],[-69.0047,-30.5152],[-68.9952,-30.5393],[-68.9473,-30.5458],[-68.9255,-30.5464],[-68.9112,-30.5488],[-68.8773,-30.56],[-68.8703,-30.5702],[-68.8753,-30.595],[-68.8761,-30.6139],[-68.8453,-30.6488],[-68.834,-30.665],[-68.8216,-30.6875],[-68.8218,-30.7128],[-68.8201,-30.7379],[-68.8149,-30.7627],[-68.7997,-30.784],[-68.7977,-30.7965],[-68.8004,-30.8086],[-68.795,-30.8205],[-68.7853,-30.8298],[-68.7576,-30.8669],[-68.7537,-30.8789],[-68.7517,-30.9104],[-68.7534,-30.9418],[-68.7459,-30.979],[-68.7426,-31.0166],[-68.6335,-31.0165],[-68.5038,-31.0146]]]},"properties":{"id":202,"departamento":"JACHAL","cabecera":"SAN JOSE DE JACHAL","provincia":"SAN JUAN"}},
{"type":"Feature","geometry":{"type":"Polygon","coordinates":[[[-68.3758,-31.7919],[-68.3799,-31.808],[-68.3938,-31.8216],[-68.3937,-31.8326],[-68.3901,-31.8468],[-68.3848,-31.8525],[-68.3718,-31.8558],[-68.3449,-31.8739],[-68.3444,-31.8879],[-68.3319,-31.912],[-68.3084,-31.9426],[-68.3001,-31.9633],[-68.2857,-31.9767],[-68.2807,-31.9945],[-68.2792,-32.0338],[-68.2946,-32.0556],[-68.3037,-32.0646],[-68.3166,-32.0875],[-68.3279,-32.0982],[-68.3294,-32.113],[-68.3135,-32.1247],[-68.3173,-32.1377],[-68.3041,-32.1377],[-68.2479,-32.0915],[-68.2257,-32.1083],[-68.2172,-32.1106],[-68.2069,-32.1211],[-68.1983,-32.1198],[-68.1866,-32.1129],[-68.1759,-32.1192],[-68.1676,-32.1131],[-68.1511,-32.119],[-68.1374,-32.1071],[-68.1238,-32.1057],[-68.0977,-32.0927],[-68.0858,-32.0916],[-68.081,-32.086],[-68.0727,-32.0985],[-68.065,-32.09],[-68.066,-32.0795],[-68.0598,-32.0747],[-68.049,-32.08],[-68.0335,-32.076],[-68.023,-32.0871],[-68.0044,-32.0804],[-67.9887,-32.0934],[-67.9822,-32.0887],[-67.9569,-32.0931],[-67.953,-32.1001],[-67.9583,-32.1151],[-67.9342,-32.1194],[-67.9355,-32.1397],[-67.9233,-32.1479],[-67.9278,-32.1542],[-67.9172,-32.167],[-67.9176,-32.1731],[-67.9052,-32.1726],[-67.8969,-32.1802],[-67.8842,-32.1809],[-67.87,-32.1897],[-67.8748,-32.1972],[-67.8646,-32.202],[-67.8584,-32.2112],[-67.8355,-32.2162],[-67.8312,-32.226],[-67.8083,-32.2269],[-67.7965,-32.2204],[-67.7769,-32.2353],[-67.7574,-32.2268],[-67.7511,-32.2295],[-67.742,-32.2237],[-67.7331,-32.2244],[-67.724,-32.2421],[-67.7132,-32.2457],[-67.7075,-32.238],[-67.6969,-32.2333],[-67.6872,-32.2381],[-67.6751,-32.2339],[-67.6684,-32.2268],[-67.6615,-32.2343],[-67.6482,-32.2396],[-67.6303,-32.2391],[-67.6202,-32.2419],[-67.613,-32.2345],[-67.6047,-32.2329],[-67.6023,-32.2406],[-67.5945,-32.2464],[-67.5795,-32.2372],[-67.5445,-32.2395],[-67.5381,-32.23],[-67.5268,-32.2228],[-67.5089,-32.2439],[-67.5003,-32.2391],[-67.4981,-32.2501],[-67.4857,-32.2631],[-67.488,-32.2715],[-67.4812,-32.2836],[-67.4821,-32.2936],[-67.4707,-32.3079],[-67.4642,-32.3061],[-67.4455,-32.3192],[-67.424,-32.3278],[-67.411,-32.3272],[-67.3964,-32.3329],[-67.3817,-32.3305],[-67.3652,-32.3418],[-67.3552,-32.3522],[-67.3417,-32.3492],[-67.3313,-32.3509],[-67.3296,-32.3588],[-67.2655,-32.3598],[-67.2665,-32.3393],[-67.2782,-32.2923],[-67.3706,-32.2463],[-67.4301,-32.1994],[-67.4534,-32.1561],[-67.4715,-32.133],[-67.4761,-32.1186],[-67.4703,-32.0926],[-67.4639,-32.0828],[-67.4617,-32.0681],[-67.4526,-32.0569],[-67.4458,-32.036],[-67.4459,-32.0133],[-67.44,-32.0047],[-67.4395,-31.9828],[-67.4415,-31.9663],[-67.438,-31.9415],[-67.4513,-31.8928],[-67.4637,-31.8702],[-67.4671,-31.8604],[-67.4858,-31.8571],[-67.7444,-31.8061],[-68.0723,-31.7414],[-68.3439,-31.6868],[-68.3533,-31.7209],[-68.3611,-31.7268],[-68.3692,-31.7475],[-68.3669,-31.7657],[-68.3758,-31.7919]]]},"properties":{"id":203,"departamento":"25 DE MAYO","cabecera":"VILLA SANTA ROSA","provincia":"SAN JUAN"}},
{"type":"Feature","geometry":{"type":"Polygon","coordinates":[[[-69.2325,-31.2395],[-69.2361,-31.2219],[-69.2473,-31.1875],[-69.2478,-31.1645],[-69.2311,-31.0925],[-69.2139,-31.0596],[-69.1983,-31.0347],[-69.1782,-31.0088],[-69.1732,-30.9984],[-69.1662,-30.9676],[-69.1547,-30.9361],[-69.1409,-30.9166],[-69.1354,-30.9041],[-69.1262,-30.8521],[-69.1276,-30.8381],[-69.1262,-30.8199],[-69.1156,-30.8002],[-69.1044,-30.7857],[-69.1315,-30.7783],[-69.1818,-30.7707],[-69.2145,-30.7697],[-69.2466,-30.7646],[-69.2867,-30.7645],[-69.3432,-30.7427],[-69.3589,-30.7347],[-69.3959,-30.7045],[-69.4044,-30.6943],[-69.4239,-30.6859],[-69.4493,-30.6852],[-69.5313,-30.6711],[-69.555,-30.6786],[-69.5731,-30.6784],[-69.6003,-30.6696],[-69.6303,-30.6518],[-69.6535,-30.632],[-69.6779,-30.6254],[-69.707,-30.6275],[-69.72,-30.617],[-69.72,-30.6047],[-69.7382,-30.5635],[-69.7459,-30.5528],[-69.7692,-30.5287],[-69.7794,-30.512],[-69.7819,-30.4996],[-69.7801,-30.4871],[-69.7809,-30.462],[-69.7856,-30.4436],[-69.7985,-30.4285],[-69.8178,-30.42],[-69.8205,-30.418],[-69.8345,-30.4077],[-69.8415,-30.3968],[-69.845,-30.375],[-69.8571,-30.342],[-69.8485,-30.3213],[-69.8475,-30.2995],[-69.8548,-30.2887],[-69.8736,-30.2741],[-69.8833,-30.2689],[-69.8932,-30.2722],[-69.8976,-30.281],[-69.8941,-30.2887],[-69.9007,-30.3091],[-69.9075,-30.318],[-69.9042,-30.3257],[-69.9031,-30.3431],[-69.8943,-30.3478],[-69.8978,-30.3558],[-69.9146,-30.3506],[-69.9352,-30.3589],[-69.9456,-30.3782],[-69.9551,-30.3857],[-69.9705,-30.3845],[-69.988,-30.3786],[-69.9948,-30.3791],[-70.0034,-30.3877],[-70.0194,-30.3969],[-70.0315,-30.3919],[-70.0512,-30.3885],[-70.0613,-30.3945],[-70.068,-30.3928],[-70.0799,-30.3742],[-70.091,-30.3713],[-70.1025,-30.3645],[-70.1056,-30.3503],[-70.1356,-30.3391],[-70.1477,-30.3398],[-70.1539,-30.3457],[-70.1546,-30.3597],[-70.1432,-30.3695],[-70.1401,-30.383],[-70.1352,-30.3887],[-70.1328,-30.4006],[-70.1237,-30.4074],[-70.117,-30.4311],[-70.1235,-30.4355],[-70.1312,-30.4531],[-70.1492,-30.4618],[-70.1793,-30.482],[-70.1939,-30.4898],[-70.1883,-30.5033],[-70.1802,-30.5109],[-70.1848,-30.522],[-70.1922,-30.5278],[-70.1904,-30.5335],[-70.1966,-30.5402],[-70.1916,-30.5515],[-70.2074,-30.5589],[-70.2067,-30.5688],[-70.221,-30.5826],[-70.2205,-30.5948],[-70.2262,-30.607],[-70.238,-30.6131],[-70.2395,-30.6256],[-70.2466,-30.6342],[-70.25,-30.6474],[-70.2501,-30.6619],[-70.2399,-30.6659],[-70.2436,-30.6749],[-70.2534,-30.6783],[-70.2591,-30.7001],[-70.2566,-30.7137],[-70.2461,-30.729],[-70.2643,-30.7396],[-70.2738,-30.7566],[-70.2733,-30.7815],[-70.288,-30.787],[-70.2908,-30.8],[-70.2773,-30.8101],[-70.2826,-30.839],[-70.291,-30.8412],[-70.2947,-30.8552],[-70.3035,-30.8722],[-70.3054,-30.8961],[-70.3117,-30.9032],[-70.3148,-30.9169],[-70.3215,-30.9319],[-70.3145,-30.9386],[-70.3127,-30.9534],[-70.298,-30.9603],[-70.292,-30.9683],[-70.2924,-30.975],[-70.3017,-30.9942],[-70.2966,-30.9962],[-70.2939,-31.0131],[-70.2977,-31.0199],[-70.2895,-31.0241],[-70.2778,-31.0212],[-70.2709,-31.0293],[-70.2691,-31.0429],[-70.2752,-31.0476],[-70.2869,-31.0442],[-70.2975,-31.0471],[-70.3211,-31.0432],[-70.3284,-31.0624],[-70.3401,-31.0689],[-70.3399,-31.0753],[-70.3473,-31.0808],[-70.3517,-31.0898],[-70.3668,-31.1065],[-70.3682,-31.1155],[-70.362,-31.1199],[-70.3654,-31.1419],[-70.3772,-31.1536],[-70.3861,-31.1537],[-70.3968,-31.1654],[-70.4082,-31.166],[-70.4133,-31.1572],[-70.4108,-31.1494],[-70.4165,-31.1335],[-70.4244,-31.1277],[-70.4323,-31.1017],[-70.4391,-31.0946],[-70.4565,-31.0843],[-70.4649,-31.1032],[-70.4779,-31.1159],[-70.4857,-31.1159],[-70.4977,-31.1222],[-70.4953,-31.132],[-70.4994,-31.142],[-70.5077,-31.1457],[-70.5083,-31.1539],[-70.5165,-31.1663],[-70.524,-31.1901],[-70.5135,-31.1966],[-70.5202,-31.2195],[-70.5164,-31.2339],[-70.5251,-31.2377],[-70.5318,-31.2467],[-70.526,-31.2505],[-70.5273,-31.2797],[-70.5353,-31.2893],[-70.5388,-31.301],[-70.545,-31.3071],[-70.5428,-31.3437],[-70.5329,-31.3506],[-70.5326,-31.362],[-70.5277,-31.3666],[-70.5303,-31.3753],[-70.5398,-31.3859],[-70.5341,-31.4087],[-70.5502,-31.4077],[-70.5605,-31.4196],[-70.5484,-31.4346],[-70.5525,-31.442],[-70.5513,-31.4539],[-70.5633,-31.461],[-70.5695,-31.476],[-70.5623,-31.4814],[-70.5671,-31.5004],[-70.5523,-31.5112],[-70.5577,-31.5194],[-70.5563,-31.5313],[-70.5583,-31.5476],[-70.5627,-31.561],[-70.5584,-31.5748],[-70.5673,-31.5834],[-70.5617,-31.5946],[-70.5674,-31.6001],[-70.5477,-31.6061],[-70.5318,-31.638],[-70.5068,-31.6523],[-70.5038,-31.6597],[-70.5103,-31.6639],[-70.5125,-31.6782],[-70.5102,-31.6909],[-70.5005,-31.6938],[-70.4871,-31.6897],[-70.4697,-31.6968],[-70.466,-31.7192],[-70.458,-31.7329],[-70.4623,-31.7443],[-70.4685,-31.7496],[-70.4677,-31.7741],[-70.4635,-31.7794],[-70.463,-31.7908],[-70.4565,-31.7962],[-70.46,-31.8057],[-70.451,-31.81],[-70.4595,-31.8286],[-70.4608,-31.8413],[-70.4474,-31.8523],[-70.4401,-31.8506],[-70.4273,-31.8539],[-70.4216,-31.861],[-70.4073,-31.8683],[-70.4034,-31.8742],[-70.3919,-31.8796],[-70.3638,-31.8806],[-70.3473,-31.8904],[-70.3434,-31.8864],[-70.3171,-31.8807],[-70.3075,-31.8846],[-70.2801,-31.8841],[-70.2721,-31.8906],[-70.269,-31.9029],[-70.2636,-31.9109],[-70.2402,-31.9182],[-70.2324,-31.9254],[-70.2222,-31.9478],[-70.2143,-31.9518],[-70.2093,-31.9604],[-70.2083,-31.9782],[-70.2269,-31.981],[-70.2354,-31.9901],[-70.249,-31.9924],[-70.2482,-32.0231],[-70.2578,-32.0261],[-70.2623,-32.0369],[-70.2709,-32.0346],[-70.2834,-32.0383],[-70.289,-32.052],[-70.3048,-32.0477],[-70.3211,-32.0505],[-70.3439,-32.0426],[-70.3512,-32.0263],[-70.3773,-32.0253],[-70.3882,-32.0454],[-70.374,-32.055],[-70.3583,-32.058],[-70.3353,-32.0704],[-70.3351,-32.0771],[-70.3494,-32.0911],[-70.3382,-32.1029],[-70.3417,-32.1086],[-70.3291,-32.1226],[-70.3073,-32.1335],[-70.3036,-32.1394],[-70.3144,-32.1494],[-70.3169,-32.1608],[-70.3136,-32.1731],[-70.3173,-32.177],[-70.3074,-32.1873],[-70.3092,-32.1966],[-70.3011,-32.2073],[-70.3109,-32.2221],[-70.306,-32.2333],[-70.3178,-32.2513],[-70.3233,-32.2665],[-70.3193,-32.2729],[-70.2964,-32.278],[-70.2929,-32.2872],[-70.2841,-32.2925],[-70.2714,-32.2937],[-70.2645,-32.2909],[-70.2585,-32.3028],[-70.2502,-32.3049],[-70.2411,-32.3169],[-70.2227,-32.3246],[-70.2176,-32.3354],[-70.219,-32.3445],[-70.2277,-32.3539],[-70.2259,-32.3713],[-70.2168,-32.3821],[-70.2219,-32.39],[-70.2295,-32.3904],[-70.2383,-32.4054],[-70.2351,-32.4137],[-70.2363,-32.4291],[-70.2179,-32.4284],[-70.213,-32.4384],[-70.1989,-32.4422],[-70.1922,-32.45],[-70.1836,-32.4494],[-70.1664,-32.4547],[-70.1593,-32.4625],[-70.1481,-32.4658],[-70.1405,-32.4851],[-70.1347,-32.4918],[-70.1408,-32.4986],[-70.134,-32.5103],[-70.13,-32.5255],[-70.1234,-32.5352],[-70.1278,-32.5536],[-70.125,-32.5761],[-70.1113,-32.5898],[-70.1036,-32.5903],[-70.0913,-32.6022],[-70.0913,-32.6192],[-70.0876,-32.623],[-70.0662,-32.6258],[-70.0606,-32.6173],[-70.0457,-32.6052],[-70.0417,-32.5851],[-70.0258,-32.5788],[-70.0257,-32.5599],[-70.0042,-32.5283],[-69.9843,-32.5311],[-69.9643,-32.5458],[-69.9468,-32.5409],[-69.9305,-32.5414],[-69.9061,-32.5539],[-69.9015,-32.561],[-69.8588,-32.5626],[-69.8473,-32.5706],[-69.8351,-32.5679],[-69.8274,-32.5627],[-69.8295,-32.5516],[-69.8216,-32.544],[-69.7926,-32.5474],[-69.7709,-32.5312],[-69.7654,-32.5158],[-69.7561,-32.5094],[-69.7437,-32.5094],[-69.7352,-32.5018],[-69.723,-32.4963],[-69.705,-32.4964],[-69.7028,-32.4756],[-69.6943,-32.4578],[-69.6989,-32.4436],[-69.689,-32.4371],[-69.6903,-32.423],[-69.7041,-32.4036],[-69.7106,-32.4034],[-69.7332,-32.3906],[-69.7332,-32.3791],[-69.7274,-32.3668],[-69.7267,-32.3561],[-69.7308,-32.3415],[-69.7239,-32.3166],[-69.7091,-32.3099],[-69.6963,-32.3097],[-69.6808,-32.3035],[-69.6745,-32.2899],[-69.6674,-32.287],[-69.6508,-32.269],[-69.6445,-32.2686],[-69.631,-32.26],[-69.6313,-32.2518],[-69.6256,-32.2391],[-69.6183,-32.2373],[-69.6135,-32.2165],[-69.6034,-32.2086],[-69.6099,-32.2021],[-69.6057,-32.1839],[-69.5982,-32.1727],[-69.5959,-32.1624],[-69.5985,-32.1454],[-69.5861,-32.1346],[-69.579,-32.1368],[-69.5608,-32.1294],[-69.5606,-32.1383],[-69.5445,-32.1413],[-69.5311,-32.141],[-69.5226,-32.1332],[-69.512,-32.1295],[-69.4947,-32.1144],[-69.4771,-32.1104],[-69.4713,-32.0906],[-69.4548,-32.0747],[-69.4339,-32.0763],[-69.4237,-32.0683],[-69.4157,-32.0665],[-69.407,-32.073],[-69.3904,-32.0768],[-69.3831,-32.0646],[-69.3449,-32.0827],[-69.3142,-32.0911],[-69.3056,-32.0791],[-69.2942,-32.0712],[-69.2807,-32.0729],[-69.2674,-32.0556],[-69.2624,-32.0332],[-69.2445,-32.0161],[-69.2177,-32.0077],[-69.211,-32.0094],[-69.1983,-32.0029],[-69.184,-31.9994],[-69.1284,-31.9994],[-69.1181,-32.0016],[-69.1253,-31.9918],[-69.1266,-31.9817],[-69.1191,-31.9677],[-69.1192,-31.9556],[-69.1154,-31.9438],[-69.1174,-31.9181],[-69.1115,-31.896],[-69.1056,-31.8727],[-69.1039,-31.8434],[-69.115,-31.8227],[-69.131,-31.7884],[-69.1451,-31.7434],[-69.1572,-31.7185],[-69.1551,-31.6989],[-69.1603,-31.6895],[-69.1633,-31.6763],[-69.1598,-31.6327],[-69.1518,-31.6054],[-69.1519,-31.5789],[-69.1548,-31.5696],[-69.1719,-31.5483],[-69.1922,-31.5321],[-69.2026,-31.509],[-69.2061,-31.4872],[-69.216,-31.4631],[-69.2029,-31.4279],[-69.2012,-31.4022],[-69.2049,-31.38],[-69.216,-31.3523],[-69.2349,-31.3325],[-69.2394,-31.3198],[-69.239,-31.2966],[-69.2349,-31.2708],[-69.2325,-31.2395]]]},"properties":{"id":301,"departamento":"CALINGASTA","cabecera":"TAMBERIAS","provincia":"SAN JUAN"}},
{"type":"Feature","geometry":{"type":"Polygon","coordinates":[[[-69.1115,-31.896],[-69.1174,-31.9181],[-69.1154,-31.9438],[-69.1192,-31.9556],[-69.1191,-31.9677],[-69.1266,-31.9817],[-69.1253,-31.9918],[-69.1181,-32.0016],[-69.1147,-32.0081],[-69.1165,-32.0199],[-69.1025,-32.0304],[-69.0937,-32.0315],[-69.0854,-32.0439],[-69.0862,-32.0524],[-69.0709,-32.0612],[-69.0645,-32.0744],[-69.0515,-32.0835],[-69.0444,-32.085],[-69.0275,-32.095],[-69.0177,-32.1109],[-69.0116,-32.1165],[-68.9969,-32.1177],[-68.9839,-32.113],[-68.9568,-32.1089],[-68.9176,-32.1146],[-68.9176,-32.338],[-68.6657,-32.3371],[-68.4629,-32.2377],[-68.463,-32.1378],[-68.3173,-32.1377],[-68.3135,-32.1247],[-68.3294,-32.113],[-68.3279,-32.0982],[-68.3166,-32.0875],[-68.3037,-32.0646],[-68.2946,-32.0556],[-68.2792,-32.0338],[-68.2807,-31.9945],[-68.2857,-31.9767],[-68.3001,-31.9633],[-68.3084,-31.9426],[-68.3319,-31.912],[-68.3444,-31.8879],[-68.3449,-31.8739],[-68.3718,-31.8558],[-68.3848,-31.8525],[-68.3901,-31.8468],[-68.3937,-31.8326],[-68.4029,-31.8318],[-68.4348,-31.8234],[-68.4308,-31.8733],[-68.4442,-31.8661],[-68.553,-31.8646],[-68.6808,-31.8914],[-69.1115,-31.896]]]},"properties":{"id":436,"departamento":"SARMIENTO","cabecera":"VILLA MEDIA AGUA","provincia":"SAN JUAN"}},
{"type":"Feature","geometry":{"type":"Polygon","coordinates":[[[-67.0789,-31.4329],[-67.1091,-31.3828],[-67.0753,-31.2274],[-67.1257,-31.1607],[-67.0922,-31.0608],[-67.1039,-31.0251],[-67.1124,-31.0106],[-67.1041,-30.9751],[-67.0851,-30.9201],[-67.0853,-30.9142],[-67.102,-30.9082],[-67.1141,-30.9002],[-67.125,-30.8975],[-67.1426,-30.8797],[-67.1576,-30.8576],[-67.1705,-30.848],[-67.1876,-30.8285],[-67.1971,-30.8135],[-67.2206,-30.7692],[-67.253,-30.7368],[-67.2614,-30.7231],[-67.2828,-30.6953],[-67.2989,-30.6815],[-67.3135,-30.6739],[-67.3552,-30.6574],[-67.3867,-30.6429],[-67.3982,-30.6327],[-67.4101,-30.6275],[-67.4245,-30.6143],[-67.4309,-30.5986],[-67.4463,-30.578],[-67.4599,-30.5654],[-67.4849,-30.548],[-67.4948,-30.5363],[-67.577,-30.4062],[-67.5797,-30.3954],[-67.5767,-30.3789],[-67.5868,-30.3462],[-67.5859,-30.3413],[-67.5917,-30.3263],[-67.5909,-30.2981],[-67.6064,-30.293],[-67.6112,-30.2859],[-67.6312,-30.2707],[-67.635,-30.2641],[-67.6477,-30.2557],[-67.663,-30.2421],[-67.6787,-30.2313],[-67.6863,-30.2149],[-67.8163,-30.1272],[-67.8174,-30.1214],[-67.8413,-30.1077],[-67.857,-30.1005],[-67.8701,-30.0898],[-67.8727,-30.0795],[-67.8856,-30.0735],[-67.8877,-30.0798],[-67.9053,-30.0672],[-67.9043,-30.0603],[-67.9293,-30.0363],[-67.9305,-30.0302],[-67.9413,-30.0259],[-67.9592,-30.0106],[-67.9684,-30.0093],[-67.9796,-29.9949],[-67.9901,-29.9881],[-67.9915,-29.9801],[-67.9982,-29.9757],[-68.013,-29.9494],[-68.0134,-29.9443],[-68.0241,-29.9374],[-68.0455,-29.908],[-68.053,-29.9013],[-68.0687,-29.8958],[-68.0724,-29.8914],[-68.0917,-29.8895],[-68.1052,-29.8842],[-68.1396,-29.8845],[-68.1503,-29.8881],[-68.1596,-29.8843],[-68.1656,-29.8734],[-68.1634,-29.8651],[-68.1769,-29.8586],[-68.1844,-29.8481],[-68.1841,-29.8265],[-68.1822,-29.8226],[-68.1859,-29.8008],[-68.1926,-29.7866],[-68.199,-29.7811],[-68.2221,-29.7843],[-68.2323,-29.7788],[-68.2538,-29.7807],[-68.2586,-29.7648],[-68.2678,-29.7586],[-68.2585,-29.7469],[-68.2699,-29.7409],[-68.3161,-29.7719],[-68.3239,-29.7784],[-68.3525,-29.794],[-68.3358,-29.8076],[-68.3138,-29.8326],[-68.2909,-29.8647],[-68.2793,-29.901],[-68.2695,-29.9247],[-68.2597,-29.9416],[-68.2495,-29.9651],[-68.2377,-30.0014],[-68.2274,-30.0154],[-68.2148,-30.0077],[-68.2026,-29.9884],[-68.1748,-29.9594],[-68.1693,-29.9514],[-68.1592,-29.9278],[-68.1502,-29.9175],[-68.1297,-29.9467],[-68.1132,-29.9634],[-68.1023,-29.9795],[-68.0847,-29.9952],[-68.0746,-30.012],[-68.0675,-30.019],[-68.063,-30.0309],[-68.0474,-30.0628],[-68.035,-30.0819],[-68.0254,-30.1089],[-68.0181,-30.1557],[-68.0154,-30.1648],[-68.0057,-30.1816],[-67.9886,-30.1926],[-67.9565,-30.1972],[-67.9373,-30.2056],[-67.9192,-30.229],[-67.9131,-30.2404],[-67.8977,-30.2579],[-67.8777,-30.2841],[-67.8669,-30.304],[-67.8473,-30.3305],[-67.8284,-30.3453],[-67.8036,-30.3579],[-67.7994,-30.3827],[-67.8007,-30.4203],[-67.7935,-30.4415],[-67.7721,-30.4814],[-67.7563,-30.4987],[-67.7502,-30.5133],[-67.7502,-30.5448],[-67.7486,-30.5763],[-67.7447,-30.5916],[-67.744,-30.6231],[-67.7357,-30.6504],[-67.7083,-30.6984],[-67.6899,-30.7179],[-67.6679,-30.7468],[-67.6602,-30.7534],[-67.6342,-30.7707],[-67.6244,-30.78],[-67.6151,-30.7936],[-67.6035,-30.8057],[-67.5753,-30.8414],[-67.5596,-30.8485],[-67.5312,-30.8813],[-67.5222,-30.8951],[-67.5092,-30.906],[-67.5007,-30.9174],[-67.4951,-30.928],[-67.4792,-30.941],[-67.4672,-30.9476],[-67.4605,-30.9588],[-67.4592,-30.9713],[-67.4756,-30.9919],[-67.4861,-31.0006],[-67.4937,-31.0114],[-67.4932,-31.0171],[-67.4761,-31.0227],[-67.4536,-31.0329],[-67.4252,-31.0574],[-67.4247,-31.0635],[-67.4338,-31.073],[-67.4368,-31.0822],[-67.4327,-31.0941],[-67.4134,-31.1243],[-67.4093,-31.1365],[-67.4066,-31.1552],[-67.4118,-31.1735],[-67.4139,-31.1891],[-67.4138,-31.2079],[-67.4064,-31.2288],[-67.3967,-31.2421],[-67.3838,-31.2748],[-67.3717,-31.3011],[-67.3603,-31.3376],[-67.3508,-31.358],[-67.3478,-31.3799],[-67.3303,-31.4038],[-67.293,-31.4385],[-67.2786,-31.4481],[-67.2572,-31.4463],[-67.2139,-31.4398],[-67.1664,-31.4365],[-67.1407,-31.436],[-67.1116,-31.4335],[-67.0789,-31.4329]]]},"properties":{"id":434,"departamento":"VALLE FERTIL","cabecera":"VILLA SAN AGUSTIN","provincia":"SAN JUAN"}},
{"type":"Feature","geometry":{"type":"Polygon","coordinates":[[[-68.9952,-30.5393],[-69.0047,-30.5152],[-69.0122,-30.5009],[-69.0161,-30.4791],[-69.0239,-30.4516],[-69.0343,-30.4316],[-69.0461,-30.4156],[-69.0473,-30.4095],[-69.0403,-30.3955],[-69.0353,-30.3771],[-69.0383,-30.3682],[-69.048,-30.3589],[-69.0492,-30.3443],[-69.0378,-30.3322],[-69.0329,-30.3171],[-69.0381,-30.2988],[-69.0473,-30.2853],[-69.0524,-30.267],[-69.0545,-30.2135],[-69.0493,-30.1728],[-69.039,-30.1233],[-69.0384,-30.076],[-69.0521,-30.0402],[-69.0517,-30.0151],[-69.045,-30.0078],[-69.0359,-29.9872],[-69.0342,-29.9622],[-69.0403,-29.9216],[-69.0415,-29.8901],[-69.0453,-29.8493],[-69.0449,-29.8368],[-69.0369,-29.816],[-69.0314,-29.769],[-69.0254,-29.7379],[-69.0245,-29.7254],[-69.0251,-29.6781],[-69.0158,-29.6372],[-69.0202,-29.6318],[-69.0192,-29.6209],[-69.0234,-29.6055],[-69.0231,-29.5936],[-69.0319,-29.5846],[-69.0343,-29.5589],[-69.0294,-29.5425],[-69.0337,-29.533],[-69.0313,-29.5237],[-69.0232,-29.5155],[-69.009,-29.4953],[-69.0081,-29.4867],[-69.0014,-29.4787],[-68.9986,-29.4658],[-68.9898,-29.4781],[-68.9846,-29.4743],[-68.9826,-29.4641],[-68.9752,-29.4565],[-68.9741,-29.4424],[-68.9802,-29.4226],[-68.9967,-29.4152],[-69.0024,-29.4019],[-68.9879,-29.375],[-68.9746,-29.3642],[-68.9761,-29.3538],[-68.9814,-29.3464],[-68.9855,-29.3285],[-68.9734,-29.3154],[-68.9623,-29.3111],[-68.9609,-29.2903],[-68.9582,-29.2849],[-68.9696,-29.2784],[-68.9789,-29.2792],[-68.9891,-29.274],[-68.9922,-29.2531],[-68.9791,-29.2305],[-68.9895,-29.2183],[-68.9939,-29.2087],[-68.9941,-29.1987],[-69.0009,-29.1899],[-68.9933,-29.1755],[-68.9784,-29.1623],[-68.9752,-29.1499],[-68.963,-29.1499],[-68.9585,-29.1642],[-68.9469,-29.1688],[-68.9377,-29.168],[-68.9327,-29.1615],[-68.9338,-29.1492],[-68.9149,-29.1344],[-68.9117,-29.1282],[-68.9129,-29.1111],[-68.9238,-29.1059],[-68.9252,-29.0894],[-68.9176,-29.0717],[-68.908,-29.0728],[-68.9106,-29.0586],[-68.9084,-29.0471],[-68.914,-29.0288],[-68.9257,-29.0259],[-68.9325,-29.0179],[-68.9318,-28.9891],[-68.9354,-28.9813],[-68.95,-28.9701],[-68.9598,-28.9542],[-68.9612,-28.9394],[-68.9506,-28.9331],[-68.9489,-28.92],[-68.9334,-28.9077],[-68.9337,-28.8974],[-68.9243,-28.8818],[-68.9233,-28.8711],[-68.9183,-28.8635],[-68.9082,-28.861],[-69.162,-28.7611],[-69.1682,-28.7517],[-69.1705,-28.7388],[-69.1916,-28.7187],[-69.1987,-28.7096],[-69.2098,-28.6816],[-69.2086,-28.6703],[-69.2179,-28.6483],[-69.2149,-28.6377],[-69.2166,-28.6065],[-69.2024,-28.5964],[-69.316,-28.4117],[-69.3242,-28.4237],[-69.3507,-28.4385],[-69.361,-28.44],[-69.3759,-28.4485],[-69.3979,-28.4499],[-69.4064,-28.4485],[-69.4255,-28.4518],[-69.4358,-28.4483],[-69.4587,-28.429],[-69.4608,-28.4226],[-69.4697,-28.4155],[-69.4883,-28.4139],[-69.507,-28.4228],[-69.5096,-28.4305],[-69.5248,-28.4285],[-69.5375,-28.4159],[-69.5552,-28.4058],[-69.5706,-28.4053],[-69.5954,-28.4172],[-69.6057,-28.419],[-69.6323,-28.3909],[-69.6493,-28.3977],[-69.6475,-28.4023],[-69.6557,-28.413],[-69.636,-28.4284],[-69.6401,-28.443],[-69.6621,-28.4471],[-69.6732,-28.4603],[-69.675,-28.4772],[-69.6647,-28.4824],[-69.6659,-28.4953],[-69.6573,-28.506],[-69.6647,-28.5123],[-69.6637,-28.5208],[-69.6506,-28.5321],[-69.6589,-28.5399],[-69.6692,-28.5552],[-69.6706,-28.5717],[-69.6685,-28.5894],[-69.6814,-28.5873],[-69.6913,-28.5934],[-69.6955,-28.6088],[-69.7029,-28.6203],[-69.698,-28.6301],[-69.7015,-28.6405],[-69.7241,-28.6637],[-69.7311,-28.6853],[-69.7278,-28.6924],[-69.7324,-28.7014],[-69.725,-28.7082],[-69.7308,-28.7208],[-69.724,-28.7293],[-69.7287,-28.7384],[-69.715,-28.7438],[-69.6996,-28.7527],[-69.6934,-28.7734],[-69.7043,-28.7786],[-69.7087,-28.7895],[-69.705,-28.8048],[-69.7148,-28.8265],[-69.7217,-28.8322],[-69.7236,-28.8416],[-69.7442,-28.8513],[-69.7404,-28.8634],[-69.7502,-28.8693],[-69.746,-28.8813],[-69.7502,-28.887],[-69.7641,-28.8946],[-69.7681,-28.9153],[-69.7663,-28.9258],[-69.754,-28.9372],[-69.7542,-28.958],[-69.7633,-28.9664],[-69.7621,-28.9764],[-69.7551,-28.9843],[-69.7689,-28.9901],[-69.7756,-29.0128],[-69.7862,-29.0311],[-69.7862,-29.0431],[-69.7929,-29.0571],[-69.789,-29.0641],[-69.7945,-29.0817],[-69.7832,-29.1012],[-69.7899,-29.1132],[-69.7855,-29.1293],[-69.7913,-29.1339],[-69.8379,-29.1286],[-69.8437,-29.133],[-69.8566,-29.1333],[-69.8669,-29.1396],[-69.8818,-29.1439],[-69.8922,-29.1587],[-69.9004,-29.1603],[-69.9039,-29.1701],[-69.9315,-29.1887],[-69.9515,-29.1895],[-69.9432,-29.2042],[-69.9505,-29.213],[-69.9451,-29.2296],[-69.9392,-29.2312],[-69.9356,-29.2473],[-69.9503,-29.2654],[-69.9634,-29.2677],[-69.9685,-29.2726],[-69.982,-29.2741],[-69.9961,-29.284],[-69.9994,-29.292],[-69.9948,-29.3019],[-70.0052,-29.3077],[-70.0196,-29.3279],[-70.0112,-29.3397],[-70.0101,-29.3491],[-70.0206,-29.3574],[-70.0108,-29.3675],[-70.0203,-29.3827],[-70.0097,-29.3929],[-69.9887,-29.3999],[-69.9801,-29.3998],[-69.9654,-29.413],[-69.9657,-29.4256],[-69.9727,-29.433],[-69.9716,-29.4396],[-69.9825,-29.4516],[-69.957,-29.4665],[-69.9585,-29.4768],[-69.9478,-29.4909],[-69.9536,-29.4998],[-69.949,-29.508],[-69.9491,-29.528],[-69.9562,-29.5349],[-69.9473,-29.5452],[-69.9458,-29.5545],[-69.9389,-29.5591],[-69.9328,-29.5762],[-69.933,-29.5992],[-69.9409,-29.6115],[-69.9378,-29.6221],[-69.9411,-29.6463],[-69.9329,-29.6653],[-69.9226,-29.6723],[-69.9209,-29.6855],[-69.9039,-29.6992],[-69.8923,-29.695],[-69.8808,-29.7095],[-69.8862,-29.7204],[-69.878,-29.7259],[-69.8794,-29.7355],[-69.8851,-29.7383],[-69.8964,-29.7537],[-69.8935,-29.7684],[-69.9119,-29.797],[-69.9135,-29.8071],[-69.8996,-29.8113],[-69.8938,-29.8196],[-69.9005,-29.841],[-69.8978,-29.8489],[-69.8867,-29.8533],[-69.8759,-29.8634],[-69.8934,-29.8788],[-69.8882,-29.8898],[-69.8878,-29.9058],[-69.9036,-29.9191],[-69.908,-29.9359],[-69.8953,-29.9371],[-69.8995,-29.9526],[-69.8969,-29.9575],[-69.907,-29.9697],[-69.9092,-29.9766],[-69.9201,-29.9855],[-69.9251,-30.0042],[-69.9148,-30.0246],[-69.9218,-30.0354],[-69.939,-30.0502],[-69.9469,-30.0618],[-69.9619,-30.0712],[-69.9571,-30.0768],[-69.9624,-30.0857],[-69.9441,-30.0911],[-69.9408,-30.1047],[-69.9444,-30.111],[-69.9351,-30.1185],[-69.9289,-30.1182],[-69.9152,-30.1088],[-69.9038,-30.1045],[-69.8708,-30.1099],[-69.8575,-30.1223],[-69.847,-30.1283],[-69.8281,-30.1237],[-69.8181,-30.1314],[-69.8088,-30.1432],[-69.8094,-30.1542],[-69.8277,-30.1605],[-69.8174,-30.1801],[-69.8196,-30.1892],[-69.8261,-30.1931],[-69.8328,-30.2166],[-69.8363,-30.2196],[-69.855,-30.2178],[-69.8702,-30.211],[-69.881,-30.2156],[-69.8871,-30.2225],[-69.8852,-30.2341],[-69.8884,-30.2391],[-69.8851,-30.2509],[-69.8786,-30.2573],[-69.8833,-30.2689],[-69.8736,-30.2741],[-69.8548,-30.2887],[-69.8475,-30.2995],[-69.8485,-30.3213],[-69.8571,-30.342],[-69.845,-30.375],[-69.8415,-30.3968],[-69.8345,-30.4077],[-69.8205,-30.418],[-69.8178,-30.42],[-69.7985,-30.4285],[-69.7856,-30.4436],[-69.7809,-30.462],[-69.7801,-30.4871],[-69.7819,-30.4996],[-69.7794,-30.512],[-69.7692,-30.5287],[-69.7459,-30.5528],[-69.7382,-30.5635],[-69.72,-30.6047],[-69.72,-30.617],[-69.707,-30.6275],[-69.6779,-30.6254],[-69.6535,-30.632],[-69.6303,-30.6518],[-69.6003,-30.6696],[-69.5731,-30.6784],[-69.555,-30.6786],[-69.5313,-30.6711],[-69.4493,-30.6852],[-69.4239,-30.6859],[-69.4044,-30.6943],[-69.3959,-30.7045],[-69.3589,-30.7347],[-69.3432,-30.7427],[-69.2867,-30.7645],[-69.2466,-30.7646],[-69.2145,-30.7697],[-69.1818,-30.7707],[-69.1315,-30.7783],[-69.1044,-30.7857],[-69.0996,-30.7571],[-69.092,-30.7334],[-69.0943,-30.7135],[-69.1065,-30.6924],[-69.1068,-30.6802],[-69.1156,-30.6592],[-69.1158,-30.6398],[-69.1118,-30.6357],[-69.0576,-30.6334],[-69.058,-30.6201],[-69.0642,-30.6003],[-69.0662,-30.5745],[-69.0699,-30.5479],[-69.0684,-30.5352],[-68.9952,-30.5393]]]},"properties":{"id":435,"departamento":"IGLESIA","cabecera":"RODEO","provincia":"SAN JUAN"}}
]}