{"type":"FeatureCollection", "features": [
{"type":"Feature","geometry":{"type":"Polygon","coordinates":[[[-65.7173,-32.2119],[-65.71,-32.1782],[-65.6839,-32.0626],[-65.6946,-32.0615],[-65.706,-32.0568],[-65.7243,-32.0516],[-65.8112,-32.0593],[-65.8127,-32.0478],[-65.8159,-32.0401],[-65.8217,-32.0159],[-65.8221,-31.9561],[-65.8251,-31.8971],[-65.8346,-31.8986],[-65.8451,-31.8988],[-65.8662,-31.9024],[-65.8877,-31.9102],[-65.9142,-31.91],[-65.9233,-31.9067],[-65.9281,-31.9069],[-65.9414,-31.9032],[-65.9641,-31.8939],[-65.979,-31.8892],[-65.9912,-31.8963],[-66.0056,-31.9027],[-66.0692,-31.9365],[-66.0682,-31.9405],[-66.0714,-31.9513],[-66.0765,-31.9612],[-66.0795,-31.9713],[-66.1316,-31.9436],[-66.1387,-31.9386],[-66.1513,-31.936],[-66.1611,-31.9385],[-66.1599,-31.9589],[-66.1602,-31.9635],[-66.2283,-31.9413],[-66.2832,-31.9329],[-66.2996,-31.9311],[-66.3037,-31.9338],[-66.3324,-31.9382],[-66.3322,-31.9416],[-66.3381,-31.9437],[-66.3548,-31.9905],[-66.3498,-31.9977],[-66.3684,-31.9973],[-66.3937,-31.9847],[-66.5666,-31.9504],[-66.6048,-31.9341],[-66.6045,-31.9234],[-66.6618,-31.9205],[-66.7801,-31.9085],[-66.8857,-31.8977],[-67.006,-31.8553],[-67.0502,-31.8575],[-67.0657,-31.8534],[-67.0782,-31.849],[-67.137,-31.8338],[-67.2418,-31.8808],[-67.4645,-31.8593],[-67.4669,-31.8629],[-67.4637,-31.8702],[-67.4513,-31.8928],[-67.445,-31.9173],[-67.438,-31.9415],[-67.4401,-31.9496],[-67.4415,-31.9663],[-67.4395,-31.9828],[-67.4412,-32],[-67.44,-32.0047],[-67.4459,-32.0133],[-67.4458,-32.036],[-67.4526,-32.0569],[-67.4617,-32.0681],[-67.4645,-32.0779],[-67.4639,-32.0828],[-67.4703,-32.0926],[-67.475,-32.1067],[-67.4761,-32.1186],[-67.4715,-32.133],[-67.4627,-32.1452],[-67.4534,-32.1561],[-67.4458,-32.1694],[-67.4301,-32.1994],[-67.3706,-32.2463],[-67.2782,-32.2923],[-67.2665,-32.3393],[-67.211,-32.3607],[-67.1777,-32.3645],[-67.1603,-32.3714],[-67.1214,-32.376],[-67.0851,-32.3784],[-67.042,-32.3717],[-67.0352,-32.3735],[-67.0153,-32.3856],[-67.0106,-32.3892],[-67.0068,-32.3862],[-66.9922,-32.381],[-66.9245,-32.3627],[-66.8418,-32.3624],[-66.7597,-32.3623],[-66.6466,-32.3652],[-66.5478,-32.3447],[-66.4359,-32.3359],[-66.3968,-32.3399],[-66.3719,-32.3431],[-66.3152,-32.3371],[-66.2678,-32.3422],[-66.2291,-32.3379],[-66.1974,-32.3444],[-66.2035,-32.3479],[-66.2042,-32.3679],[-66.198,-32.3759],[-66.2046,-32.3861],[-66.2076,-32.3978],[-66.2147,-32.4061],[-66.2141,-32.4258],[-66.2191,-32.433],[-66.2137,-32.4344],[-66.211,-32.4824],[-66.2086,-32.5059],[-66.2135,-32.5169],[-66.2349,-32.5347],[-66.2362,-32.5492],[-66.2496,-32.5575],[-66.2526,-32.5612],[-66.2559,-32.5713],[-66.2466,-32.5669],[-66.2385,-32.5684],[-66.233,-32.5647],[-66.2337,-32.5618],[-66.2285,-32.5574],[-66.2217,-32.5593],[-66.2184,-32.5625],[-66.2189,-32.5667],[-66.2145,-32.5718],[-66.2064,-32.5707],[-66.2029,-32.5724],[-66.2016,-32.5822],[-66.1947,-32.5814],[-66.1927,-32.5878],[-66.1876,-32.5883],[-66.1884,-32.5948],[-66.1856,-32.6054],[-66.1857,-32.6116],[-66.1803,-32.6189],[-66.1843,-32.624],[-66.1839,-32.63],[-66.1789,-32.6342],[-66.184,-32.6512],[-66.1653,-32.648],[-66.1543,-32.6494],[-66.1511,-32.6521],[-66.1512,-32.6603],[-66.1441,-32.676],[-66.1489,-32.6802],[-66.1478,-32.6897],[-66.1579,-32.7053],[-66.1598,-32.7149],[-66.1628,-32.7205],[-66.1675,-32.7382],[-66.1645,-32.7431],[-66.1563,-32.7453],[-66.1492,-32.7505],[-66.1406,-32.7548],[-66.1327,-32.7604],[-66.1328,-32.7539],[-66.1357,-32.7483],[-66.1347,-32.7426],[-66.1265,-32.7304],[-66.1231,-32.7185],[-66.1158,-32.7087],[-66.1138,-32.6906],[-66.1105,-32.6817],[-66.1148,-32.6743],[-66.1103,-32.6712],[-66.099,-32.6528],[-66.1051,-32.6532],[-66.1006,-32.6321],[-66.0962,-32.6301],[-66.0731,-32.6133],[-66.0707,-32.61],[-66.0633,-32.6129],[-66.0647,-32.6167],[-66.0576,-32.6203],[-66.055,-32.6238],[-66.0458,-32.6231],[-66.0372,-32.6272],[-66.037,-32.63],[-66.0245,-32.6378],[-66.0184,-32.6366],[-66.0132,-32.628],[-66.0103,-32.6275],[-66.0066,-32.6184],[-66.0028,-32.6182],[-65.9983,-32.6059],[-65.9947,-32.6041],[-65.9933,-32.5983],[-66.0041,-32.5827],[-66.0019,-32.5783],[-65.9782,-32.5237],[-65.9719,-32.5056],[-65.9601,-32.4673],[-65.9546,-32.442],[-65.9608,-32.4391],[-65.957,-32.4305],[-65.9319,-32.4021],[-65.9093,-32.402],[-65.903,-32.3991],[-65.8892,-32.3949],[-65.8766,-32.3956],[-65.8606,-32.3925],[-65.8617,-32.3839],[-65.8366,-32.3823],[-65.8367,-32.3595],[-65.8337,-32.3484],[-65.831,-32.3298],[-65.827,-32.3223],[-65.8101,-32.3088],[-65.7938,-32.3092],[-65.7872,-32.3085],[-65.7665,-32.2623],[-65.7577,-32.2659],[-65.7577,-32.2436],[-65.7803,-32.2399],[-65.7623,-32.2313],[-65.7173,-32.2119]]]},"properties":{"id":187,"departamento":"AYACUCHO","cabecera":"SAN FRANCISCO DEL MONTE DE ORO","provincia":"SAN LUIS"}},
{"type":"Feature","geometry":{"type":"Polygon","coordinates":[[[-66.6479,-34.743],[-66.6527,-34.7481],[-66.6516,-34.7573],[-66.6408,-34.7651],[-66.6357,-34.7651],[-66.6294,-34.7681],[-66.622,-34.7672],[-66.6086,-34.7738],[-66.5958,-34.7898],[-66.5983,-34.7955],[-66.6033,-34.8009],[-66.5954,-34.8027],[-66.5944,-34.8079],[-66.5815,-34.815],[-66.5645,-34.8278],[-66.5605,-34.8407],[-66.5617,-34.8458],[-66.5578,-34.8499],[-66.5514,-34.8713],[-66.5473,-34.8755],[-66.5455,-34.8832],[-66.55,-34.8887],[-66.5545,-34.8908],[-66.5547,-34.9011],[-66.5507,-34.9068],[-66.5553,-34.911],[-66.5527,-34.9172],[-66.54,-34.9169],[-66.5376,-34.9268],[-66.5338,-34.9306],[-66.529,-34.9401],[-66.526,-34.9428],[-66.5259,-34.9509],[-66.5338,-34.96],[-66.54,-34.9627],[-66.5464,-34.968],[-66.5457,-34.9712],[-66.5363,-34.9824],[-66.5349,-34.994],[-66.5368,-34.9987],[-66.5329,-35.0061],[-66.5393,-35.011],[-66.5402,-35.0166],[-66.5307,-35.0152],[-66.5224,-35.0218],[-66.5256,-35.0289],[-66.5239,-35.0387],[-66.5204,-35.0425],[-66.5269,-35.0495],[-66.5218,-35.0537],[-66.515,-35.0519],[-66.5163,-35.0581],[-66.5214,-35.064],[-66.5125,-35.0714],[-66.5161,-35.0777],[-66.5129,-35.0831],[-66.5057,-35.0833],[-66.5049,-35.093],[-66.4946,-35.0916],[-66.4891,-35.0948],[-66.4987,-35.1065],[-66.4899,-35.1169],[-66.487,-35.1222],[-66.4897,-35.1302],[-66.484,-35.1319],[-66.4786,-35.1404],[-66.4796,-35.1458],[-66.4868,-35.1535],[-66.4942,-35.1568],[-66.4971,-35.1734],[-66.4927,-35.1836],[-66.4984,-35.1923],[-66.4908,-35.2089],[-66.4843,-35.2085],[-66.4831,-35.2151],[-66.4879,-35.2183],[-66.49,-35.2292],[-66.4867,-35.2392],[-66.492,-35.2462],[-66.5007,-35.2474],[-66.5025,-35.2538],[-66.507,-35.2585],[-66.5158,-35.2716],[-66.5196,-35.274],[-66.5135,-35.2813],[-66.518,-35.2868],[-66.5115,-35.2936],[-66.5083,-35.302],[-66.4996,-35.3031],[-66.4957,-35.3099],[-66.5002,-35.3314],[-66.4985,-35.3431],[-66.5064,-35.3536],[-66.5043,-35.3625],[-66.5076,-35.373],[-66.5067,-35.3756],[-66.5146,-35.389],[-66.5084,-35.3964],[-66.5178,-35.4063],[-66.5242,-35.4159],[-66.5253,-35.4221],[-66.5228,-35.4288],[-66.5249,-35.4363],[-66.5296,-35.4467],[-66.5226,-35.4512],[-66.5254,-35.4607],[-66.52,-35.4631],[-66.5174,-35.4701],[-66.5211,-35.4752],[-66.5203,-35.4803],[-66.5249,-35.4903],[-66.5253,-35.499],[-66.5228,-35.5074],[-66.5276,-35.5177],[-66.5248,-35.5217],[-66.5283,-35.5261],[-66.5258,-35.5406],[-66.533,-35.5435],[-66.5339,-35.5506],[-66.539,-35.5565],[-66.5398,-35.563],[-66.5474,-35.5654],[-66.5497,-35.5693],[-66.5632,-35.5734],[-66.5706,-35.5821],[-66.5659,-35.5881],[-66.569,-35.5906],[-66.5696,-35.6003],[-66.5658,-35.6032],[-66.5638,-35.6092],[-66.5654,-35.6176],[-66.5627,-35.6245],[-66.5553,-35.6328],[-66.5482,-35.6373],[-66.5493,-35.6436],[-66.5591,-35.6524],[-66.5578,-35.6597],[-66.5614,-35.663],[-66.5584,-35.6726],[-66.5627,-35.6819],[-66.57,-35.694],[-66.5768,-35.6982],[-66.5806,-35.7038],[-66.5799,-35.7203],[-66.581,-35.7375],[-66.5843,-35.741],[-66.5823,-35.7471],[-66.5839,-35.757],[-66.5817,-35.7699],[-66.5869,-35.7818],[-66.5903,-35.7851],[-66.5903,-35.7947],[-66.5929,-35.7986],[-66.5957,-35.8103],[-66.602,-35.8167],[-66.6045,-35.8277],[-66.612,-35.8354],[-66.6149,-35.8427],[-66.6222,-35.8484],[-66.6236,-35.8547],[-66.6206,-35.8628],[-66.6221,-35.8711],[-66.6208,-35.8834],[-66.627,-35.8904],[-66.6272,-35.8971],[-66.6191,-35.9026],[-66.6198,-35.9081],[-66.6277,-35.9137],[-66.6293,-35.9172],[-66.6297,-35.9276],[-66.6284,-35.9375],[-66.6182,-35.9478],[-66.6224,-35.954],[-66.6194,-35.9643],[-66.6212,-35.9719],[-66.6246,-35.9729],[-66.6253,-35.9801],[-66.6364,-35.9934],[-66.6373,-35.9995],[-66.1518,-35.9995],[-66.0035,-35.9995],[-65.2658,-35.9995],[-65.1169,-35.9995],[-65.117,-35.8966],[-65.1171,-35.8074],[-65.1175,-35.0003],[-65.1175,-34.8874],[-65.1175,-34.7862],[-65.1175,-34.6522],[-65.252,-34.653],[-65.2525,-34.6678],[-65.2895,-34.6681],[-65.3531,-34.6681],[-65.4542,-34.6684],[-65.568,-34.6689],[-65.5682,-34.6948],[-65.6698,-34.6927],[-65.6698,-34.7123],[-65.8015,-34.7113],[-65.8015,-34.7134],[-65.9752,-34.7125],[-65.9764,-34.7786],[-66.006,-34.7733],[-66.0967,-34.7724],[-66.1018,-34.7728],[-66.121,-34.7785],[-66.1761,-34.786],[-66.3052,-34.8043],[-66.3826,-34.8155],[-66.4436,-34.8239],[-66.5262,-34.8133],[-66.5305,-34.8119],[-66.5824,-34.7779],[-66.6028,-34.7652],[-66.627,-34.7566],[-66.6479,-34.743]]]},"properties":{"id":188,"departamento":"GOBERNADOR DUPUY","cabecera":"BUENA ESPERANZA","provincia":"SAN LUIS"}},
{"type":"Feature","geometry":{"type":"Polygon","coordinates":[[[-64.9006,-32.4798],[-64.9351,-32.4789],[-64.9834,-32.4826],[-64.9995,-32.4825],[-65.0011,-32.4747],[-65.0073,-32.4732],[-65.0067,-32.483],[-65.0141,-32.483],[-65.0276,-32.4793],[-65.0816,-32.4679],[-65.0848,-32.4989],[-65.1494,-32.487],[-65.1513,-32.5014],[-65.1983,-32.4932],[-65.2011,-32.4902],[-65.2092,-32.487],[-65.2225,-32.4846],[-65.2309,-32.4948],[-65.2389,-32.4933],[-65.2391,-32.5031],[-65.2438,-32.5125],[-65.2506,-32.5145],[-65.2551,-32.5204],[-65.2601,-32.5357],[-65.2584,-32.5378],[-65.2617,-32.5468],[-65.2767,-32.546],[-65.2792,-32.5411],[-65.2901,-32.5355],[-65.2935,-32.5303],[-65.2986,-32.5278],[-65.3154,-32.5293],[-65.3302,-32.5324],[-65.3349,-32.5369],[-65.3468,-32.5518],[-65.3489,-32.5526],[-65.3619,-32.55],[-65.3734,-32.5466],[-65.3884,-32.5368],[-65.406,-32.5331],[-65.4082,-32.5362],[-65.4109,-32.5464],[-65.4101,-32.5525],[-65.4111,-32.5647],[-65.4061,-32.571],[-65.4074,-32.5781],[-65.4024,-32.5804],[-65.4009,-32.5929],[-65.4035,-32.5998],[-65.4064,-32.6178],[-65.4105,-32.6281],[-65.4213,-32.6267],[-65.4289,-32.6298],[-65.431,-32.6392],[-65.4349,-32.6398],[-65.4357,-32.6458],[-65.4448,-32.6554],[-65.4443,-32.666],[-65.4456,-32.6837],[-65.445,-32.6908],[-65.4528,-32.6972],[-65.4571,-32.6987],[-65.4591,-32.7049],[-65.4681,-32.7071],[-65.4636,-32.7263],[-65.4662,-32.7263],[-65.4621,-32.7432],[-65.4586,-32.7469],[-65.4559,-32.7552],[-65.4592,-32.7615],[-65.4757,-32.7614],[-65.4815,-32.777],[-65.4904,-32.7745],[-65.4992,-32.8126],[-65.4967,-32.8259],[-65.4927,-32.8295],[-65.4943,-32.8459],[-65.5062,-32.8522],[-65.5128,-32.8578],[-65.5128,-32.8669],[-65.5147,-32.876],[-65.5094,-32.883],[-65.5095,-32.8909],[-65.5137,-32.8944],[-65.5089,-32.9008],[-65.5193,-32.9124],[-65.533,-32.9135],[-65.5381,-32.9235],[-65.5379,-32.9286],[-65.555,-32.9327],[-65.5623,-32.9428],[-65.5659,-32.9429],[-65.5651,-32.9716],[-65.5733,-32.9717],[-65.578,-33.0122],[-65.5696,-33.011],[-65.56,-33.0064],[-65.4823,-32.9613],[-65.4761,-32.959],[-65.4664,-32.9585],[-65.4541,-32.9621],[-65.4427,-32.9618],[-65.436,-32.9597],[-65.4359,-32.9696],[-65.3798,-32.9436],[-65.3762,-32.9395],[-65.3581,-32.9083],[-65.285,-32.9227],[-65.2832,-32.9066],[-65.2287,-32.917],[-65.2254,-32.9188],[-65.2006,-32.9237],[-65.181,-32.9268],[-65.1745,-32.9258],[-65.1683,-32.9273],[-65.1631,-32.9345],[-65.1533,-32.9364],[-65.1395,-32.9453],[-65.1267,-32.949],[-65.0833,-32.9489],[-65.0818,-32.9418],[-65.0644,-32.9421],[-65.0643,-32.9621],[-65.071,-32.9622],[-65.071,-32.9681],[-65.0578,-32.9681],[-65.0578,-32.9621],[-65.0122,-32.9618],[-65.0042,-32.9545],[-64.9955,-32.95],[-64.9915,-32.9445],[-64.9901,-32.9387],[-64.9928,-32.9274],[-64.9829,-32.9141],[-64.9803,-32.9077],[-64.9813,-32.8988],[-64.9784,-32.8931],[-64.9748,-32.8754],[-64.9658,-32.8676],[-64.9648,-32.8523],[-64.974,-32.829],[-64.9731,-32.8169],[-64.9707,-32.8051],[-64.9666,-32.7977],[-64.9614,-32.7957],[-64.9566,-32.7903],[-64.9446,-32.7673],[-64.9481,-32.7545],[-64.9496,-32.7429],[-64.9482,-32.7228],[-64.9457,-32.7186],[-64.933,-32.7077],[-64.9236,-32.6955],[-64.925,-32.6889],[-64.9162,-32.6792],[-64.9242,-32.654],[-64.9191,-32.6447],[-64.9181,-32.6329],[-64.9238,-32.6256],[-64.9252,-32.62],[-64.9217,-32.6101],[-64.9081,-32.5973],[-64.9,-32.5932],[-64.8956,-32.5863],[-64.8888,-32.5809],[-64.8836,-32.5734],[-64.8829,-32.567],[-64.8857,-32.5511],[-64.8907,-32.538],[-64.8905,-32.5256],[-64.8988,-32.5146],[-64.8993,-32.5069],[-64.8956,-32.4945],[-64.8955,-32.4852],[-64.9006,-32.4798]]]},"properties":{"id":449,"departamento":"CHACABUCO","cabecera":"CONCARAN","provincia":"SAN LUIS"}},
{"type":"Feature","geometry":{"type":"Polygon","coordinates":[[[-65.9752,-34.7125],[-66.0097,-34.7123],[-66.0089,-34.6286],[-66.0041,-34.5823],[-66.0081,-34.5434],[-66.0093,-34.5028],[-66.0079,-34.502],[-66.0073,-34.4248],[-66.013,-34.4214],[-66.0072,-34.417],[-66.0071,-34.401],[-65.9961,-34.401],[-65.9953,-34.2932],[-66.0011,-34.2932],[-66.0028,-34.2003],[-66.0053,-34.044],[-66.0374,-34.0444],[-66.038,-34.0069],[-66.0905,-34.0072],[-66.1424,-34.0072],[-66.1425,-33.9508],[-66.1473,-33.9508],[-66.1194,-33.8611],[-66.1264,-33.8512],[-66.139,-33.8407],[-66.1451,-33.8439],[-66.1525,-33.8429],[-66.1665,-33.8338],[-66.1821,-33.8359],[-66.1887,-33.8315],[-66.1969,-33.8298],[-66.2165,-33.833],[-66.2202,-33.8371],[-66.2076,-33.7965],[-66.1656,-33.6548],[-66.19,-33.6558],[-66.1678,-33.6027],[-66.1635,-33.5875],[-66.1563,-33.5651],[-66.1566,-33.5459],[-66.1641,-33.5444],[-66.1585,-33.5243],[-66.1564,-33.51],[-66.1567,-33.4464],[-66.1515,-33.4469],[-66.1447,-33.4247],[-66.1413,-33.4078],[-66.1357,-33.3899],[-66.1101,-33.3834],[-66.1235,-33.3651],[-66.1208,-33.3546],[-66.1194,-33.3388],[-66.1025,-33.2773],[-66.1089,-33.2676],[-66.1022,-33.2581],[-66.1056,-33.226],[-66.1054,-33.2219],[-66.1371,-33.237],[-66.1801,-33.2395],[-66.2283,-33.1686],[-66.2247,-33.1491],[-66.2152,-33.1347],[-66.2152,-33.1293],[-66.2305,-33.1306],[-66.2435,-33.1375],[-66.2521,-33.1357],[-66.2567,-33.1376],[-66.2716,-33.1313],[-66.2795,-33.1238],[-66.2885,-33.1205],[-66.2876,-33.1281],[-66.3028,-33.1264],[-66.315,-33.1304],[-66.3218,-33.1313],[-66.3435,-33.1282],[-66.3442,-33.1313],[-66.3611,-33.1287],[-66.3632,-33.1018],[-66.5011,-33.1033],[-66.5039,-33.1041],[-66.5054,-33.113],[-66.5154,-33.1085],[-66.517,-33.1137],[-66.5161,-33.1231],[-66.518,-33.1267],[-66.513,-33.1313],[-66.5592,-33.1645],[-66.5637,-33.1712],[-66.5697,-33.1746],[-66.5807,-33.1852],[-66.5828,-33.1896],[-66.5795,-33.2066],[-66.6677,-33.1676],[-66.6767,-33.1463],[-66.6833,-33.1472],[-66.6818,-33.1387],[-66.8001,-33.115],[-66.8116,-33.1585],[-66.8099,-33.1704],[-66.926,-33.1563],[-66.9243,-33.147],[-66.9733,-33.1408],[-66.9726,-33.0997],[-67.0073,-33.0958],[-67.0074,-33.1048],[-67.0144,-33.1046],[-67.014,-33.0857],[-67.0204,-33.085],[-67.0196,-33.0792],[-67.1732,-33.0868],[-67.1835,-33.087],[-67.1846,-33.094],[-67.1818,-33.0985],[-67.1801,-33.107],[-67.1847,-33.1171],[-67.1841,-33.1307],[-67.1801,-33.1348],[-67.1779,-33.1421],[-67.1719,-33.1523],[-67.1726,-33.1588],[-67.1687,-33.1611],[-67.1686,-33.1698],[-67.1774,-33.1785],[-67.1764,-33.1879],[-67.1786,-33.1949],[-67.1812,-33.1962],[-67.1826,-33.2056],[-67.1777,-33.2106],[-67.1794,-33.2226],[-67.1776,-33.2374],[-67.1808,-33.2487],[-67.1772,-33.2537],[-67.1747,-33.2645],[-67.171,-33.2681],[-67.1728,-33.2726],[-67.1772,-33.2749],[-67.1744,-33.2823],[-67.1738,-33.2902],[-67.1706,-33.2967],[-67.169,-33.3047],[-67.1627,-33.3086],[-67.1593,-33.3144],[-67.1598,-33.319],[-67.1524,-33.3272],[-67.1555,-33.3452],[-67.1561,-33.3613],[-67.1582,-33.3642],[-67.1574,-33.3722],[-67.1498,-33.3802],[-67.1508,-33.3873],[-67.1483,-33.3911],[-67.1494,-33.4003],[-67.1535,-33.4067],[-67.1527,-33.4126],[-67.148,-33.4182],[-67.1437,-33.4267],[-67.1427,-33.4345],[-67.1459,-33.44],[-67.1313,-33.4498],[-67.1329,-33.4534],[-67.1305,-33.4608],[-67.1356,-33.4647],[-67.1316,-33.4714],[-67.121,-33.4741],[-67.1163,-33.4824],[-67.1151,-33.488],[-67.1076,-33.4912],[-67.1065,-33.4947],[-67.0961,-33.5046],[-67.0943,-33.5134],[-67.0986,-33.5164],[-67.0914,-33.5279],[-67.0961,-33.5324],[-67.0932,-33.5388],[-67.0755,-33.5466],[-67.0704,-33.5461],[-67.0653,-33.5516],[-67.0702,-33.5649],[-67.0663,-33.568],[-67.0661,-33.5722],[-67.0584,-33.5736],[-67.0553,-33.5825],[-67.0488,-33.5828],[-67.0438,-33.5917],[-67.0371,-33.5968],[-67.0397,-33.6014],[-67.0368,-33.6075],[-67.0317,-33.6087],[-67.0265,-33.6061],[-67.0165,-33.6132],[-67.0167,-33.618],[-67.0087,-33.6183],[-67.0053,-33.6238],[-67.0041,-33.63],[-66.9988,-33.6325],[-67.0055,-33.6384],[-67.0032,-33.6459],[-67.0041,-33.6522],[-66.9985,-33.6561],[-67.0036,-33.6685],[-66.9976,-33.6694],[-66.9958,-33.6769],[-66.9814,-33.6892],[-66.9742,-33.6891],[-66.973,-33.7029],[-66.9681,-33.7035],[-66.9617,-33.7124],[-66.9612,-33.7182],[-66.9491,-33.7323],[-66.9422,-33.7345],[-66.9406,-33.7383],[-66.934,-33.7395],[-66.9303,-33.7451],[-66.9252,-33.7443],[-66.9149,-33.7499],[-66.8976,-33.761],[-66.8925,-33.7663],[-66.8844,-33.7679],[-66.8838,-33.7833],[-66.8808,-33.7876],[-66.8832,-33.7926],[-66.8808,-33.7967],[-66.8836,-33.8033],[-66.8812,-33.8066],[-66.8793,-33.8181],[-66.876,-33.8225],[-66.8743,-33.8315],[-66.869,-33.8337],[-66.8649,-33.8383],[-66.859,-33.8388],[-66.8539,-33.8442],[-66.8395,-33.8476],[-66.8332,-33.8529],[-66.8238,-33.8545],[-66.8162,-33.8581],[-66.8108,-33.8628],[-66.8063,-33.8601],[-66.8006,-33.8626],[-66.7927,-33.8807],[-66.7876,-33.8816],[-66.7848,-33.8876],[-66.7731,-33.8911],[-66.7652,-33.8958],[-66.77,-33.8984],[-66.7686,-33.9021],[-66.7576,-33.9048],[-66.75,-33.9147],[-66.7365,-33.9113],[-66.728,-33.9221],[-66.7284,-33.9281],[-66.7241,-33.9299],[-66.7233,-33.9355],[-66.7178,-33.9344],[-66.7097,-33.9368],[-66.7047,-33.9319],[-66.7004,-33.9377],[-66.6896,-33.9373],[-66.6771,-33.9516],[-66.6709,-33.954],[-66.6664,-33.961],[-66.6704,-33.9642],[-66.6721,-33.9707],[-66.6679,-33.9802],[-66.6636,-33.9859],[-66.6709,-33.9903],[-66.6714,-33.9935],[-66.687,-34.0023],[-66.6913,-34.0114],[-66.6942,-34.0104],[-66.699,-34.0185],[-66.7075,-34.023],[-66.7055,-34.0305],[-66.7012,-34.0342],[-66.7046,-34.0401],[-66.6997,-34.0468],[-66.7132,-34.0531],[-66.7161,-34.0574],[-66.713,-34.0662],[-66.7176,-34.0717],[-66.7117,-34.0811],[-66.7108,-34.0882],[-66.7144,-34.0932],[-66.7127,-34.1012],[-66.7178,-34.1072],[-66.7201,-34.113],[-66.7243,-34.1152],[-66.7251,-34.1218],[-66.7211,-34.1249],[-66.7227,-34.1318],[-66.7328,-34.1399],[-66.7264,-34.1463],[-66.7151,-34.146],[-66.7124,-34.1523],[-66.7209,-34.1555],[-66.7183,-34.159],[-66.7194,-34.1677],[-66.7246,-34.1722],[-66.7303,-34.1833],[-66.7201,-34.1876],[-66.7195,-34.1905],[-66.7272,-34.2025],[-66.7282,-34.2085],[-66.7197,-34.2099],[-66.7223,-34.2182],[-66.7257,-34.2219],[-66.7458,-34.2213],[-66.7496,-34.2258],[-66.7454,-34.2308],[-66.7473,-34.2353],[-66.7524,-34.2348],[-66.7622,-34.2281],[-66.7828,-34.2312],[-66.7862,-34.2339],[-66.7855,-34.2432],[-66.7884,-34.2529],[-66.7993,-34.2548],[-66.8015,-34.2586],[-66.7865,-34.2694],[-66.7846,-34.2764],[-66.7793,-34.2864],[-66.7766,-34.2981],[-66.7829,-34.3025],[-66.79,-34.3005],[-66.799,-34.3012],[-66.8037,-34.3063],[-66.8039,-34.3149],[-66.8019,-34.3185],[-66.8028,-34.3294],[-66.8,-34.3328],[-66.8026,-34.3381],[-66.8074,-34.3385],[-66.8131,-34.3438],[-66.801,-34.3544],[-66.7966,-34.3551],[-66.7918,-34.3639],[-66.7924,-34.3678],[-66.7898,-34.3749],[-66.7845,-34.3791],[-66.7812,-34.377],[-66.7712,-34.3752],[-66.7654,-34.3786],[-66.7657,-34.3888],[-66.7768,-34.3934],[-66.773,-34.4042],[-66.7775,-34.4114],[-66.7872,-34.4092],[-66.7952,-34.4097],[-66.7955,-34.413],[-66.7882,-34.4218],[-66.7734,-34.4245],[-66.7635,-34.4343],[-66.7583,-34.4344],[-66.7557,-34.4428],[-66.7565,-34.4508],[-66.7531,-34.4555],[-66.7534,-34.4605],[-66.7571,-34.4642],[-66.7595,-34.4762],[-66.7583,-34.4835],[-66.7648,-34.4967],[-66.7605,-34.5036],[-66.7605,-34.5082],[-66.7569,-34.5125],[-66.7583,-34.5229],[-66.7556,-34.529],[-66.7572,-34.5344],[-66.7645,-34.5375],[-66.762,-34.5457],[-66.7661,-34.551],[-66.7578,-34.558],[-66.7586,-34.5663],[-66.7548,-34.5697],[-66.7478,-34.5718],[-66.7427,-34.5767],[-66.7372,-34.5786],[-66.7365,-34.5831],[-66.729,-34.5869],[-66.7287,-34.5958],[-66.7333,-34.6008],[-66.7262,-34.6111],[-66.7123,-34.6176],[-66.706,-34.6182],[-66.7041,-34.6233],[-66.7131,-34.6286],[-66.705,-34.6335],[-66.7062,-34.6394],[-66.7021,-34.6454],[-66.7023,-34.6535],[-66.6987,-34.653],[-66.6952,-34.6625],[-66.6955,-34.6661],[-66.6919,-34.6732],[-66.6907,-34.6814],[-66.693,-34.6866],[-66.6907,-34.6913],[-66.6822,-34.6901],[-66.6789,-34.6947],[-66.6721,-34.6954],[-66.6552,-34.7089],[-66.6454,-34.713],[-66.6391,-34.7226],[-66.6411,-34.7377],[-66.6479,-34.743],[-66.627,-34.7566],[-66.6028,-34.7652],[-66.5824,-34.7779],[-66.5305,-34.8119],[-66.5262,-34.8133],[-66.4436,-34.8239],[-66.3826,-34.8155],[-66.3052,-34.8043],[-66.1761,-34.786],[-66.121,-34.7785],[-66.1018,-34.7728],[-66.0967,-34.7724],[-66.006,-34.7733],[-65.9764,-34.7786],[-65.9752,-34.7125]]]},"properties":{"id":450,"departamento":"JUAN MARTIN DE PUEYRREDON","cabecera":"SAN LUIS","provincia":"SAN LUIS"}},
{"type":"Feature","geometry":{"type":"Polygon","coordinates":[[[-65.1175,-34.6522],[-65.1175,-34.4858],[-65.1175,-33.9692],[-65.1177,-33.9436],[-65.1408,-33.251],[-65.1427,-33.1945],[-65.139,-33.1929],[-65.129,-33.1845],[-65.1249,-33.1834],[-65.1188,-33.1776],[-65.1119,-33.1769],[-65.1106,-33.1722],[-65.1005,-33.1569],[-65.0963,-33.1536],[-65.0927,-33.1556],[-65.0857,-33.1485],[-65.0862,-33.1463],[-65.0741,-33.1423],[-65.0701,-33.1371],[-65.0685,-33.1315],[-65.0634,-33.1278],[-65.0548,-33.1156],[-65.0544,-33.1092],[-65.0594,-33.1006],[-65.0528,-33.0903],[-65.0481,-33.0688],[-65.0423,-33.0598],[-65.0277,-33.0481],[-65.0246,-33.0401],[-65.0192,-33.0317],[-65.0161,-33.0232],[-65.0104,-33.0149],[-65.0065,-33.0125],[-64.9997,-33.0027],[-65.0086,-32.9895],[-65.0215,-32.9771],[-65.0223,-32.973],[-65.0165,-32.965],[-65.0122,-32.9618],[-65.0578,-32.9621],[-65.0578,-32.9681],[-65.071,-32.9681],[-65.071,-32.9622],[-65.0643,-32.9621],[-65.0644,-32.9421],[-65.0818,-32.9418],[-65.0833,-32.9489],[-65.1267,-32.949],[-65.1395,-32.9453],[-65.1533,-32.9364],[-65.1631,-32.9345],[-65.1683,-32.9273],[-65.1745,-32.9258],[-65.181,-32.9268],[-65.2006,-32.9237],[-65.2254,-32.9188],[-65.2287,-32.917],[-65.2832,-32.9066],[-65.285,-32.9227],[-65.3581,-32.9083],[-65.3762,-32.9395],[-65.3798,-32.9436],[-65.4359,-32.9696],[-65.436,-32.9597],[-65.4427,-32.9618],[-65.4541,-32.9621],[-65.4664,-32.9585],[-65.4761,-32.959],[-65.4823,-32.9613],[-65.56,-33.0064],[-65.5517,-33.0124],[-65.5511,-33.0194],[-65.557,-33.0283],[-65.5652,-33.0429],[-65.5708,-33.0568],[-65.6012,-33.0542],[-65.6081,-33.0545],[-65.6056,-33.0747],[-65.6166,-33.0756],[-65.6115,-33.083],[-65.6135,-33.1044],[-65.6131,-33.1092],[-65.6061,-33.1354],[-65.6024,-33.1445],[-65.602,-33.1493],[-65.6046,-33.1688],[-65.6039,-33.1762],[-65.6,-33.1873],[-65.6009,-33.1936],[-65.6118,-33.2047],[-65.6227,-33.2133],[-65.6225,-33.2199],[-65.625,-33.2258],[-65.6262,-33.2347],[-65.6232,-33.2433],[-65.6233,-33.2515],[-65.621,-33.2568],[-65.6167,-33.2737],[-65.6084,-33.284],[-65.6077,-33.2867],[-65.6139,-33.3015],[-65.6153,-33.3112],[-65.6134,-33.3197],[-65.613,-33.3357],[-65.6103,-33.3416],[-65.6019,-33.3514],[-65.5978,-33.359],[-65.5837,-33.3805],[-65.5773,-33.3883],[-65.5738,-33.4005],[-65.5713,-33.4048],[-65.5637,-33.4118],[-65.5564,-33.4327],[-65.557,-33.4384],[-65.5516,-33.4526],[-65.5559,-33.4625],[-65.557,-33.4698],[-65.7088,-33.4673],[-65.7235,-33.4695],[-65.7297,-33.468],[-65.7355,-33.47],[-65.7387,-33.4668],[-65.7338,-33.4573],[-65.738,-33.4567],[-65.7437,-33.4611],[-65.7537,-33.4616],[-65.759,-33.4595],[-65.7631,-33.4522],[-65.7697,-33.4463],[-65.7674,-33.4402],[-65.7708,-33.4389],[-65.7826,-33.4484],[-65.7868,-33.4458],[-65.7855,-33.4395],[-65.792,-33.4405],[-65.7912,-33.4444],[-65.7893,-33.4995],[-65.7929,-33.5075],[-65.835,-33.4856],[-65.9326,-33.4355],[-65.9855,-33.4081],[-66.0475,-33.376],[-66.0537,-33.3748],[-66.0825,-33.3761],[-66.1101,-33.3834],[-66.1357,-33.3899],[-66.1413,-33.4078],[-66.1447,-33.4247],[-66.1515,-33.4469],[-66.1567,-33.4464],[-66.1564,-33.51],[-66.1585,-33.5243],[-66.1641,-33.5444],[-66.1566,-33.5459],[-66.1563,-33.5651],[-66.1635,-33.5875],[-66.1678,-33.6027],[-66.19,-33.6558],[-66.1656,-33.6548],[-66.2076,-33.7965],[-66.2202,-33.8371],[-66.2165,-33.833],[-66.1969,-33.8298],[-66.1887,-33.8315],[-66.1821,-33.8359],[-66.1665,-33.8338],[-66.1525,-33.8429],[-66.1451,-33.8439],[-66.139,-33.8407],[-66.1264,-33.8512],[-66.1194,-33.8611],[-66.1473,-33.9508],[-66.1425,-33.9508],[-66.1424,-34.0072],[-66.0905,-34.0072],[-66.038,-34.0069],[-66.0374,-34.0444],[-66.0053,-34.044],[-66.0028,-34.2003],[-66.0011,-34.2932],[-65.9953,-34.2932],[-65.9961,-34.401],[-66.0071,-34.401],[-66.0072,-34.417],[-66.013,-34.4214],[-66.0073,-34.4248],[-66.0079,-34.502],[-66.0093,-34.5028],[-66.0081,-34.5434],[-66.0041,-34.5823],[-66.0089,-34.6286],[-66.0097,-34.7123],[-65.9752,-34.7125],[-65.8015,-34.7134],[-65.8015,-34.7113],[-65.6698,-34.7123],[-65.6698,-34.6927],[-65.5682,-34.6948],[-65.568,-34.6689],[-65.4542,-34.6684],[-65.3531,-34.6681],[-65.2895,-34.6681],[-65.2525,-34.6678],[-65.252,-34.653],[-65.1175,-34.6522]]]},"properties":{"id":451,"departamento":"GENERAL PEDERNERA","cabecera":"VILLA MERCEDES","provincia":"SAN LUIS"}},
{"type":"Feature","geometry":{"type":"Polygon","coordinates":[[[-66.1327,-32.7604],[-66.1244,-32.7621],[-66.1117,-32.7673],[-66.0947,-32.7803],[-66.0873,-32.7818],[-66.0839,-32.7844],[-66.0878,-32.7891],[-66.0829,-32.7936],[-66.0762,-32.7946],[-66.0671,-32.792],[-66.056,-32.7931],[-66.0527,-32.7871],[-66.0452,-32.7868],[-66.04,-32.7903],[-66.0336,-32.7885],[-66.0223,-32.791],[-66.0131,-32.8021],[-66.0129,-32.8069],[-65.9984,-32.8065],[-65.9882,-32.8104],[-65.9784,-32.8124],[-65.9734,-32.8189],[-65.9679,-32.8222],[-65.9606,-32.818],[-65.955,-32.8121],[-65.9508,-32.8146],[-65.945,-32.8141],[-65.9408,-32.8187],[-65.9415,-32.8223],[-65.935,-32.8301],[-65.9287,-32.8298],[-65.9208,-32.8344],[-65.9103,-32.8329],[-65.8991,-32.84],[-65.891,-32.8418],[-65.8819,-32.8459],[-65.8642,-32.8511],[-65.8648,-32.8436],[-65.8578,-32.8277],[-65.8519,-32.8187],[-65.849,-32.81],[-65.849,-32.8007],[-65.8462,-32.7944],[-65.8415,-32.7941],[-65.8363,-32.7981],[-65.8326,-32.8136],[-65.8108,-32.8168],[-65.8013,-32.814],[-65.7945,-32.8146],[-65.7804,-32.8196],[-65.7795,-32.8267],[-65.7735,-32.8275],[-65.768,-32.8379],[-65.7699,-32.8418],[-65.7593,-32.8501],[-65.7512,-32.8601],[-65.7462,-32.8635],[-65.7414,-32.8721],[-65.7405,-32.8817],[-65.7186,-32.8974],[-65.7182,-32.9041],[-65.7147,-32.9121],[-65.7178,-32.9257],[-65.6976,-32.932],[-65.6859,-32.9335],[-65.6814,-32.9396],[-65.6656,-32.9433],[-65.6631,-32.9418],[-65.648,-32.943],[-65.6469,-32.9414],[-65.6342,-32.9373],[-65.631,-32.9294],[-65.6206,-32.9202],[-65.6154,-32.9073],[-65.6166,-32.9026],[-65.6158,-32.8797],[-65.6117,-32.8722],[-65.5786,-32.8735],[-65.5699,-32.8748],[-65.5522,-32.8815],[-65.5305,-32.8815],[-65.5164,-32.8934],[-65.5137,-32.8944],[-65.5095,-32.8909],[-65.5094,-32.883],[-65.5147,-32.876],[-65.5128,-32.8669],[-65.5128,-32.8578],[-65.5062,-32.8522],[-65.4943,-32.8459],[-65.4927,-32.8295],[-65.4967,-32.8259],[-65.4992,-32.8126],[-65.4904,-32.7745],[-65.4815,-32.777],[-65.4757,-32.7614],[-65.4592,-32.7615],[-65.4559,-32.7552],[-65.4586,-32.7469],[-65.4621,-32.7432],[-65.4662,-32.7263],[-65.4636,-32.7263],[-65.4681,-32.7071],[-65.4591,-32.7049],[-65.4571,-32.6987],[-65.4528,-32.6972],[-65.445,-32.6908],[-65.4456,-32.6837],[-65.4443,-32.666],[-65.4448,-32.6554],[-65.4357,-32.6458],[-65.4349,-32.6398],[-65.431,-32.6392],[-65.4289,-32.6298],[-65.4213,-32.6267],[-65.4105,-32.6281],[-65.4064,-32.6178],[-65.4035,-32.5998],[-65.4009,-32.5929],[-65.4024,-32.5804],[-65.4074,-32.5781],[-65.4061,-32.571],[-65.4111,-32.5647],[-65.4101,-32.5525],[-65.4109,-32.5464],[-65.4082,-32.5362],[-65.4114,-32.5337],[-65.4228,-32.5363],[-65.4295,-32.5328],[-65.4324,-32.5228],[-65.4188,-32.5121],[-65.421,-32.5087],[-65.4223,-32.4997],[-65.4222,-32.4894],[-65.4286,-32.4891],[-65.4297,-32.467],[-65.4198,-32.4615],[-65.4168,-32.4565],[-65.4112,-32.4589],[-65.4047,-32.4491],[-65.4037,-32.4336],[-65.4096,-32.4303],[-65.403,-32.4176],[-65.3966,-32.4101],[-65.3856,-32.405],[-65.3894,-32.3983],[-65.384,-32.3938],[-65.3883,-32.3891],[-65.3842,-32.3852],[-65.3865,-32.378],[-65.3812,-32.3717],[-65.3804,-32.3632],[-65.3894,-32.3608],[-65.3898,-32.3571],[-65.3972,-32.3582],[-65.4045,-32.3543],[-65.4096,-32.3399],[-65.4148,-32.3378],[-65.4142,-32.3316],[-65.4172,-32.3194],[-65.4155,-32.314],[-65.4119,-32.313],[-65.4078,-32.3052],[-65.409,-32.2953],[-65.4047,-32.2934],[-65.4034,-32.2851],[-65.4078,-32.2798],[-65.4051,-32.2686],[-65.4167,-32.2632],[-65.4278,-32.267],[-65.4352,-32.2641],[-65.4419,-32.2698],[-65.456,-32.2687],[-65.462,-32.2638],[-65.4647,-32.2581],[-65.4707,-32.2569],[-65.4758,-32.2642],[-65.4751,-32.2768],[-65.5807,-32.2642],[-65.5796,-32.2539],[-65.5845,-32.2501],[-65.6011,-32.2463],[-65.6193,-32.2439],[-65.6217,-32.2451],[-65.6347,-32.2392],[-65.6379,-32.2428],[-65.6475,-32.2418],[-65.6514,-32.2434],[-65.6596,-32.2366],[-65.6694,-32.2363],[-65.6722,-32.2332],[-65.6884,-32.2281],[-65.6928,-32.2283],[-65.6939,-32.213],[-65.6983,-32.2037],[-65.7173,-32.2119],[-65.7623,-32.2313],[-65.7803,-32.2399],[-65.7577,-32.2436],[-65.7577,-32.2659],[-65.7665,-32.2623],[-65.7872,-32.3085],[-65.7938,-32.3092],[-65.8101,-32.3088],[-65.827,-32.3223],[-65.831,-32.3298],[-65.8337,-32.3484],[-65.8367,-32.3595],[-65.8366,-32.3823],[-65.8617,-32.3839],[-65.8606,-32.3925],[-65.8766,-32.3956],[-65.8892,-32.3949],[-65.903,-32.3991],[-65.9093,-32.402],[-65.9319,-32.4021],[-65.957,-32.4305],[-65.9608,-32.4391],[-65.9546,-32.442],[-65.9601,-32.4673],[-65.9719,-32.5056],[-65.9782,-32.5237],[-66.0019,-32.5783],[-66.0041,-32.5827],[-65.9933,-32.5983],[-65.9947,-32.6041],[-65.9983,-32.6059],[-66.0028,-32.6182],[-66.0066,-32.6184],[-66.0103,-32.6275],[-66.0132,-32.628],[-66.0184,-32.6366],[-66.0245,-32.6378],[-66.037,-32.63],[-66.0372,-32.6272],[-66.0458,-32.6231],[-66.055,-32.6238],[-66.0576,-32.6203],[-66.0647,-32.6167],[-66.0633,-32.6129],[-66.0707,-32.61],[-66.0731,-32.6133],[-66.0962,-32.6301],[-66.1006,-32.6321],[-66.1051,-32.6532],[-66.099,-32.6528],[-66.1103,-32.6712],[-66.1148,-32.6743],[-66.1105,-32.6817],[-66.1138,-32.6906],[-66.1158,-32.7087],[-66.1231,-32.7185],[-66.1265,-32.7304],[-66.1347,-32.7426],[-66.1357,-32.7483],[-66.1328,-32.7539],[-66.1327,-32.7604]]]},"properties":{"id":452,"departamento":"LIBERTADOR GENERAL SAN MARTIN","cabecera":"","provincia":"SAN LUIS"}},
{"type":"Feature","geometry":{"type":"Polygon","coordinates":[[[-66.2029,-32.5724],[-66.223,-32.5847],[-66.2286,-32.6023],[-66.2362,-32.6144],[-66.2368,-32.6245],[-66.2348,-32.643],[-66.2362,-32.6572],[-66.2387,-32.6643],[-66.2362,-32.6716],[-66.2406,-32.6768],[-66.2428,-32.684],[-66.238,-32.6863],[-66.2354,-32.6922],[-66.2351,-32.6997],[-66.2382,-32.7121],[-66.2113,-32.7311],[-66.22,-32.7522],[-66.2233,-32.7732],[-66.2244,-32.7878],[-66.2239,-32.7986],[-66.2284,-32.8067],[-66.2249,-32.8222],[-66.2269,-32.8327],[-66.2221,-32.8412],[-66.2187,-32.8424],[-66.214,-32.8493],[-66.2095,-32.8674],[-66.217,-32.9126],[-66.2071,-32.913],[-66.1983,-32.9155],[-66.2004,-32.9203],[-66.1933,-32.9237],[-66.1879,-32.9512],[-66.1887,-32.98],[-66.1866,-32.9908],[-66.1907,-33.0003],[-66.2023,-33.0002],[-66.2048,-33.0024],[-66.2007,-33.0074],[-66.2083,-33.0203],[-66.2049,-33.0219],[-66.2004,-33.0319],[-66.2052,-33.0396],[-66.207,-33.0454],[-66.2108,-33.0471],[-66.2103,-33.053],[-66.2055,-33.056],[-66.207,-33.0726],[-66.2041,-33.077],[-66.2096,-33.0832],[-66.2152,-33.0843],[-66.2152,-33.1293],[-66.2152,-33.1347],[-66.2247,-33.1491],[-66.2283,-33.1686],[-66.1801,-33.2395],[-66.1371,-33.237],[-66.1054,-33.2219],[-66.1056,-33.226],[-66.1022,-33.2581],[-66.1089,-33.2676],[-66.1025,-33.2773],[-66.1194,-33.3388],[-66.1208,-33.3546],[-66.1235,-33.3651],[-66.1101,-33.3834],[-66.0825,-33.3761],[-66.0537,-33.3748],[-66.0475,-33.376],[-65.9855,-33.4081],[-65.9326,-33.4355],[-65.835,-33.4856],[-65.7929,-33.5075],[-65.7893,-33.4995],[-65.7912,-33.4444],[-65.792,-33.4405],[-65.7855,-33.4395],[-65.7868,-33.4458],[-65.7826,-33.4484],[-65.7708,-33.4389],[-65.7674,-33.4402],[-65.7697,-33.4463],[-65.7631,-33.4522],[-65.759,-33.4595],[-65.7537,-33.4616],[-65.7437,-33.4611],[-65.738,-33.4567],[-65.7338,-33.4573],[-65.7387,-33.4668],[-65.7355,-33.47],[-65.7297,-33.468],[-65.7235,-33.4695],[-65.7088,-33.4673],[-65.557,-33.4698],[-65.5559,-33.4625],[-65.5516,-33.4526],[-65.557,-33.4384],[-65.5564,-33.4327],[-65.5637,-33.4118],[-65.5713,-33.4048],[-65.5738,-33.4005],[-65.5773,-33.3883],[-65.5837,-33.3805],[-65.5978,-33.359],[-65.6019,-33.3514],[-65.6103,-33.3416],[-65.613,-33.3357],[-65.6134,-33.3197],[-65.6153,-33.3112],[-65.6139,-33.3015],[-65.6077,-33.2867],[-65.6084,-33.284],[-65.6167,-33.2737],[-65.621,-33.2568],[-65.6233,-33.2515],[-65.6232,-33.2433],[-65.6262,-33.2347],[-65.625,-33.2258],[-65.6225,-33.2199],[-65.6227,-33.2133],[-65.6118,-33.2047],[-65.6009,-33.1936],[-65.6,-33.1873],[-65.6039,-33.1762],[-65.6046,-33.1688],[-65.602,-33.1493],[-65.6024,-33.1445],[-65.6061,-33.1354],[-65.6131,-33.1092],[-65.6135,-33.1044],[-65.6115,-33.083],[-65.6166,-33.0756],[-65.6056,-33.0747],[-65.6081,-33.0545],[-65.6012,-33.0542],[-65.5708,-33.0568],[-65.5652,-33.0429],[-65.557,-33.0283],[-65.5511,-33.0194],[-65.5517,-33.0124],[-65.56,-33.0064],[-65.5696,-33.011],[-65.578,-33.0122],[-65.5733,-32.9717],[-65.5651,-32.9716],[-65.5659,-32.9429],[-65.5623,-32.9428],[-65.555,-32.9327],[-65.5379,-32.9286],[-65.5381,-32.9235],[-65.533,-32.9135],[-65.5193,-32.9124],[-65.5089,-32.9008],[-65.5137,-32.8944],[-65.5164,-32.8934],[-65.5305,-32.8815],[-65.5522,-32.8815],[-65.5699,-32.8748],[-65.5786,-32.8735],[-65.6117,-32.8722],[-65.6158,-32.8797],[-65.6166,-32.9026],[-65.6154,-32.9073],[-65.6206,-32.9202],[-65.631,-32.9294],[-65.6342,-32.9373],[-65.6469,-32.9414],[-65.648,-32.943],[-65.6631,-32.9418],[-65.6656,-32.9433],[-65.6814,-32.9396],[-65.6859,-32.9335],[-65.6976,-32.932],[-65.7178,-32.9257],[-65.7147,-32.9121],[-65.7182,-32.9041],[-65.7186,-32.8974],[-65.7405,-32.8817],[-65.7414,-32.8721],[-65.7462,-32.8635],[-65.7512,-32.8601],[-65.7593,-32.8501],[-65.7699,-32.8418],[-65.768,-32.8379],[-65.7735,-32.8275],[-65.7795,-32.8267],[-65.7804,-32.8196],[-65.7945,-32.8146],[-65.8013,-32.814],[-65.8108,-32.8168],[-65.8326,-32.8136],[-65.8363,-32.7981],[-65.8415,-32.7941],[-65.8462,-32.7944],[-65.849,-32.8007],[-65.849,-32.81],[-65.8519,-32.8187],[-65.8578,-32.8277],[-65.8648,-32.8436],[-65.8642,-32.8511],[-65.8819,-32.8459],[-65.891,-32.8418],[-65.8991,-32.84],[-65.9103,-32.8329],[-65.9208,-32.8344],[-65.9287,-32.8298],[-65.935,-32.8301],[-65.9415,-32.8223],[-65.9408,-32.8187],[-65.945,-32.8141],[-65.9508,-32.8146],[-65.955,-32.8121],[-65.9606,-32.818],[-65.9679,-32.8222],[-65.9734,-32.8189],[-65.9784,-32.8124],[-65.9882,-32.8104],[-65.9984,-32.8065],[-66.0129,-32.8069],[-66.0131,-32.8021],[-66.0223,-32.791],[-66.0336,-32.7885],[-66.04,-32.7903],[-66.0452,-32.7868],[-66.0527,-32.7871],[-66.056,-32.7931],[-66.0671,-32.792],[-66.0762,-32.7946],[-66.0829,-32.7936],[-66.0878,-32.7891],[-66.0839,-32.7844],[-66.0873,-32.7818],[-66.0947,-32.7803],[-66.1117,-32.7673],[-66.1244,-32.7621],[-66.1327,-32.7604],[-66.1406,-32.7548],[-66.1492,-32.7505],[-66.1563,-32.7453],[-66.1645,-32.7431],[-66.1675,-32.7382],[-66.1628,-32.7205],[-66.1598,-32.7149],[-66.1579,-32.7053],[-66.1478,-32.6897],[-66.1489,-32.6802],[-66.1441,-32.676],[-66.1512,-32.6603],[-66.1511,-32.6521],[-66.1543,-32.6494],[-66.1653,-32.648],[-66.184,-32.6512],[-66.1789,-32.6342],[-66.1839,-32.63],[-66.1843,-32.624],[-66.1803,-32.6189],[-66.1857,-32.6116],[-66.1856,-32.6054],[-66.1884,-32.5948],[-66.1876,-32.5883],[-66.1927,-32.5878],[-66.1947,-32.5814],[-66.2016,-32.5822],[-66.2029,-32.5724]]]},"properties":{"id":453,"departamento":"CORONEL PRINGLES","cabecera":"LA TOMA","provincia":"SAN LUIS"}},
{"type":"Feature","geometry":{"type":"Polygon","coordinates":[[[-65.7173,-32.2119],[-65.6983,-32.2037],[-65.6939,-32.213],[-65.6928,-32.2283],[-65.6884,-32.2281],[-65.6722,-32.2332],[-65.6694,-32.2363],[-65.6596,-32.2366],[-65.6514,-32.2434],[-65.6475,-32.2418],[-65.6379,-32.2428],[-65.6347,-32.2392],[-65.6217,-32.2451],[-65.6193,-32.2439],[-65.6011,-32.2463],[-65.5845,-32.2501],[-65.5796,-32.2539],[-65.5807,-32.2642],[-65.4751,-32.2768],[-65.4758,-32.2642],[-65.4707,-32.2569],[-65.4647,-32.2581],[-65.462,-32.2638],[-65.456,-32.2687],[-65.4419,-32.2698],[-65.4352,-32.2641],[-65.4278,-32.267],[-65.4167,-32.2632],[-65.4051,-32.2686],[-65.4078,-32.2798],[-65.4034,-32.2851],[-65.4047,-32.2934],[-65.409,-32.2953],[-65.4078,-32.3052],[-65.4119,-32.313],[-65.4155,-32.314],[-65.4172,-32.3194],[-65.4142,-32.3316],[-65.4148,-32.3378],[-65.4096,-32.3399],[-65.4045,-32.3543],[-65.3972,-32.3582],[-65.3898,-32.3571],[-65.3894,-32.3608],[-65.3804,-32.3632],[-65.3812,-32.3717],[-65.3865,-32.378],[-65.3842,-32.3852],[-65.3883,-32.3891],[-65.384,-32.3938],[-65.3894,-32.3983],[-65.3856,-32.405],[-65.3966,-32.4101],[-65.403,-32.4176],[-65.4096,-32.4303],[-65.4037,-32.4336],[-65.4047,-32.4491],[-65.4112,-32.4589],[-65.4168,-32.4565],[-65.4198,-32.4615],[-65.4297,-32.467],[-65.4286,-32.4891],[-65.4222,-32.4894],[-65.4223,-32.4997],[-65.421,-32.5087],[-65.4188,-32.5121],[-65.4324,-32.5228],[-65.4295,-32.5328],[-65.4228,-32.5363],[-65.4114,-32.5337],[-65.4082,-32.5362],[-65.406,-32.5331],[-65.3884,-32.5368],[-65.3734,-32.5466],[-65.3619,-32.55],[-65.3489,-32.5526],[-65.3468,-32.5518],[-65.3349,-32.5369],[-65.3302,-32.5324],[-65.3154,-32.5293],[-65.2986,-32.5278],[-65.2935,-32.5303],[-65.2901,-32.5355],[-65.2792,-32.5411],[-65.2767,-32.546],[-65.2617,-32.5468],[-65.2584,-32.5378],[-65.2601,-32.5357],[-65.2551,-32.5204],[-65.2506,-32.5145],[-65.2438,-32.5125],[-65.2391,-32.5031],[-65.2389,-32.4933],[-65.2309,-32.4948],[-65.2225,-32.4846],[-65.2092,-32.487],[-65.2011,-32.4902],[-65.1983,-32.4932],[-65.1513,-32.5014],[-65.1494,-32.487],[-65.0848,-32.4989],[-65.0816,-32.4679],[-65.0276,-32.4793],[-65.0141,-32.483],[-65.0067,-32.483],[-65.0073,-32.4732],[-65.0011,-32.4747],[-64.9995,-32.4825],[-64.9834,-32.4826],[-64.9351,-32.4789],[-64.9006,-32.4798],[-64.9146,-32.4732],[-64.9198,-32.4667],[-64.9198,-32.4529],[-64.9217,-32.4365],[-64.9237,-32.4287],[-64.9293,-32.4185],[-64.9278,-32.414],[-64.9231,-32.409],[-64.9194,-32.4014],[-64.9198,-32.388],[-64.9214,-32.3792],[-64.9201,-32.369],[-64.9273,-32.3579],[-64.9253,-32.3504],[-64.9263,-32.3457],[-64.9242,-32.3367],[-64.9253,-32.3255],[-64.9347,-32.3131],[-64.9403,-32.3002],[-64.9457,-32.3026],[-64.9548,-32.3095],[-64.9595,-32.316],[-64.9731,-32.319],[-64.977,-32.3211],[-64.9849,-32.3173],[-64.9959,-32.3138],[-65.0029,-32.3162],[-65.0267,-32.3155],[-65.0355,-32.3172],[-65.0447,-32.3148],[-65.0552,-32.3141],[-65.0671,-32.3175],[-65.0745,-32.3153],[-65.087,-32.3135],[-65.2114,-32.3256],[-65.2088,-32.3232],[-65.2096,-32.3098],[-65.2078,-32.3026],[-65.2129,-32.2977],[-65.2128,-32.2917],[-65.2183,-32.2864],[-65.2193,-32.2797],[-65.2132,-32.272],[-65.2147,-32.2677],[-65.2118,-32.2575],[-65.2089,-32.2533],[-65.2127,-32.2412],[-65.2104,-32.2349],[-65.2178,-32.2252],[-65.2204,-32.2189],[-65.225,-32.2177],[-65.2316,-32.2105],[-65.2323,-32.2017],[-65.2279,-32.1942],[-65.2299,-32.1842],[-65.2258,-32.1787],[-65.2255,-32.1669],[-65.2315,-32.1631],[-65.234,-32.1547],[-65.2311,-32.1481],[-65.234,-32.1448],[-65.2364,-32.134],[-65.2348,-32.129],[-65.2425,-32.1207],[-65.2359,-32.1166],[-65.2362,-32.1112],[-65.2402,-32.1041],[-65.2449,-32.0901],[-65.2544,-32.0892],[-65.2593,-32.0812],[-65.2707,-32.074],[-65.277,-32.0716],[-65.284,-32.0656],[-65.2923,-32.0629],[-65.2932,-32.0583],[-65.2986,-32.0578],[-65.305,-32.053],[-65.3102,-32.0525],[-65.313,-32.0415],[-65.3178,-32.0403],[-65.3315,-32.0329],[-65.6089,-31.9072],[-65.6285,-31.8983],[-65.7701,-31.8886],[-65.7795,-31.8881],[-65.7944,-31.8922],[-65.8251,-31.8971],[-65.8221,-31.9561],[-65.8217,-32.0159],[-65.8159,-32.0401],[-65.8127,-32.0478],[-65.8112,-32.0593],[-65.7243,-32.0516],[-65.706,-32.0568],[-65.6946,-32.0615],[-65.6839,-32.0626],[-65.71,-32.1782],[-65.7173,-32.2119]]]},"properties":{"id":454,"departamento":"JUNIN","cabecera":"SANTA ROSA DE CONLARA","provincia":"SAN LUIS"}},
{"type":"Feature","geometry":{"type":"Polygon","coordinates":[[[-67.2665,-32.3393],[-67.2655,-32.3598],[-67.3296,-32.3588],[-67.3277,-32.366],[-67.3192,-32.3717],[-67.3176,-32.3838],[-67.3202,-32.3879],[-67.3122,-32.4005],[-67.3111,-32.4112],[-67.3068,-32.4139],[-67.3101,-32.4247],[-67.3032,-32.4315],[-67.2959,-32.4314],[-67.2909,-32.439],[-67.2901,-32.444],[-67.2975,-32.4465],[-67.2959,-32.4616],[-67.3014,-32.4707],[-67.2955,-32.4799],[-67.2953,-32.4878],[-67.2926,-32.4902],[-67.2936,-32.4956],[-67.2865,-32.501],[-67.284,-32.5099],[-67.2861,-32.5196],[-67.2936,-32.5198],[-67.2943,-32.5282],[-67.2967,-32.5351],[-67.2926,-32.5393],[-67.2853,-32.534],[-67.2804,-32.5347],[-67.2741,-32.5389],[-67.2678,-32.5486],[-67.2621,-32.5536],[-67.2623,-32.5571],[-67.2682,-32.561],[-67.268,-32.571],[-67.2636,-32.5766],[-67.2464,-32.5901],[-67.2484,-32.5946],[-67.244,-32.6044],[-67.2448,-32.61],[-67.2505,-32.6123],[-67.2568,-32.6204],[-67.2539,-32.6294],[-67.2372,-32.6349],[-67.235,-32.6446],[-67.2371,-32.6501],[-67.235,-32.6572],[-67.2301,-32.6609],[-67.2292,-32.6688],[-67.2265,-32.673],[-67.2243,-32.6828],[-67.2129,-32.6896],[-67.2088,-32.6864],[-67.2022,-32.6906],[-67.196,-32.6922],[-67.1889,-32.6972],[-67.1921,-32.7043],[-67.1799,-32.7181],[-67.1826,-32.7289],[-67.1765,-32.741],[-67.17,-32.7499],[-67.1669,-32.7589],[-67.1671,-32.7634],[-67.1713,-32.7648],[-67.1814,-32.7649],[-67.1857,-32.7717],[-67.183,-32.7735],[-67.1825,-32.7809],[-67.1765,-32.7894],[-67.1791,-32.7976],[-67.1767,-32.8024],[-67.178,-32.8107],[-67.176,-32.8126],[-67.1774,-32.8205],[-67.1839,-32.8266],[-67.1841,-32.8297],[-67.1926,-32.8399],[-67.2008,-32.8407],[-67.2028,-32.8445],[-67.2095,-32.8487],[-67.2075,-32.8533],[-67.2094,-32.8571],[-67.2271,-32.8599],[-67.2309,-32.8622],[-67.2312,-32.8669],[-67.2276,-32.87],[-67.2273,-32.877],[-67.2325,-32.888],[-67.2311,-32.8979],[-67.227,-32.9025],[-67.2144,-32.9089],[-67.2124,-32.9118],[-67.2118,-32.9221],[-67.2142,-32.9273],[-67.2094,-32.9355],[-67.2104,-32.9459],[-67.2015,-32.9565],[-67.2039,-32.9632],[-67.2014,-32.9733],[-67.1971,-32.9803],[-67.1916,-32.9835],[-67.1935,-32.9895],[-67.1916,-32.996],[-67.1882,-33],[-67.1795,-33.0049],[-67.1828,-33.0086],[-67.1843,-33.0163],[-67.1826,-33.0242],[-67.1834,-33.0392],[-67.1908,-33.0435],[-67.1965,-33.0427],[-67.1936,-33.0494],[-67.1871,-33.0524],[-67.1769,-33.0648],[-67.1779,-33.0706],[-67.1745,-33.0782],[-67.1835,-33.087],[-67.1732,-33.0868],[-67.0196,-33.0792],[-67.0204,-33.085],[-67.014,-33.0857],[-67.0144,-33.1046],[-67.0074,-33.1048],[-67.0073,-33.0958],[-66.9726,-33.0997],[-66.9733,-33.1408],[-66.9243,-33.147],[-66.926,-33.1563],[-66.8099,-33.1704],[-66.8116,-33.1585],[-66.8001,-33.115],[-66.6818,-33.1387],[-66.6833,-33.1472],[-66.6767,-33.1463],[-66.6677,-33.1676],[-66.5795,-33.2066],[-66.5828,-33.1896],[-66.5807,-33.1852],[-66.5697,-33.1746],[-66.5637,-33.1712],[-66.5592,-33.1645],[-66.513,-33.1313],[-66.518,-33.1267],[-66.5161,-33.1231],[-66.517,-33.1137],[-66.5154,-33.1085],[-66.5054,-33.113],[-66.5039,-33.1041],[-66.5011,-33.1033],[-66.3632,-33.1018],[-66.3611,-33.1287],[-66.3442,-33.1313],[-66.3435,-33.1282],[-66.3218,-33.1313],[-66.315,-33.1304],[-66.3028,-33.1264],[-66.2876,-33.1281],[-66.2885,-33.1205],[-66.2795,-33.1238],[-66.2716,-33.1313],[-66.2567,-33.1376],[-66.2521,-33.1357],[-66.2435,-33.1375],[-66.2305,-33.1306],[-66.2152,-33.1293],[-66.2152,-33.0843],[-66.2096,-33.0832],[-66.2041,-33.077],[-66.207,-33.0726],[-66.2055,-33.056],[-66.2103,-33.053],[-66.2108,-33.0471],[-66.207,-33.0454],[-66.2052,-33.0396],[-66.2004,-33.0319],[-66.2049,-33.0219],[-66.2083,-33.0203],[-66.2007,-33.0074],[-66.2048,-33.0024],[-66.2023,-33.0002],[-66.1907,-33.0003],[-66.1866,-32.9908],[-66.1887,-32.98],[-66.1879,-32.9512],[-66.1933,-32.9237],[-66.2004,-32.9203],[-66.1983,-32.9155],[-66.2071,-32.913],[-66.217,-32.9126],[-66.2095,-32.8674],[-66.214,-32.8493],[-66.2187,-32.8424],[-66.2221,-32.8412],[-66.2269,-32.8327],[-66.2249,-32.8222],[-66.2284,-32.8067],[-66.2239,-32.7986],[-66.2244,-32.7878],[-66.2233,-32.7732],[-66.22,-32.7522],[-66.2113,-32.7311],[-66.2382,-32.7121],[-66.2351,-32.6997],[-66.2354,-32.6922],[-66.238,-32.6863],[-66.2428,-32.684],[-66.2406,-32.6768],[-66.2362,-32.6716],[-66.2387,-32.6643],[-66.2362,-32.6572],[-66.2348,-32.643],[-66.2368,-32.6245],[-66.2362,-32.6144],[-66.2286,-32.6023],[-66.223,-32.5847],[-66.2029,-32.5724],[-66.2064,-32.5707],[-66.2145,-32.5718],[-66.2189,-32.5667],[-66.2184,-32.5625],[-66.2217,-32.5593],[-66.2285,-32.5574],[-66.2337,-32.5618],[-66.233,-32.5647],[-66.2385,-32.5684],[-66.2466,-32.5669],[-66.2559,-32.5713],[-66.2526,-32.5612],[-66.2496,-32.5575],[-66.2362,-32.5492],[-66.2349,-32.5347],[-66.2135,-32.5169],[-66.2086,-32.5059],[-66.211,-32.4824],[-66.2137,-32.4344],[-66.2191,-32.433],[-66.2141,-32.4258],[-66.2147,-32.4061],[-66.2076,-32.3978],[-66.2046,-32.3861],[-66.198,-32.3759],[-66.2042,-32.3679],[-66.2035,-32.3479],[-66.1974,-32.3444],[-66.2291,-32.3379],[-66.2678,-32.3422],[-66.3152,-32.3371],[-66.3719,-32.3431],[-66.3968,-32.3399],[-66.4359,-32.3359],[-66.5478,-32.3447],[-66.6466,-32.3652],[-66.7597,-32.3623],[-66.8418,-32.3624],[-66.9245,-32.3627],[-66.9922,-32.381],[-67.0068,-32.3862],[-67.0106,-32.3892],[-67.0153,-32.3856],[-67.0352,-32.3735],[-67.042,-32.3717],[-67.0851,-32.3784],[-67.1214,-32.376],[-67.1603,-32.3714],[-67.1777,-32.3645],[-67.211,-32.3607],[-67.2665,-32.3393]]]},"properties":{"id":455,"departamento":"BELGRANO","cabecera":"VILLA GENERAL ROCA","provincia":"SAN LUIS"}}
]}