{"type":"FeatureCollection", "features": [
{"type":"Feature","geometry":{"type":"Polygon","coordinates":[[[-61.7129,-33.0929],[-61.7018,-33.096],[-61.6925,-33.0959],[-61.6801,-33.0919],[-61.6613,-33.09],[-61.6541,-33.0864],[-61.6426,-33.0863],[-61.6348,-33.069],[-61.619,-33.0711],[-61.6008,-33.0685],[-61.5922,-33.0689],[-61.5873,-33.0656],[-61.5789,-33.0683],[-61.5705,-33.0667],[-61.5546,-33.0556],[-61.5478,-33.0455],[-61.5422,-33.0436],[-61.5264,-33.044],[-61.5065,-33.0336],[-61.4886,-33.031],[-61.4666,-33.0236],[-61.4627,-33.0245],[-61.4441,-33.0166],[-61.4248,-33.0171],[-61.4194,-33.0133],[-61.4029,-33.0119],[-61.3903,-33.0088],[-61.3741,-33.0003],[-61.3652,-33.009],[-61.3579,-33.0048],[-61.3403,-33.0027],[-61.3117,-32.9901],[-61.2987,-32.989],[-61.2873,-32.9775],[-61.2774,-32.9754],[-61.2724,-32.9684],[-61.259,-32.9658],[-61.2358,-32.953],[-61.2447,-32.9475],[-61.2279,-32.9256],[-61.2246,-32.9185],[-61.2097,-32.9094],[-61.2072,-32.9051],[-61.1981,-32.8941],[-61.1993,-32.8804],[-61.1823,-32.8656],[-61.178,-32.8596],[-61.1619,-32.8485],[-61.1464,-32.8424],[-61.1347,-32.8399],[-61.1235,-32.8343],[-61.1011,-32.8266],[-61.0849,-32.8173],[-61.0764,-32.8144],[-61.0588,-32.801],[-61.0527,-32.7908],[-61.0572,-32.784],[-61.0518,-32.7807],[-61.0512,-32.7721],[-61.0379,-32.7565],[-61.0345,-32.755],[-61.0279,-32.7427],[-61.0174,-32.7317],[-61.0175,-32.7261],[-61.0117,-32.7235],[-61.0124,-32.7172],[-61.0013,-32.7031],[-60.9913,-32.6952],[-60.9834,-32.6985],[-60.9538,-32.685],[-60.9457,-32.6852],[-60.9184,-32.678],[-60.9123,-32.6805],[-60.8886,-32.6713],[-60.8788,-32.6801],[-60.8668,-32.6794],[-60.8641,-32.6709],[-60.8554,-32.6652],[-60.8474,-32.6556],[-60.8159,-32.6421],[-60.8153,-32.6362],[-60.8182,-32.6215],[-60.8245,-32.6167],[-60.8334,-32.6003],[-60.8392,-32.5975],[-60.8497,-32.5594],[-60.8474,-32.5505],[-60.8529,-32.536],[-60.8478,-32.5311],[-60.8569,-32.5175],[-60.8526,-32.5141],[-60.8601,-32.5039],[-60.8504,-32.4914],[-60.8513,-32.4824],[-60.8555,-32.4775],[-60.8367,-32.4675],[-60.8278,-32.4607],[-60.8676,-32.454],[-60.8967,-32.4699],[-60.9236,-32.4657],[-60.9374,-32.4634],[-60.9689,-32.4582],[-60.9755,-32.4617],[-61.0121,-32.4545],[-61.017,-32.455],[-61.1066,-32.4442],[-61.1363,-32.4398],[-61.1909,-32.4338],[-61.1927,-32.4413],[-61.3236,-32.4173],[-61.4377,-32.3962],[-61.4675,-32.5134],[-61.4848,-32.5795],[-61.4713,-32.582],[-61.4882,-32.6494],[-61.5156,-32.7559],[-61.5109,-32.7568],[-61.5328,-32.849],[-61.5183,-32.8515],[-61.6184,-32.8726],[-61.6424,-32.8855],[-61.669,-32.964],[-61.7129,-33.0929]]]},"properties":{"id":402,"departamento":"IRIONDO","cabecera":"CA¥ADA DE GOMEZ","provincia":"SANTA FE"}},
{"type":"Feature","geometry":{"type":"Polygon","coordinates":[[[-60.1364,-30.1298],[-60.1327,-30.1399],[-60.1451,-30.1564],[-60.1541,-30.1659],[-60.1747,-30.1683],[-60.1851,-30.161],[-60.1851,-30.149],[-60.1607,-30.136],[-60.1576,-30.1275],[-60.1626,-30.1255],[-60.1753,-30.1283],[-60.1828,-30.1255],[-60.1983,-30.1245],[-60.2063,-30.1103],[-60.2049,-30.0966],[-60.2121,-30.0701],[-60.2413,-30.0568],[-60.2461,-30.0559],[-60.2741,-30.0402],[-60.2835,-30.0377],[-60.2897,-30.0324],[-60.2796,-29.9814],[-60.4218,-29.9582],[-60.4925,-29.9469],[-60.5495,-29.9374],[-60.587,-29.9328],[-60.6112,-29.929],[-60.7193,-29.9128],[-60.7204,-29.9121],[-60.7212,-29.9201],[-60.7145,-29.9225],[-60.7108,-29.9405],[-60.6975,-29.9483],[-60.7047,-29.9598],[-60.6931,-29.9645],[-60.6979,-29.9749],[-60.7146,-29.9762],[-60.7197,-29.9825],[-60.7213,-29.9917],[-60.7173,-29.9982],[-60.718,-30.0107],[-60.7225,-30.0227],[-60.7298,-30.0269],[-60.7389,-30.0252],[-60.7377,-30.0377],[-60.7397,-30.0459],[-60.7486,-30.0609],[-60.7447,-30.0753],[-60.7517,-30.0811],[-60.7437,-30.0911],[-60.7392,-30.091],[-60.7353,-30.1056],[-60.7293,-30.11],[-60.7269,-30.1246],[-60.7183,-30.1319],[-60.7056,-30.1379],[-60.7041,-30.1555],[-60.7173,-30.1691],[-60.7256,-30.1931],[-60.7328,-30.1967],[-60.7315,-30.2029],[-60.7352,-30.2096],[-60.7305,-30.2199],[-60.7224,-30.2234],[-60.7175,-30.2325],[-60.7168,-30.2389],[-60.7035,-30.2385],[-60.7043,-30.2481],[-60.6987,-30.2503],[-60.6954,-30.2574],[-60.6879,-30.2549],[-60.6807,-30.2669],[-60.6643,-30.2604],[-60.6568,-30.2615],[-60.6486,-30.269],[-60.6536,-30.2737],[-60.6489,-30.287],[-60.6415,-30.2909],[-60.6502,-30.303],[-60.6568,-30.3062],[-60.6531,-30.3279],[-60.6553,-30.3372],[-60.6499,-30.3446],[-60.6629,-30.3428],[-60.671,-30.3517],[-60.6811,-30.3567],[-60.676,-30.3702],[-60.6826,-30.3768],[-60.6826,-30.3817],[-60.6665,-30.3908],[-60.6555,-30.4026],[-60.6661,-30.4019],[-60.6642,-30.4092],[-60.6556,-30.4116],[-60.6552,-30.4191],[-60.6628,-30.4225],[-60.6617,-30.4274],[-60.6522,-30.4263],[-60.6464,-30.4309],[-60.6561,-30.4393],[-60.6486,-30.4411],[-60.6528,-30.4596],[-60.648,-30.4768],[-60.6552,-30.4952],[-60.6472,-30.5028],[-60.6541,-30.5058],[-60.6555,-30.5127],[-60.6646,-30.5083],[-60.6808,-30.5109],[-60.6869,-30.5155],[-60.6763,-30.5263],[-60.6865,-30.5315],[-60.6804,-30.5463],[-60.6742,-30.5504],[-60.6654,-30.5514],[-60.661,-30.5578],[-60.6602,-30.5656],[-60.6641,-30.5734],[-60.6555,-30.5727],[-60.6541,-30.5803],[-60.6479,-30.5851],[-60.6401,-30.5816],[-60.6403,-30.5965],[-60.6246,-30.5983],[-60.6191,-30.5966],[-60.615,-30.6081],[-60.616,-30.6135],[-60.6221,-30.6188],[-60.6171,-30.6241],[-60.6238,-30.6351],[-60.6204,-30.6403],[-60.6192,-30.6533],[-60.6115,-30.6548],[-60.6138,-30.6639],[-60.6054,-30.6685],[-60.5909,-30.6688],[-60.5956,-30.6875],[-60.601,-30.6892],[-60.6022,-30.6983],[-60.6082,-30.7057],[-60.6037,-30.7149],[-60.6116,-30.7182],[-60.6114,-30.7254],[-60.6252,-30.7328],[-60.6217,-30.7361],[-60.6225,-30.7493],[-60.6404,-30.752],[-60.6441,-30.7564],[-60.65,-30.7487],[-60.6585,-30.7446],[-60.6744,-30.7502],[-60.6813,-30.7497],[-60.688,-30.756],[-60.6909,-30.7495],[-60.7102,-30.7593],[-60.7161,-30.7659],[-60.7245,-30.7705],[-60.7166,-30.7786],[-60.7207,-30.7896],[-60.7262,-30.7842],[-60.7303,-30.7947],[-60.7488,-30.7979],[-60.7505,-30.8034],[-60.7609,-30.8102],[-60.7673,-30.8055],[-60.7739,-30.8074],[-60.7836,-30.8023],[-60.7812,-30.7931],[-60.7844,-30.7883],[-60.7946,-30.7853],[-60.8141,-30.7965],[-60.8228,-30.8046],[-60.8302,-30.8089],[-60.8289,-30.8212],[-60.8309,-30.8274],[-60.8221,-30.8294],[-60.8101,-30.836],[-60.808,-30.8473],[-60.8019,-30.8464],[-60.8048,-30.8561],[-60.7957,-30.8554],[-60.7909,-30.86],[-60.7926,-30.871],[-60.7825,-30.881],[-60.7833,-30.887],[-60.7799,-30.8941],[-60.7964,-30.8934],[-60.7987,-30.8897],[-60.8095,-30.891],[-60.8184,-30.8963],[-60.8314,-30.8893],[-60.849,-30.8984],[-60.8532,-30.9038],[-60.8441,-30.9082],[-60.8404,-30.92],[-60.8275,-30.9225],[-60.8217,-30.9217],[-60.8261,-30.9347],[-60.8349,-30.9405],[-60.8305,-30.9443],[-60.8334,-30.9536],[-60.826,-30.9577],[-60.8359,-30.9621],[-60.8257,-30.9827],[-60.8323,-30.9861],[-60.8341,-30.9925],[-60.8429,-30.9908],[-60.842,-30.9979],[-60.8534,-30.9933],[-60.8589,-30.9986],[-60.8503,-31.0065],[-60.835,-31.0097],[-60.8343,-31.0163],[-60.8162,-31.0148],[-60.8141,-31.0175],[-60.7418,-31.0307],[-60.6579,-31.0445],[-60.6661,-31.0861],[-60.6702,-31.1144],[-60.5921,-31.1272],[-60.5493,-31.1348],[-60.5583,-31.1714],[-60.5738,-31.1905],[-60.4495,-31.2155],[-60.4543,-31.2064],[-60.4438,-31.2011],[-60.4404,-31.1842],[-60.4411,-31.1699],[-60.432,-31.165],[-60.4209,-31.1667],[-60.4181,-31.1551],[-60.4043,-31.1544],[-60.399,-31.146],[-60.3888,-31.1415],[-60.3798,-31.146],[-60.3601,-31.1257],[-60.369,-31.119],[-60.3654,-31.1105],[-60.3609,-31.1082],[-60.3597,-31.094],[-60.3491,-31.0815],[-60.3454,-31.0681],[-60.3296,-31.0592],[-60.3273,-31.0518],[-60.3201,-31.0416],[-60.3277,-31.037],[-60.3318,-31.0308],[-60.3323,-31.0189],[-60.3227,-31.0044],[-60.3131,-30.9975],[-60.3188,-30.9884],[-60.3085,-30.9855],[-60.2999,-30.9786],[-60.2983,-30.9727],[-60.3037,-30.9632],[-60.2982,-30.9523],[-60.3008,-30.9466],[-60.2998,-30.9356],[-60.288,-30.922],[-60.2847,-30.9132],[-60.2864,-30.8902],[-60.2841,-30.8812],[-60.2842,-30.862],[-60.2762,-30.8521],[-60.2666,-30.8581],[-60.2597,-30.8662],[-60.251,-30.8642],[-60.2476,-30.8589],[-60.2512,-30.8438],[-60.2473,-30.8286],[-60.255,-30.8205],[-60.2578,-30.8124],[-60.2475,-30.7955],[-60.2549,-30.7844],[-60.256,-30.7713],[-60.2417,-30.765],[-60.2433,-30.7549],[-60.2477,-30.7442],[-60.2369,-30.726],[-60.2303,-30.7207],[-60.2229,-30.709],[-60.2243,-30.7007],[-60.2185,-30.6928],[-60.2122,-30.691],[-60.285,-30.6795],[-60.3404,-30.6715],[-60.3366,-30.6582],[-60.3406,-30.6455],[-60.3563,-30.6324],[-60.3678,-30.6262],[-60.3736,-30.6172],[-60.3834,-30.6108],[-60.3809,-30.5981],[-60.3776,-30.5945],[-60.3654,-30.5891],[-60.3625,-30.5833],[-60.3478,-30.5746],[-60.3362,-30.5571],[-60.3356,-30.5464],[-60.3388,-30.5395],[-60.3364,-30.5259],[-60.3418,-30.5119],[-60.3347,-30.506],[-60.3253,-30.505],[-60.3209,-30.4987],[-60.323,-30.4829],[-60.3323,-30.4789],[-60.3247,-30.4689],[-60.3079,-30.4569],[-60.2989,-30.4552],[-60.296,-30.4461],[-60.289,-30.4373],[-60.2743,-30.4347],[-60.2792,-30.4287],[-60.2772,-30.4247],[-60.2632,-30.4296],[-60.2553,-30.4254],[-60.251,-30.4194],[-60.2481,-30.4066],[-60.2448,-30.4042],[-60.2456,-30.3942],[-60.2328,-30.3904],[-60.231,-30.3835],[-60.2225,-30.3754],[-60.2165,-30.3752],[-60.1965,-30.3659],[-60.1983,-30.3578],[-60.2135,-30.3456],[-60.2025,-30.3404],[-60.1999,-30.327],[-60.2128,-30.3224],[-60.2134,-30.3129],[-60.2066,-30.2969],[-60.2,-30.2986],[-60.1932,-30.2952],[-60.185,-30.2974],[-60.1762,-30.2843],[-60.1811,-30.2796],[-60.1747,-30.2756],[-60.1754,-30.2688],[-60.1671,-30.2668],[-60.1673,-30.2503],[-60.1741,-30.2425],[-60.1607,-30.2343],[-60.1617,-30.2259],[-60.1674,-30.2204],[-60.1629,-30.2136],[-60.1517,-30.2116],[-60.1515,-30.2061],[-60.1458,-30.1952],[-60.15,-30.188],[-60.1432,-30.1842],[-60.1383,-30.1776],[-60.1301,-30.1746],[-60.1331,-30.1689],[-60.1267,-30.1622],[-60.1229,-30.1536],[-60.1224,-30.1366],[-60.1276,-30.1371],[-60.1364,-30.1298]]]},"properties":{"id":403,"departamento":"SAN JUSTO","cabecera":"SAN JUSTO","provincia":"SANTA FE"}},
{"type":"Feature","geometry":{"type":"Polygon","coordinates":[[[-60.8228,-30.8046],[-60.8305,-30.7935],[-60.8396,-30.7906],[-60.8409,-30.7848],[-60.8541,-30.7845],[-60.8638,-30.7798],[-60.8594,-30.7742],[-60.8729,-30.7657],[-60.8861,-30.7675],[-60.8914,-30.7655],[-60.8957,-30.7439],[-60.8924,-30.7375],[-60.9052,-30.7145],[-60.9122,-30.7101],[-60.9248,-30.7088],[-60.8925,-30.6718],[-60.9205,-30.6676],[-61.0257,-30.6501],[-61.079,-30.6409],[-61.0764,-30.6295],[-61.1785,-30.6122],[-61.2033,-30.7233],[-61.2098,-30.7504],[-61.2441,-30.9014],[-61.2664,-30.9978],[-61.2778,-31.0539],[-61.288,-31.0994],[-61.2896,-31.1121],[-61.3272,-31.2759],[-61.3318,-31.2752],[-61.3408,-31.3198],[-61.3598,-31.3966],[-61.3681,-31.432],[-61.3748,-31.4641],[-61.3736,-31.4643],[-61.3916,-31.5417],[-61.4292,-31.5353],[-61.442,-31.5887],[-61.447,-31.5879],[-61.45,-31.5994],[-61.4993,-31.5908],[-61.505,-31.6146],[-61.5018,-31.6152],[-61.533,-31.7459],[-61.5357,-31.7454],[-61.5414,-31.77],[-61.539,-31.7704],[-61.5588,-31.8526],[-61.3976,-31.8808],[-61.3928,-31.8604],[-61.39,-31.8491],[-61.3642,-31.8438],[-61.3547,-31.8322],[-61.2983,-31.8426],[-61.3008,-31.8343],[-61.1959,-31.8542],[-61.1943,-31.8656],[-61.1849,-31.878],[-61.1834,-31.8848],[-61.1702,-31.8338],[-61.1005,-31.8466],[-61.0763,-31.8506],[-61.0767,-31.8524],[-60.9931,-31.8667],[-60.9782,-31.8027],[-60.9727,-31.7792],[-60.95,-31.7322],[-60.9145,-31.74],[-60.9079,-31.712],[-60.9045,-31.7126],[-60.9006,-31.7003],[-60.9046,-31.6996],[-60.8679,-31.6769],[-60.8133,-31.6566],[-60.813,-31.6548],[-60.8288,-31.5922],[-60.7674,-31.6044],[-60.7604,-31.5927],[-60.7658,-31.5835],[-60.7571,-31.578],[-60.7634,-31.5663],[-60.7781,-31.5715],[-60.7764,-31.5592],[-60.766,-31.554],[-60.7681,-31.5482],[-60.7811,-31.5462],[-60.7895,-31.5419],[-60.7957,-31.535],[-60.7917,-31.527],[-60.7936,-31.5211],[-60.7868,-31.5148],[-60.7939,-31.5122],[-60.7896,-31.5061],[-60.7918,-31.501],[-60.7836,-31.4994],[-60.7836,-31.4886],[-60.7695,-31.4775],[-60.7807,-31.4728],[-60.7773,-31.4643],[-60.7864,-31.446],[-60.785,-31.4401],[-60.7899,-31.4273],[-60.801,-31.4233],[-60.8035,-31.4142],[-60.809,-31.4095],[-60.8026,-31.405],[-60.8104,-31.393],[-60.8081,-31.3859],[-60.7946,-31.3867],[-60.7859,-31.3803],[-60.7837,-31.3736],[-60.7912,-31.3645],[-60.7886,-31.3573],[-60.7935,-31.3532],[-60.7999,-31.3543],[-60.8118,-31.3616],[-60.8204,-31.3608],[-60.8272,-31.3523],[-60.8307,-31.3597],[-60.8419,-31.3618],[-60.854,-31.3753],[-60.8724,-31.3732],[-60.8779,-31.3756],[-60.8856,-31.3852],[-60.9009,-31.3868],[-60.9016,-31.3819],[-60.8953,-31.3747],[-60.9028,-31.3703],[-60.9136,-31.3695],[-60.9181,-31.3612],[-60.9279,-31.3582],[-60.9315,-31.3522],[-60.9271,-31.3382],[-60.9178,-31.3375],[-60.9196,-31.3306],[-60.9129,-31.3263],[-60.908,-31.3108],[-60.9084,-31.3004],[-60.915,-31.2984],[-60.9203,-31.2867],[-60.9178,-31.2783],[-60.9052,-31.2745],[-60.9044,-31.2675],[-60.8961,-31.2674],[-60.897,-31.2548],[-60.8893,-31.2581],[-60.8862,-31.2515],[-60.8933,-31.2457],[-60.8789,-31.2435],[-60.8696,-31.2484],[-60.8681,-31.2437],[-60.859,-31.2451],[-60.8487,-31.2296],[-60.8399,-31.2133],[-60.8397,-31.2004],[-60.8454,-31.1947],[-60.8414,-31.1915],[-60.8488,-31.1849],[-60.8432,-31.178],[-60.8331,-31.1802],[-60.8295,-31.1776],[-60.8358,-31.1657],[-60.8271,-31.1574],[-60.8246,-31.1459],[-60.8087,-31.1466],[-60.8112,-31.1413],[-60.8084,-31.1363],[-60.7909,-31.1362],[-60.786,-31.1322],[-60.7852,-31.1244],[-60.7919,-31.121],[-60.7882,-31.1158],[-60.7775,-31.1125],[-60.7816,-31.097],[-60.7926,-31.0964],[-60.802,-31.0916],[-60.8064,-31.103],[-60.8127,-31.1029],[-60.8196,-31.0903],[-60.8256,-31.0865],[-60.8281,-31.0742],[-60.839,-31.0691],[-60.8447,-31.0609],[-60.8349,-31.0526],[-60.8418,-31.0449],[-60.8331,-31.0391],[-60.8258,-31.0401],[-60.8117,-31.0324],[-60.8073,-31.0267],[-60.818,-31.0202],[-60.8141,-31.0175],[-60.8162,-31.0148],[-60.8343,-31.0163],[-60.835,-31.0097],[-60.8503,-31.0065],[-60.8589,-30.9986],[-60.8534,-30.9933],[-60.842,-30.9979],[-60.8429,-30.9908],[-60.8341,-30.9925],[-60.8323,-30.9861],[-60.8257,-30.9827],[-60.8359,-30.9621],[-60.826,-30.9577],[-60.8334,-30.9536],[-60.8305,-30.9443],[-60.8349,-30.9405],[-60.8261,-30.9347],[-60.8217,-30.9217],[-60.8275,-30.9225],[-60.8404,-30.92],[-60.8441,-30.9082],[-60.8532,-30.9038],[-60.849,-30.8984],[-60.8314,-30.8893],[-60.8184,-30.8963],[-60.8095,-30.891],[-60.7987,-30.8897],[-60.7964,-30.8934],[-60.7799,-30.8941],[-60.7833,-30.887],[-60.7825,-30.881],[-60.7926,-30.871],[-60.7909,-30.86],[-60.7957,-30.8554],[-60.8048,-30.8561],[-60.8019,-30.8464],[-60.808,-30.8473],[-60.8101,-30.836],[-60.8221,-30.8294],[-60.8309,-30.8274],[-60.8289,-30.8212],[-60.8302,-30.8089],[-60.8228,-30.8046]]]},"properties":{"id":404,"departamento":"LAS COLONIAS","cabecera":"ESPERANZA","provincia":"SANTA FE"}},
{"type":"Feature","geometry":{"type":"Polygon","coordinates":[[[-60.8278,-32.4607],[-60.8027,-32.4439],[-60.7944,-32.4557],[-60.8013,-32.472],[-60.7966,-32.4855],[-60.7951,-32.4956],[-60.7914,-32.5014],[-60.7859,-32.5002],[-60.7724,-32.4998],[-60.7653,-32.4936],[-60.748,-32.4826],[-60.7288,-32.4651],[-60.7238,-32.4561],[-60.7202,-32.44],[-60.7116,-32.3931],[-60.7123,-32.3833],[-60.7202,-32.3593],[-60.7216,-32.3421],[-60.719,-32.334],[-60.7121,-32.3257],[-60.7016,-32.3231],[-60.6823,-32.324],[-60.6788,-32.315],[-60.6828,-32.2865],[-60.6772,-32.2575],[-60.6735,-32.2449],[-60.6737,-32.224],[-60.6804,-32.209],[-60.6904,-32.1971],[-60.6971,-32.1824],[-60.7001,-32.169],[-60.7004,-32.1498],[-60.6947,-32.1288],[-60.6802,-32.1028],[-60.6621,-32.0852],[-60.6586,-32.0802],[-60.656,-32.0671],[-60.6581,-32.0507],[-60.6637,-32.0384],[-60.6728,-32.028],[-60.6844,-32.0121],[-60.6957,-32.0068],[-60.7045,-32.0004],[-60.7207,-31.9852],[-60.723,-31.9743],[-60.726,-31.9706],[-60.7343,-31.9456],[-60.7461,-31.9211],[-60.7476,-31.911],[-60.735,-31.8842],[-60.7356,-31.8798],[-60.7312,-31.8681],[-60.7416,-31.8684],[-60.7482,-31.8718],[-60.753,-31.8805],[-60.762,-31.8717],[-60.7784,-31.8789],[-60.7899,-31.8745],[-60.8014,-31.8771],[-60.8127,-31.8828],[-60.8262,-31.8834],[-60.8373,-31.8692],[-60.8373,-31.8557],[-60.8258,-31.8432],[-60.8266,-31.8307],[-60.8353,-31.8191],[-60.8283,-31.794],[-60.837,-31.7976],[-60.8452,-31.8077],[-60.853,-31.8235],[-60.9782,-31.8027],[-60.9931,-31.8667],[-61.0767,-31.8524],[-61.0763,-31.8506],[-61.1005,-31.8466],[-61.1702,-31.8338],[-61.1834,-31.8848],[-61.1849,-31.878],[-61.1943,-31.8656],[-61.1959,-31.8542],[-61.3008,-31.8343],[-61.2983,-31.8426],[-61.3547,-31.8322],[-61.3642,-31.8438],[-61.39,-31.8491],[-61.3928,-31.8604],[-61.3477,-31.869],[-61.378,-31.9915],[-61.3615,-32.0623],[-61.3553,-32.0851],[-61.3693,-32.1378],[-61.3725,-32.1372],[-61.3919,-32.2127],[-61.448,-32.2024],[-61.4718,-32.2941],[-61.4952,-32.3857],[-61.4377,-32.3962],[-61.3236,-32.4173],[-61.1927,-32.4413],[-61.1909,-32.4338],[-61.1363,-32.4398],[-61.1066,-32.4442],[-61.017,-32.455],[-61.0121,-32.4545],[-60.9755,-32.4617],[-60.9689,-32.4582],[-60.9374,-32.4634],[-60.9236,-32.4657],[-60.8967,-32.4699],[-60.8676,-32.454],[-60.8278,-32.4607]]]},"properties":{"id":405,"departamento":"SAN JERONIMO","cabecera":"CORONDA","provincia":"SANTA FE"}},
{"type":"Feature","geometry":{"type":"Polygon","coordinates":[[[-61.5166,-33.4075],[-61.5204,-33.4025],[-61.5566,-33.4022],[-61.7227,-33.4059],[-61.7856,-33.405],[-61.8818,-33.4064],[-61.9796,-33.406],[-62.0338,-33.4063],[-62.0938,-33.4068],[-62.0984,-33.4069],[-62.1383,-33.4078],[-62.2726,-33.5869],[-62.394,-33.7467],[-62.5141,-33.9054],[-62.608,-34.0282],[-62.8797,-34.3835],[-62.2682,-34.3836],[-61.817,-34.3836],[-61.7176,-34.3836],[-61.6488,-34.3195],[-61.5049,-34.1855],[-61.3323,-34.0251],[-61.1273,-33.8344],[-61.1254,-33.8302],[-61.1459,-33.8132],[-61.1487,-33.811],[-61.1652,-33.7972],[-61.1534,-33.7923],[-61.2184,-33.7088],[-61.3177,-33.5808],[-61.3699,-33.513],[-61.4222,-33.4456],[-61.4683,-33.4704],[-61.5166,-33.4075]]]},"properties":{"id":406,"departamento":"GENERAL LOPEZ","cabecera":"MELINCUE","provincia":"SANTA FE"}},
{"type":"Feature","geometry":{"type":"Polygon","coordinates":[[[-60.659,-32.8366],[-60.6629,-32.8365],[-60.7247,-32.8388],[-60.7815,-32.8411],[-60.7818,-32.8352],[-60.8073,-32.836],[-60.8199,-32.8379],[-60.8054,-32.8571],[-60.8611,-32.8879],[-60.8818,-32.9701],[-60.9246,-33.1481],[-60.9454,-33.1627],[-60.9439,-33.175],[-60.9449,-33.1897],[-60.9422,-33.1939],[-60.9459,-33.2034],[-60.9816,-33.1946],[-60.9951,-33.2326],[-60.9902,-33.2417],[-60.982,-33.2474],[-61.0016,-33.2498],[-60.9716,-33.2885],[-60.9662,-33.2883],[-60.9241,-33.3421],[-60.9146,-33.3258],[-60.9098,-33.3129],[-60.8951,-33.2967],[-60.8863,-33.2916],[-60.8809,-33.2939],[-60.8535,-33.2869],[-60.8355,-33.2753],[-60.8199,-33.269],[-60.8074,-33.2691],[-60.791,-33.2781],[-60.7815,-33.291],[-60.7819,-33.2943],[-60.7726,-33.305],[-60.7614,-33.3125],[-60.7392,-33.3167],[-60.7272,-33.3123],[-60.7145,-33.3096],[-60.7053,-33.3118],[-60.7034,-33.3251],[-60.6829,-33.337],[-60.6665,-33.3412],[-60.6585,-33.3408],[-60.6468,-33.3491],[-60.6388,-33.348],[-60.6248,-33.3556],[-60.6208,-33.3599],[-60.6092,-33.3634],[-60.5793,-33.3642],[-60.5749,-33.3604],[-60.5573,-33.3548],[-60.5338,-33.3416],[-60.5241,-33.3308],[-60.5143,-33.3285],[-60.5089,-33.318],[-60.5041,-33.3211],[-60.4915,-33.3175],[-60.4821,-33.3061],[-60.483,-33.303],[-60.4756,-33.2948],[-60.4706,-33.2803],[-60.4604,-33.2743],[-60.4624,-33.2696],[-60.4591,-33.2597],[-60.4532,-33.253],[-60.4295,-33.2339],[-60.4255,-33.2286],[-60.4172,-33.2265],[-60.4144,-33.2195],[-60.4026,-33.2051],[-60.3943,-33.2026],[-60.3902,-33.2079],[-60.3816,-33.2098],[-60.3774,-33.2074],[-60.3637,-33.2124],[-60.3539,-33.2078],[-60.3398,-33.2076],[-60.3384,-33.2026],[-60.3449,-33.1947],[-60.3452,-33.1865],[-60.3403,-33.1775],[-60.3604,-33.1804],[-60.3825,-33.1892],[-60.398,-33.1868],[-60.4242,-33.174],[-60.4346,-33.1654],[-60.4406,-33.1569],[-60.4515,-33.1495],[-60.467,-33.145],[-60.4934,-33.1314],[-60.5132,-33.1129],[-60.5224,-33.0992],[-60.5349,-33.0778],[-60.5544,-33.0536],[-60.5647,-33.0422],[-60.5859,-33.0248],[-60.6012,-33.006],[-60.6105,-32.9913],[-60.6136,-32.966],[-60.6169,-32.9539],[-60.6257,-32.9413],[-60.6502,-32.9267],[-60.6629,-32.9162],[-60.6762,-32.8996],[-60.6819,-32.8792],[-60.6793,-32.867],[-60.6697,-32.8601],[-60.6619,-32.8492],[-60.659,-32.8366]]]},"properties":{"id":407,"departamento":"ROSARIO","cabecera":"ROSARIO","provincia":"SANTA FE"}},
{"type":"Feature","geometry":{"type":"Polygon","coordinates":[[[-61.2072,-32.9051],[-61.1519,-32.9764],[-61.0619,-33.0923],[-61.1067,-33.1585],[-61.1203,-33.1585],[-61.1548,-33.1671],[-61.1326,-33.2336],[-61.147,-33.234],[-61.1686,-33.2462],[-61.0991,-33.335],[-61.1295,-33.3517],[-61.075,-33.4214],[-61.0668,-33.4317],[-61.0524,-33.4198],[-61.0426,-33.4145],[-61.0306,-33.4113],[-61.019,-33.4105],[-61.0011,-33.4029],[-60.9875,-33.3957],[-60.9806,-33.3884],[-60.9776,-33.3814],[-60.9548,-33.3708],[-60.9446,-33.3684],[-60.9337,-33.3593],[-60.9241,-33.3421],[-60.9662,-33.2883],[-60.9716,-33.2885],[-61.0016,-33.2498],[-60.982,-33.2474],[-60.9902,-33.2417],[-60.9951,-33.2326],[-60.9816,-33.1946],[-60.9459,-33.2034],[-60.9422,-33.1939],[-60.9449,-33.1897],[-60.9439,-33.175],[-60.9454,-33.1627],[-60.9246,-33.1481],[-60.8818,-32.9701],[-60.8611,-32.8879],[-60.8054,-32.8571],[-60.8199,-32.8379],[-60.8073,-32.836],[-60.7818,-32.8352],[-60.7815,-32.8411],[-60.7247,-32.8388],[-60.6629,-32.8365],[-60.659,-32.8366],[-60.6589,-32.8312],[-60.6786,-32.8158],[-60.6943,-32.8056],[-60.716,-32.7736],[-60.7221,-32.747],[-60.7221,-32.7277],[-60.7199,-32.6936],[-60.7214,-32.6807],[-60.7259,-32.6636],[-60.7423,-32.6403],[-60.7521,-32.6222],[-60.7524,-32.6147],[-60.7439,-32.5861],[-60.7438,-32.5765],[-60.7474,-32.5543],[-60.7552,-32.5371],[-60.7714,-32.5193],[-60.7762,-32.507],[-60.7724,-32.4998],[-60.7859,-32.5002],[-60.7914,-32.5014],[-60.7951,-32.4956],[-60.7966,-32.4855],[-60.8013,-32.472],[-60.7944,-32.4557],[-60.8027,-32.4439],[-60.8278,-32.4607],[-60.8367,-32.4675],[-60.8555,-32.4775],[-60.8513,-32.4824],[-60.8504,-32.4914],[-60.8601,-32.5039],[-60.8526,-32.5141],[-60.8569,-32.5175],[-60.8478,-32.5311],[-60.8529,-32.536],[-60.8474,-32.5505],[-60.8497,-32.5594],[-60.8392,-32.5975],[-60.8334,-32.6003],[-60.8245,-32.6167],[-60.8182,-32.6215],[-60.8153,-32.6362],[-60.8159,-32.6421],[-60.8474,-32.6556],[-60.8554,-32.6652],[-60.8641,-32.6709],[-60.8668,-32.6794],[-60.8788,-32.6801],[-60.8886,-32.6713],[-60.9123,-32.6805],[-60.9184,-32.678],[-60.9457,-32.6852],[-60.9538,-32.685],[-60.9834,-32.6985],[-60.9913,-32.6952],[-61.0013,-32.7031],[-61.0124,-32.7172],[-61.0117,-32.7235],[-61.0175,-32.7261],[-61.0174,-32.7317],[-61.0279,-32.7427],[-61.0345,-32.755],[-61.0379,-32.7565],[-61.0512,-32.7721],[-61.0518,-32.7807],[-61.0572,-32.784],[-61.0527,-32.7908],[-61.0588,-32.801],[-61.0764,-32.8144],[-61.0849,-32.8173],[-61.1011,-32.8266],[-61.1235,-32.8343],[-61.1347,-32.8399],[-61.1464,-32.8424],[-61.1619,-32.8485],[-61.178,-32.8596],[-61.1823,-32.8656],[-61.1993,-32.8804],[-61.1981,-32.8941],[-61.2072,-32.9051]]]},"properties":{"id":408,"departamento":"SAN LORENZO","cabecera":"CORONDA","provincia":"SANTA FE"}},
{"type":"Feature","geometry":{"type":"Polygon","coordinates":[[[-60.4495,-31.2155],[-60.4477,-31.2222],[-60.458,-31.236],[-60.4553,-31.2442],[-60.465,-31.2518],[-60.4552,-31.2632],[-60.4643,-31.2762],[-60.4782,-31.2851],[-60.4981,-31.3036],[-60.4986,-31.3122],[-60.4737,-31.3419],[-60.4858,-31.3568],[-60.4957,-31.3743],[-60.5092,-31.3886],[-60.5025,-31.4211],[-60.5355,-31.4422],[-60.5449,-31.4461],[-60.5567,-31.462],[-60.5465,-31.4608],[-60.5409,-31.4664],[-60.5352,-31.4667],[-60.5304,-31.472],[-60.5094,-31.4727],[-60.5079,-31.4857],[-60.5023,-31.4871],[-60.4935,-31.4807],[-60.4814,-31.495],[-60.4705,-31.497],[-60.451,-31.4971],[-60.4418,-31.502],[-60.4291,-31.5012],[-60.4235,-31.503],[-60.4031,-31.4992],[-60.3908,-31.4989],[-60.3958,-31.5088],[-60.3906,-31.5136],[-60.3804,-31.5182],[-60.3667,-31.5167],[-60.3575,-31.5116],[-60.3508,-31.5026],[-60.3435,-31.4999],[-60.3375,-31.506],[-60.333,-31.518],[-60.3267,-31.5229],[-60.306,-31.5351],[-60.2828,-31.5324],[-60.2579,-31.5357],[-60.244,-31.5304],[-60.2302,-31.5183],[-60.2223,-31.503],[-60.2195,-31.4933],[-60.2188,-31.4757],[-60.2071,-31.4652],[-60.1813,-31.4607],[-60.1491,-31.4483],[-60.1394,-31.4372],[-60.1384,-31.4134],[-60.1174,-31.3888],[-60.0961,-31.3706],[-60.0896,-31.3565],[-60.0869,-31.3398],[-60.0956,-31.3227],[-60.1057,-31.3108],[-60.1101,-31.2969],[-60.1056,-31.2899],[-60.0751,-31.2774],[-60.0255,-31.2591],[-60.0134,-31.2507],[-60.0014,-31.2369],[-59.9887,-31.2066],[-59.9848,-31.1934],[-59.9833,-31.1786],[-59.9848,-31.1664],[-59.9833,-31.1557],[-59.977,-31.1427],[-59.9634,-31.1199],[-59.9479,-31.1094],[-59.9254,-31.1051],[-59.9028,-31.0848],[-59.8779,-31.0562],[-59.846,-30.9999],[-59.8396,-30.9865],[-59.8261,-30.9717],[-59.8193,-30.9549],[-59.8182,-30.9425],[-59.8115,-30.9359],[-59.7779,-30.913],[-59.7701,-30.9057],[-59.7541,-30.8961],[-59.7348,-30.8766],[-59.7161,-30.8462],[-59.7106,-30.8343],[-59.7049,-30.8174],[-59.7015,-30.8012],[-59.7025,-30.7922],[-59.6994,-30.7691],[-59.6942,-30.7648],[-59.6652,-30.7489],[-59.6542,-30.7409],[-59.6399,-30.7278],[-59.6333,-30.7139],[-59.635,-30.7046],[-59.7309,-30.696],[-59.9744,-30.6739],[-60.0242,-30.6689],[-60.2049,-30.6531],[-60.2057,-30.6634],[-60.2106,-30.6707],[-60.2087,-30.686],[-60.2122,-30.691],[-60.2185,-30.6928],[-60.2243,-30.7007],[-60.2229,-30.709],[-60.2303,-30.7207],[-60.2369,-30.726],[-60.2477,-30.7442],[-60.2433,-30.7549],[-60.2417,-30.765],[-60.256,-30.7713],[-60.2549,-30.7844],[-60.2475,-30.7955],[-60.2578,-30.8124],[-60.255,-30.8205],[-60.2473,-30.8286],[-60.2512,-30.8438],[-60.2476,-30.8589],[-60.251,-30.8642],[-60.2597,-30.8662],[-60.2666,-30.8581],[-60.2762,-30.8521],[-60.2842,-30.862],[-60.2841,-30.8812],[-60.2864,-30.8902],[-60.2847,-30.9132],[-60.288,-30.922],[-60.2998,-30.9356],[-60.3008,-30.9466],[-60.2982,-30.9523],[-60.3037,-30.9632],[-60.2983,-30.9727],[-60.2999,-30.9786],[-60.3085,-30.9855],[-60.3188,-30.9884],[-60.3131,-30.9975],[-60.3227,-31.0044],[-60.3323,-31.0189],[-60.3318,-31.0308],[-60.3277,-31.037],[-60.3201,-31.0416],[-60.3273,-31.0518],[-60.3296,-31.0592],[-60.3454,-31.0681],[-60.3491,-31.0815],[-60.3597,-31.094],[-60.3609,-31.1082],[-60.3654,-31.1105],[-60.369,-31.119],[-60.3601,-31.1257],[-60.3798,-31.146],[-60.3888,-31.1415],[-60.399,-31.146],[-60.4043,-31.1544],[-60.4181,-31.1551],[-60.4209,-31.1667],[-60.432,-31.165],[-60.4411,-31.1699],[-60.4404,-31.1842],[-60.4438,-31.2011],[-60.4543,-31.2064],[-60.4495,-31.2155]]]},"properties":{"id":409,"departamento":"GARAY","cabecera":"HELVENCIA","provincia":"SANTA FE"}},
{"type":"Feature","geometry":{"type":"Polygon","coordinates":[[[-60.2122,-30.691],[-60.2087,-30.686],[-60.2106,-30.6707],[-60.2057,-30.6634],[-60.2049,-30.6531],[-60.0242,-30.6689],[-59.9744,-30.6739],[-59.7309,-30.696],[-59.635,-30.7046],[-59.6631,-30.682],[-59.6681,-30.676],[-59.6764,-30.6594],[-59.6784,-30.6469],[-59.6735,-30.6363],[-59.6509,-30.6089],[-59.6459,-30.597],[-59.6459,-30.5663],[-59.6492,-30.5425],[-59.6508,-30.5173],[-59.6503,-30.501],[-59.6538,-30.4878],[-59.6798,-30.4605],[-59.6939,-30.4531],[-59.7034,-30.4426],[-59.7034,-30.4281],[-59.699,-30.4153],[-59.6826,-30.383],[-59.6844,-30.356],[-59.668,-30.3336],[-59.6668,-30.3272],[-59.6723,-30.3205],[-59.6858,-30.3169],[-59.6935,-30.3131],[-59.7084,-30.2931],[-59.7113,-30.2841],[-59.7108,-30.2703],[-59.7073,-30.2667],[-59.6799,-30.2613],[-59.6635,-30.2567],[-59.6482,-30.2494],[-59.6392,-30.242],[-59.6259,-30.2115],[-59.6268,-30.1977],[-59.6309,-30.1822],[-59.6313,-30.168],[-59.628,-30.1549],[-59.6187,-30.1325],[-59.6161,-30.113],[-59.6121,-30.1025],[-59.5973,-30.0795],[-59.5897,-30.0619],[-59.5797,-30.0454],[-59.5685,-30.0164],[-59.5664,-30.0043],[-59.5702,-29.9967],[-59.5799,-29.989],[-59.5889,-29.9763],[-59.5916,-29.9687],[-59.5909,-29.9557],[-59.5926,-29.9398],[-59.6014,-29.9103],[-59.6047,-29.9027],[-59.6197,-29.8786],[-59.6556,-29.8534],[-59.6597,-29.8432],[-59.6585,-29.8299],[-59.6516,-29.818],[-59.6466,-29.8141],[-59.6354,-29.7963],[-59.6175,-29.7758],[-59.6135,-29.7363],[-59.6106,-29.7266],[-59.6104,-29.7149],[-59.6142,-29.6883],[-59.614,-29.6688],[-59.6087,-29.6516],[-59.6047,-29.6281],[-59.6023,-29.6076],[-59.6023,-29.5936],[-59.5999,-29.5836],[-59.5902,-29.5698],[-59.5926,-29.5543],[-59.5892,-29.5441],[-59.5914,-29.5341],[-59.5895,-29.5172],[-59.5845,-29.5024],[-59.5828,-29.4815],[-59.5811,-29.4765],[-59.58,-29.4598],[-59.5821,-29.4529],[-59.5812,-29.4766],[-59.6158,-29.4645],[-59.6433,-29.4541],[-59.6581,-29.4553],[-59.6606,-29.4632],[-59.6679,-29.4689],[-59.6693,-29.4741],[-59.6782,-29.4788],[-59.6861,-29.4756],[-59.701,-29.4824],[-59.7067,-29.4891],[-59.7167,-29.4837],[-59.721,-29.4632],[-59.7352,-29.468],[-59.7457,-29.455],[-59.7549,-29.4523],[-59.7543,-29.448],[-59.7707,-29.4419],[-59.7691,-29.4365],[-59.7773,-29.4252],[-59.7789,-29.4176],[-59.8763,-29.4027],[-59.972,-29.3882],[-60.0693,-29.3731],[-60.0733,-29.3811],[-60.0809,-29.3819],[-60.0849,-29.3887],[-60.082,-29.3995],[-60.0776,-29.4041],[-60.0816,-29.4141],[-60.0906,-29.4232],[-60.0959,-29.4259],[-60.0995,-29.4336],[-60.1011,-29.4498],[-60.0992,-29.4723],[-60.1008,-29.4831],[-60.1043,-29.4888],[-60.0908,-29.5167],[-60.0887,-29.5337],[-60.0833,-29.5382],[-60.0873,-29.5442],[-60.0826,-29.548],[-60.0817,-29.57],[-60.086,-29.5809],[-60.0833,-29.608],[-60.0852,-29.6103],[-60.0818,-29.6291],[-60.0844,-29.6382],[-60.077,-29.6432],[-60.0712,-29.6507],[-60.0636,-29.656],[-60.0513,-29.6604],[-60.0414,-29.6598],[-60.0359,-29.6558],[-60.0171,-29.6565],[-60.0135,-29.6609],[-60.0003,-29.6624],[-59.9939,-29.6781],[-59.9994,-29.6993],[-59.9938,-29.7061],[-60.0067,-29.7236],[-59.9987,-29.75],[-59.9953,-29.7653],[-59.9963,-29.7738],[-59.9933,-29.7812],[-59.9819,-29.7853],[-59.9736,-29.8002],[-59.9713,-29.8125],[-59.964,-29.8135],[-59.9485,-29.803],[-59.9392,-29.8053],[-59.9127,-29.8025],[-59.8904,-29.8083],[-59.876,-29.8167],[-59.8774,-29.8247],[-59.8746,-29.8356],[-59.8895,-29.8367],[-59.8946,-29.8538],[-59.8936,-29.8604],[-59.9049,-29.8675],[-59.9045,-29.871],[-59.9166,-29.8857],[-59.9162,-29.8948],[-59.9265,-29.9175],[-59.9335,-29.9168],[-59.9393,-29.9119],[-59.957,-29.9203],[-59.9616,-29.9299],[-59.959,-29.9356],[-59.9718,-29.9388],[-59.9806,-29.9329],[-59.9926,-29.9343],[-60.0047,-29.9464],[-60.0167,-29.95],[-60.0207,-29.9543],[-60.0182,-29.9601],[-60.0225,-29.9699],[-60.0178,-29.979],[-60.0254,-29.9908],[-60.0333,-29.9888],[-60.0323,-29.9978],[-60.0344,-30.0122],[-60.0443,-30.0122],[-60.0431,-30.0206],[-60.0453,-30.0298],[-60.0606,-30.0337],[-60.0762,-30.0296],[-60.0868,-30.0372],[-60.0992,-30.0437],[-60.095,-30.0598],[-60.1054,-30.0725],[-60.1045,-30.0768],[-60.1192,-30.079],[-60.1291,-30.0994],[-60.1203,-30.1],[-60.1209,-30.1051],[-60.1142,-30.1139],[-60.1167,-30.1235],[-60.1243,-30.1188],[-60.1367,-30.1154],[-60.1434,-30.1207],[-60.1562,-30.1209],[-60.1488,-30.1277],[-60.1364,-30.1298],[-60.1276,-30.1371],[-60.1224,-30.1366],[-60.1229,-30.1536],[-60.1267,-30.1622],[-60.1331,-30.1689],[-60.1301,-30.1746],[-60.1383,-30.1776],[-60.1432,-30.1842],[-60.15,-30.188],[-60.1458,-30.1952],[-60.1515,-30.2061],[-60.1517,-30.2116],[-60.1629,-30.2136],[-60.1674,-30.2204],[-60.1617,-30.2259],[-60.1607,-30.2343],[-60.1741,-30.2425],[-60.1673,-30.2503],[-60.1671,-30.2668],[-60.1754,-30.2688],[-60.1747,-30.2756],[-60.1811,-30.2796],[-60.1762,-30.2843],[-60.185,-30.2974],[-60.1932,-30.2952],[-60.2,-30.2986],[-60.2066,-30.2969],[-60.2134,-30.3129],[-60.2128,-30.3224],[-60.1999,-30.327],[-60.2025,-30.3404],[-60.2135,-30.3456],[-60.1983,-30.3578],[-60.1965,-30.3659],[-60.2165,-30.3752],[-60.2225,-30.3754],[-60.231,-30.3835],[-60.2328,-30.3904],[-60.2456,-30.3942],[-60.2448,-30.4042],[-60.2481,-30.4066],[-60.251,-30.4194],[-60.2553,-30.4254],[-60.2632,-30.4296],[-60.2772,-30.4247],[-60.2792,-30.4287],[-60.2743,-30.4347],[-60.289,-30.4373],[-60.296,-30.4461],[-60.2989,-30.4552],[-60.3079,-30.4569],[-60.3247,-30.4689],[-60.3323,-30.4789],[-60.323,-30.4829],[-60.3209,-30.4987],[-60.3253,-30.505],[-60.3347,-30.506],[-60.3418,-30.5119],[-60.3364,-30.5259],[-60.3388,-30.5395],[-60.3356,-30.5464],[-60.3362,-30.5571],[-60.3478,-30.5746],[-60.3625,-30.5833],[-60.3654,-30.5891],[-60.3776,-30.5945],[-60.3809,-30.5981],[-60.3834,-30.6108],[-60.3736,-30.6172],[-60.3678,-30.6262],[-60.3563,-30.6324],[-60.3406,-30.6455],[-60.3366,-30.6582],[-60.3404,-30.6715],[-60.285,-30.6795],[-60.2122,-30.691]]]},"properties":{"id":410,"departamento":"SAN JAVIER","cabecera":"SAN JAVIER","provincia":"SANTA FE"}},
{"type":"Feature","geometry":{"type":"Polygon","coordinates":[[[-60.1364,-30.1298],[-60.1488,-30.1277],[-60.1562,-30.1209],[-60.1434,-30.1207],[-60.1367,-30.1154],[-60.1243,-30.1188],[-60.1167,-30.1235],[-60.1142,-30.1139],[-60.1209,-30.1051],[-60.1203,-30.1],[-60.1291,-30.0994],[-60.1192,-30.079],[-60.1045,-30.0768],[-60.1054,-30.0725],[-60.095,-30.0598],[-60.0992,-30.0437],[-60.0868,-30.0372],[-60.0762,-30.0296],[-60.0606,-30.0337],[-60.0453,-30.0298],[-60.0431,-30.0206],[-60.0443,-30.0122],[-60.0344,-30.0122],[-60.0323,-29.9978],[-60.0333,-29.9888],[-60.0254,-29.9908],[-60.0178,-29.979],[-60.0225,-29.9699],[-60.0182,-29.9601],[-60.0207,-29.9543],[-60.0167,-29.95],[-60.0047,-29.9464],[-59.9926,-29.9343],[-59.9806,-29.9329],[-59.9718,-29.9388],[-59.959,-29.9356],[-59.9616,-29.9299],[-59.957,-29.9203],[-59.9393,-29.9119],[-59.9335,-29.9168],[-59.9265,-29.9175],[-59.9162,-29.8948],[-59.9166,-29.8857],[-59.9045,-29.871],[-59.9049,-29.8675],[-59.8936,-29.8604],[-59.8946,-29.8538],[-59.8895,-29.8367],[-59.8746,-29.8356],[-59.8774,-29.8247],[-59.876,-29.8167],[-59.8904,-29.8083],[-59.9127,-29.8025],[-59.9392,-29.8053],[-59.9485,-29.803],[-59.964,-29.8135],[-59.9713,-29.8125],[-59.9736,-29.8002],[-59.9819,-29.7853],[-59.9933,-29.7812],[-59.9963,-29.7738],[-59.9953,-29.7653],[-59.9987,-29.75],[-60.0067,-29.7236],[-59.9938,-29.7061],[-59.9994,-29.6993],[-59.9939,-29.6781],[-60.0003,-29.6624],[-60.0135,-29.6609],[-60.0171,-29.6565],[-60.0359,-29.6558],[-60.0414,-29.6598],[-60.0513,-29.6604],[-60.0636,-29.656],[-60.0712,-29.6507],[-60.077,-29.6432],[-60.0844,-29.6382],[-60.0818,-29.6291],[-60.0852,-29.6103],[-60.0833,-29.608],[-60.086,-29.5809],[-60.0817,-29.57],[-60.0826,-29.548],[-60.0873,-29.5442],[-60.0833,-29.5382],[-60.0887,-29.5337],[-60.0908,-29.5167],[-60.1043,-29.4888],[-60.1008,-29.4831],[-60.0992,-29.4723],[-60.1011,-29.4498],[-60.0995,-29.4336],[-60.0959,-29.4259],[-60.0906,-29.4232],[-60.0816,-29.4141],[-60.0776,-29.4041],[-60.082,-29.3995],[-60.0849,-29.3887],[-60.0809,-29.3819],[-60.0733,-29.3811],[-60.0693,-29.3731],[-60.0607,-29.365],[-60.0617,-29.359],[-60.0409,-29.3387],[-60.0439,-29.3285],[-60.0337,-29.3217],[-60.0234,-29.321],[-60.0144,-29.3155],[-60.014,-29.3013],[-60.0223,-29.2912],[-60.0265,-29.2902],[-60.0284,-29.2816],[-60.027,-29.2677],[-60.0186,-29.2517],[-60.0173,-29.2451],[-60.0204,-29.2389],[-60.0312,-29.2317],[-60.0362,-29.231],[-60.04,-29.1935],[-60.0359,-29.1941],[-60.0757,-29.1416],[-60.0615,-29.1438],[-60.0661,-29.1185],[-60.1164,-29.0499],[-60.0939,-29.0533],[-60.085,-29.0634],[-60.0052,-29.0751],[-60.0007,-29.0469],[-59.9902,-29.0484],[-59.988,-29.035],[-60.0011,-29.033],[-59.9998,-29.0201],[-60.042,-29.0142],[-60.0197,-28.8886],[-59.978,-28.8942],[-59.9618,-28.81],[-59.7623,-28.8408],[-59.7535,-28.8283],[-59.749,-28.8159],[-59.7528,-28.8122],[-59.7553,-28.7988],[-59.7617,-28.7927],[-59.7713,-28.7895],[-59.7679,-28.7825],[-59.7702,-28.7751],[-59.7808,-28.7685],[-59.7928,-28.7698],[-59.792,-28.7634],[-59.8036,-28.758],[-59.8002,-28.7478],[-59.8013,-28.7395],[-59.7936,-28.7349],[-59.7887,-28.7354],[-59.7821,-28.7298],[-59.7873,-28.7261],[-59.7811,-28.7144],[-59.793,-28.7064],[-59.7929,-28.701],[-59.7769,-28.6824],[-59.7792,-28.6659],[-59.7835,-28.6649],[-59.7881,-28.6549],[-59.7972,-28.6501],[-59.8097,-28.6379],[-59.8129,-28.6236],[-59.8019,-28.6201],[-59.8027,-28.6145],[-59.8097,-28.6089],[-59.8141,-28.5984],[-59.8099,-28.5829],[-59.8182,-28.5652],[-59.8117,-28.5544],[-59.8091,-28.5287],[-59.7995,-28.5262],[-59.7939,-28.5147],[-59.7969,-28.5079],[-59.7888,-28.4951],[-59.7858,-28.4841],[-59.7699,-28.4764],[-59.7659,-28.4685],[-59.7655,-28.4575],[-59.791,-28.451],[-59.7895,-28.4461],[-59.7985,-28.4363],[-59.7984,-28.3816],[-59.8583,-28.3811],[-59.8787,-28.3343],[-59.8763,-28.2541],[-59.7904,-28.2533],[-59.7902,-28.107],[-59.811,-28.1071],[-59.8112,-27.9994],[-60.2167,-27.9994],[-60.6444,-27.9994],[-60.6446,-28.1027],[-60.6881,-28.1016],[-60.7477,-28.1018],[-60.7483,-28.2235],[-60.7492,-28.225],[-60.8272,-28.2732],[-60.8298,-28.2761],[-60.8595,-28.4278],[-60.8809,-28.5363],[-60.8945,-28.5851],[-60.8906,-28.5857],[-60.9477,-28.8839],[-60.9541,-28.9218],[-60.9722,-29.011],[-60.9981,-29.14],[-61.0014,-29.1517],[-61.0188,-29.2457],[-61.0443,-29.3843],[-61.0736,-29.5349],[-61.0814,-29.5767],[-61.0828,-29.6375],[-61.074,-29.6538],[-61.0719,-29.6469],[-61.06,-29.6578],[-61.0504,-29.6534],[-61.0445,-29.657],[-61.0384,-29.6555],[-61.0387,-29.6672],[-61.0321,-29.6634],[-61.0271,-29.6698],[-61.0153,-29.6659],[-60.9945,-29.6676],[-60.985,-29.6739],[-60.9685,-29.6799],[-60.961,-29.6752],[-60.9489,-29.6733],[-60.944,-29.6781],[-60.9343,-29.6746],[-60.9194,-29.6779],[-60.91,-29.6769],[-60.8975,-29.6811],[-60.8915,-29.6907],[-60.8818,-29.6954],[-60.872,-29.7031],[-60.8621,-29.7076],[-60.8449,-29.7067],[-60.8394,-29.7142],[-60.837,-29.7312],[-60.8335,-29.7425],[-60.8422,-29.7541],[-60.8434,-29.7597],[-60.8344,-29.764],[-60.8304,-29.7722],[-60.8148,-29.7754],[-60.8084,-29.7742],[-60.806,-29.7659],[-60.7987,-29.7624],[-60.7912,-29.763],[-60.7774,-29.7605],[-60.7726,-29.766],[-60.7732,-29.7796],[-60.7711,-29.7936],[-60.7635,-29.8038],[-60.751,-29.813],[-60.7397,-29.8347],[-60.7293,-29.8464],[-60.7286,-29.8532],[-60.7238,-29.8643],[-60.7141,-29.8657],[-60.7037,-29.8816],[-60.7036,-29.8857],[-60.7142,-29.8855],[-60.7164,-29.8976],[-60.7214,-29.9046],[-60.7204,-29.9121],[-60.7193,-29.9128],[-60.6112,-29.929],[-60.587,-29.9328],[-60.5495,-29.9374],[-60.4925,-29.9469],[-60.4218,-29.9582],[-60.2796,-29.9814],[-60.2897,-30.0324],[-60.2835,-30.0377],[-60.2741,-30.0402],[-60.2461,-30.0559],[-60.2413,-30.0568],[-60.2121,-30.0701],[-60.2049,-30.0966],[-60.2063,-30.1103],[-60.1983,-30.1245],[-60.1828,-30.1255],[-60.1753,-30.1283],[-60.1626,-30.1255],[-60.1576,-30.1275],[-60.1607,-30.136],[-60.1851,-30.149],[-60.1851,-30.161],[-60.1747,-30.1683],[-60.1541,-30.1659],[-60.1451,-30.1564],[-60.1327,-30.1399],[-60.1364,-30.1298]]]},"properties":{"id":411,"departamento":"VERA","cabecera":"VERA","provincia":"SANTA FE"}},
{"type":"Feature","geometry":{"type":"Polygon","coordinates":[[[-61.2098,-30.7504],[-61.3978,-30.7187],[-61.4231,-30.7142],[-61.438,-30.7785],[-61.6553,-30.74],[-61.6661,-30.7849],[-61.7689,-30.7663],[-61.8441,-30.7531],[-62.1258,-31.6156],[-62.1348,-31.6222],[-62.0915,-31.63],[-62.0764,-31.6327],[-62.0554,-31.6364],[-62.0465,-31.6381],[-62.022,-31.6424],[-62.0302,-31.6761],[-61.9296,-31.6941],[-61.8948,-31.701],[-61.792,-31.7188],[-61.7081,-31.7334],[-61.7127,-31.7521],[-61.6137,-31.7701],[-61.6132,-31.757],[-61.5414,-31.77],[-61.5357,-31.7454],[-61.533,-31.7459],[-61.5018,-31.6152],[-61.505,-31.6146],[-61.4993,-31.5908],[-61.45,-31.5994],[-61.447,-31.5879],[-61.442,-31.5887],[-61.4292,-31.5353],[-61.3916,-31.5417],[-61.3736,-31.4643],[-61.3748,-31.4641],[-61.3681,-31.432],[-61.3598,-31.3966],[-61.3408,-31.3198],[-61.3318,-31.2752],[-61.3272,-31.2759],[-61.2896,-31.1121],[-61.288,-31.0994],[-61.2778,-31.0539],[-61.2664,-30.9978],[-61.2441,-30.9014],[-61.2098,-30.7504]]]},"properties":{"id":412,"departamento":"CASTELLANOS","cabecera":"RAFAELA","provincia":"SANTA FE"}},
{"type":"Feature","geometry":{"type":"Polygon","coordinates":[[[-61.4377,-32.3962],[-61.4952,-32.3857],[-61.6535,-32.3567],[-61.8018,-32.3297],[-61.9124,-32.3096],[-61.9037,-32.3299],[-61.9533,-32.3381],[-61.9861,-32.3436],[-62.0103,-32.3476],[-61.9943,-32.374],[-61.986,-32.3845],[-61.984,-32.3923],[-61.9716,-32.4043],[-61.9649,-32.4151],[-61.957,-32.4214],[-61.9444,-32.4371],[-61.9274,-32.4643],[-61.9197,-32.4844],[-61.9121,-32.5],[-61.9201,-32.5066],[-61.9121,-32.5276],[-61.9288,-32.537],[-61.9282,-32.5481],[-61.9225,-32.552],[-61.9055,-32.5522],[-61.9012,-32.569],[-61.9126,-32.574],[-61.9251,-32.5831],[-61.9209,-32.5935],[-61.9043,-32.5949],[-61.893,-32.5901],[-61.8897,-32.5922],[-61.8887,-32.6135],[-61.8941,-32.6142],[-61.906,-32.6249],[-61.9448,-32.6506],[-61.9426,-32.6593],[-61.9457,-32.6778],[-61.9341,-32.6799],[-61.9294,-32.6898],[-61.9173,-32.6917],[-61.9074,-32.696],[-61.9015,-32.6936],[-61.8856,-32.6919],[-61.868,-32.6951],[-61.8574,-32.6942],[-61.8479,-32.7133],[-61.8428,-32.7206],[-61.8394,-32.7312],[-61.829,-32.7461],[-61.827,-32.7551],[-61.8227,-32.7582],[-61.8102,-32.7594],[-61.7954,-32.7739],[-61.7969,-32.7805],[-61.7913,-32.7936],[-61.7853,-32.7943],[-61.7846,-32.8121],[-61.777,-32.8313],[-61.7831,-32.8525],[-61.7919,-32.873],[-61.7851,-32.8882],[-61.771,-32.9012],[-61.772,-32.9162],[-61.7901,-32.9584],[-61.7855,-32.963],[-61.7862,-32.9716],[-61.7914,-32.9748],[-61.7874,-32.9914],[-61.7864,-33.0044],[-61.792,-33.008],[-61.7945,-33.0143],[-61.7938,-33.0225],[-61.7881,-33.0297],[-61.7824,-33.0308],[-61.7816,-33.0314],[-61.7742,-33.0424],[-61.7692,-33.054],[-61.762,-33.0553],[-61.7526,-33.064],[-61.7473,-33.0734],[-61.7338,-33.0789],[-61.7239,-33.0804],[-61.7129,-33.0929],[-61.669,-32.964],[-61.6424,-32.8855],[-61.6184,-32.8726],[-61.5183,-32.8515],[-61.5328,-32.849],[-61.5109,-32.7568],[-61.5156,-32.7559],[-61.4882,-32.6494],[-61.4713,-32.582],[-61.4848,-32.5795],[-61.4675,-32.5134],[-61.4377,-32.3962]]]},"properties":{"id":413,"departamento":"BELGRANO","cabecera":"LAS ROSAS","provincia":"SANTA FE"}},
{"type":"Feature","geometry":{"type":"Polygon","coordinates":[[[-61.7129,-33.0929],[-61.7239,-33.0804],[-61.7338,-33.0789],[-61.7473,-33.0734],[-61.7526,-33.064],[-61.762,-33.0553],[-61.7692,-33.054],[-61.7742,-33.0424],[-61.7816,-33.0314],[-61.7824,-33.0308],[-61.7881,-33.0297],[-61.7938,-33.0225],[-61.7945,-33.0143],[-61.8026,-33.0206],[-61.8097,-33.023],[-61.8227,-33.0323],[-61.8301,-33.0462],[-61.8428,-33.0535],[-61.8612,-33.0689],[-61.8719,-33.0805],[-61.8807,-33.0973],[-61.8966,-33.1125],[-61.9041,-33.1174],[-61.9203,-33.1202],[-62.0247,-33.2578],[-62.1236,-33.3883],[-62.1383,-33.4078],[-62.0984,-33.4069],[-62.0938,-33.4068],[-62.0338,-33.4063],[-61.9796,-33.406],[-61.8818,-33.4064],[-61.7856,-33.405],[-61.7227,-33.4059],[-61.5566,-33.4022],[-61.5204,-33.4025],[-61.5166,-33.4075],[-61.5054,-33.4035],[-61.4523,-33.4069],[-61.3138,-33.3315],[-61.2467,-33.4181],[-61.2159,-33.4589],[-61.1888,-33.494],[-61.1689,-33.4766],[-61.131,-33.4607],[-61.1011,-33.4434],[-61.075,-33.4214],[-61.1295,-33.3517],[-61.0991,-33.335],[-61.1686,-33.2462],[-61.147,-33.234],[-61.1326,-33.2336],[-61.1548,-33.1671],[-61.1203,-33.1585],[-61.1067,-33.1585],[-61.0619,-33.0923],[-61.1519,-32.9764],[-61.2072,-32.9051],[-61.2097,-32.9094],[-61.2246,-32.9185],[-61.2279,-32.9256],[-61.2447,-32.9475],[-61.2358,-32.953],[-61.259,-32.9658],[-61.2724,-32.9684],[-61.2774,-32.9754],[-61.2873,-32.9775],[-61.2987,-32.989],[-61.3117,-32.9901],[-61.3403,-33.0027],[-61.3579,-33.0048],[-61.3652,-33.009],[-61.3741,-33.0003],[-61.3903,-33.0088],[-61.4029,-33.0119],[-61.4194,-33.0133],[-61.4248,-33.0171],[-61.4441,-33.0166],[-61.4627,-33.0245],[-61.4666,-33.0236],[-61.4886,-33.031],[-61.5065,-33.0336],[-61.5264,-33.044],[-61.5422,-33.0436],[-61.5478,-33.0455],[-61.5546,-33.0556],[-61.5705,-33.0667],[-61.5789,-33.0683],[-61.5873,-33.0656],[-61.5922,-33.0689],[-61.6008,-33.0685],[-61.619,-33.0711],[-61.6348,-33.069],[-61.6426,-33.0863],[-61.6541,-33.0864],[-61.6613,-33.09],[-61.6801,-33.0919],[-61.6925,-33.0959],[-61.7018,-33.096],[-61.7129,-33.0929]]]},"properties":{"id":414,"departamento":"CASEROS","cabecera":"CASILDA","provincia":"SANTA FE"}},
{"type":"Feature","geometry":{"type":"Polygon","coordinates":[[[-60.6444,-27.9994],[-60.91,-27.9994],[-61.7113,-27.9994],[-61.7475,-28.2136],[-61.7734,-28.3669],[-61.7899,-28.4647],[-61.8091,-28.5784],[-61.8466,-28.8002],[-61.8774,-28.9819],[-61.8962,-29.0934],[-61.9286,-29.2848],[-61.9493,-29.4077],[-61.9655,-29.5031],[-61.9927,-29.664],[-61.9279,-29.6645],[-61.9421,-29.7431],[-61.907,-29.781],[-61.8086,-29.7822],[-61.8082,-29.7861],[-61.7489,-29.7859],[-61.7472,-29.7778],[-61.6685,-29.7888],[-61.6293,-29.7948],[-61.5711,-29.8047],[-61.4958,-29.818],[-61.391,-29.8352],[-61.3769,-29.8368],[-61.3638,-29.8412],[-61.353,-29.8418],[-61.3363,-29.766],[-61.304,-29.6179],[-61.2824,-29.5188],[-61.2672,-29.5228],[-61.2641,-29.5296],[-61.2364,-29.5406],[-61.2367,-29.5484],[-61.2233,-29.5433],[-61.2139,-29.5452],[-61.2042,-29.5425],[-61.1976,-29.5442],[-61.193,-29.5544],[-61.182,-29.5515],[-61.1685,-29.5606],[-61.1614,-29.5584],[-61.1482,-29.5578],[-61.142,-29.5616],[-61.1386,-29.5717],[-61.1225,-29.5708],[-61.1158,-29.5807],[-61.1048,-29.5896],[-61.1081,-29.5959],[-61.0966,-29.6069],[-61.0957,-29.6198],[-61.0828,-29.6375],[-61.0814,-29.5767],[-61.0736,-29.5349],[-61.0443,-29.3843],[-61.0188,-29.2457],[-61.0014,-29.1517],[-60.9981,-29.14],[-60.9722,-29.011],[-60.9541,-28.9218],[-60.9477,-28.8839],[-60.8906,-28.5857],[-60.8945,-28.5851],[-60.8809,-28.5363],[-60.8595,-28.4278],[-60.8298,-28.2761],[-60.8272,-28.2732],[-60.7492,-28.225],[-60.7483,-28.2235],[-60.7477,-28.1018],[-60.6881,-28.1016],[-60.6446,-28.1027],[-60.6444,-27.9994]]]},"properties":{"id":415,"departamento":"9 DE JULIO","cabecera":"TOSTADO","provincia":"SANTA FE"}},
{"type":"Feature","geometry":{"type":"Polygon","coordinates":[[[-61.5414,-31.77],[-61.6132,-31.757],[-61.6137,-31.7701],[-61.7127,-31.7521],[-61.7081,-31.7334],[-61.792,-31.7188],[-61.8948,-31.701],[-61.9296,-31.6941],[-62.0302,-31.6761],[-62.022,-31.6424],[-62.0465,-31.6381],[-62.0554,-31.6364],[-62.0764,-31.6327],[-62.0915,-31.63],[-62.1348,-31.6222],[-62.2404,-31.6994],[-62.2174,-31.7405],[-62.2171,-31.7882],[-62.2246,-31.8376],[-62.2224,-31.8837],[-62.2213,-31.8857],[-62.188,-31.922],[-62.1759,-31.962],[-62.167,-31.9866],[-62.1815,-32.0481],[-62.1808,-32.06],[-62.196,-32.1138],[-62.1795,-32.1567],[-62.1477,-32.19],[-62.1278,-32.2085],[-62.0476,-32.2546],[-62.0384,-32.2606],[-62.0345,-32.2667],[-62.025,-32.3055],[-62.0103,-32.3476],[-61.9861,-32.3436],[-61.9533,-32.3381],[-61.9037,-32.3299],[-61.9124,-32.3096],[-61.8018,-32.3297],[-61.6535,-32.3567],[-61.4952,-32.3857],[-61.4718,-32.2941],[-61.448,-32.2024],[-61.3919,-32.2127],[-61.3725,-32.1372],[-61.3693,-32.1378],[-61.3553,-32.0851],[-61.3615,-32.0623],[-61.378,-31.9915],[-61.3477,-31.869],[-61.3928,-31.8604],[-61.3976,-31.8808],[-61.5588,-31.8526],[-61.539,-31.7704],[-61.5414,-31.77]]]},"properties":{"id":416,"departamento":"SAN MARTIN","cabecera":"SASTRE","provincia":"SANTA FE"}},
{"type":"Feature","geometry":{"type":"Polygon","coordinates":[[[-59.5821,-29.4529],[-59.587,-29.438],[-59.6001,-29.4211],[-59.6052,-29.4088],[-59.6043,-29.3947],[-59.594,-29.3825],[-59.5611,-29.3703],[-59.5322,-29.3539],[-59.5198,-29.3432],[-59.5162,-29.3377],[-59.5119,-29.3168],[-59.512,-29.2777],[-59.5109,-29.2573],[-59.5087,-29.2508],[-59.5006,-29.2435],[-59.4902,-29.2381],[-59.4423,-29.2235],[-59.4334,-29.2215],[-59.4078,-29.2214],[-59.4021,-29.2169],[-59.3968,-29.1905],[-59.3907,-29.1814],[-59.3709,-29.1564],[-59.3639,-29.1489],[-59.3625,-29.1379],[-59.3582,-29.1279],[-59.3468,-29.1144],[-59.3325,-29.1084],[-59.3025,-29.1058],[-59.2753,-29.0996],[-59.2487,-29.0837],[-59.2126,-29.0527],[-59.1997,-29.0315],[-59.1983,-29.0254],[-59.2002,-29.0123],[-59.2088,-28.9982],[-59.2109,-28.9844],[-59.2095,-28.969],[-59.2047,-28.9545],[-59.1952,-28.938],[-59.1833,-28.9273],[-59.1697,-28.9088],[-59.1581,-28.8774],[-59.1574,-28.8643],[-59.1581,-28.8426],[-59.1607,-28.8245],[-59.1619,-28.8069],[-59.1605,-28.7948],[-59.1555,-28.785],[-59.1355,-28.7679],[-59.1181,-28.7432],[-59.1157,-28.7374],[-59.1022,-28.7158],[-59.0991,-28.7008],[-59.0938,-28.6889],[-59.0781,-28.6649],[-59.0815,-28.6568],[-59.0962,-28.648],[-59.105,-28.6339],[-59.1057,-28.6147],[-59.0988,-28.5961],[-59.1011,-28.5832],[-59.0993,-28.5744],[-59.0882,-28.5578],[-59.0843,-28.5392],[-59.078,-28.5307],[-59.0684,-28.5241],[-59.0543,-28.5078],[-59.0489,-28.4893],[-59.0558,-28.4712],[-59.0696,-28.451],[-59.086,-28.436],[-59.0855,-28.42],[-59.0779,-28.3988],[-59.0762,-28.3653],[-59.081,-28.3473],[-59.1001,-28.3348],[-59.1035,-28.3288],[-59.1017,-28.3013],[-59.1024,-28.2696],[-59.1098,-28.2451],[-59.1095,-28.2297],[-59.105,-28.2178],[-59.0899,-28.2052],[-59.0862,-28.1995],[-59.0892,-28.1816],[-59.0876,-28.1718],[-59.08,-28.1503],[-59.0723,-28.1363],[-59.0624,-28.1281],[-59.0534,-28.1268],[-59.0281,-28.1346],[-59.0075,-28.1386],[-58.9844,-28.1403],[-58.9632,-28.1395],[-58.9451,-28.1338],[-58.9268,-28.1097],[-58.8995,-28.0827],[-58.8808,-28.0668],[-58.8818,-28.0597],[-58.8924,-28.0457],[-58.8937,-28.0353],[-58.8913,-28.0254],[-58.8864,-28.0159],[-58.8839,-27.9994],[-59.4014,-27.9994],[-59.8112,-27.9994],[-59.811,-28.1071],[-59.7902,-28.107],[-59.7904,-28.2533],[-59.8763,-28.2541],[-59.8787,-28.3343],[-59.8583,-28.3811],[-59.7984,-28.3816],[-59.7985,-28.4363],[-59.7895,-28.4461],[-59.791,-28.451],[-59.7655,-28.4575],[-59.7659,-28.4685],[-59.7699,-28.4764],[-59.7858,-28.4841],[-59.7888,-28.4951],[-59.7969,-28.5079],[-59.7939,-28.5147],[-59.7995,-28.5262],[-59.8091,-28.5287],[-59.8117,-28.5544],[-59.8182,-28.5652],[-59.8099,-28.5829],[-59.8141,-28.5984],[-59.8097,-28.6089],[-59.8027,-28.6145],[-59.8019,-28.6201],[-59.8129,-28.6236],[-59.8097,-28.6379],[-59.7972,-28.6501],[-59.7881,-28.6549],[-59.7835,-28.6649],[-59.7792,-28.6659],[-59.7769,-28.6824],[-59.7929,-28.701],[-59.793,-28.7064],[-59.7811,-28.7144],[-59.7873,-28.7261],[-59.7821,-28.7298],[-59.7887,-28.7354],[-59.7936,-28.7349],[-59.8013,-28.7395],[-59.8002,-28.7478],[-59.8036,-28.758],[-59.792,-28.7634],[-59.7928,-28.7698],[-59.7808,-28.7685],[-59.7702,-28.7751],[-59.7679,-28.7825],[-59.7713,-28.7895],[-59.7617,-28.7927],[-59.7553,-28.7988],[-59.7528,-28.8122],[-59.749,-28.8159],[-59.7535,-28.8283],[-59.7623,-28.8408],[-59.9618,-28.81],[-59.978,-28.8942],[-60.0197,-28.8886],[-60.042,-29.0142],[-59.9998,-29.0201],[-60.0011,-29.033],[-59.988,-29.035],[-59.9902,-29.0484],[-60.0007,-29.0469],[-60.0052,-29.0751],[-60.085,-29.0634],[-60.0939,-29.0533],[-60.1164,-29.0499],[-60.0661,-29.1185],[-60.0615,-29.1438],[-60.0757,-29.1416],[-60.0359,-29.1941],[-60.04,-29.1935],[-60.0362,-29.231],[-60.0312,-29.2317],[-60.0204,-29.2389],[-60.0173,-29.2451],[-60.0186,-29.2517],[-60.027,-29.2677],[-60.0284,-29.2816],[-60.0265,-29.2902],[-60.0223,-29.2912],[-60.014,-29.3013],[-60.0144,-29.3155],[-60.0234,-29.321],[-60.0337,-29.3217],[-60.0439,-29.3285],[-60.0409,-29.3387],[-60.0617,-29.359],[-60.0607,-29.365],[-60.0693,-29.3731],[-59.972,-29.3882],[-59.8763,-29.4027],[-59.7789,-29.4176],[-59.7773,-29.4252],[-59.7691,-29.4365],[-59.7707,-29.4419],[-59.7543,-29.448],[-59.7549,-29.4523],[-59.7457,-29.455],[-59.7352,-29.468],[-59.721,-29.4632],[-59.7167,-29.4837],[-59.7067,-29.4891],[-59.701,-29.4824],[-59.6861,-29.4756],[-59.6782,-29.4788],[-59.6693,-29.4741],[-59.6679,-29.4689],[-59.6606,-29.4632],[-59.6581,-29.4553],[-59.6433,-29.4541],[-59.6158,-29.4645],[-59.5812,-29.4766],[-59.5821,-29.4529]]]},"properties":{"id":417,"departamento":"GENERAL OBLIGADO","cabecera":"RECONQUISTA","provincia":"SANTA FE"}},
{"type":"Feature","geometry":{"type":"Polygon","coordinates":[[[-60.8141,-31.0175],[-60.818,-31.0202],[-60.8073,-31.0267],[-60.8117,-31.0324],[-60.8258,-31.0401],[-60.8331,-31.0391],[-60.8418,-31.0449],[-60.8349,-31.0526],[-60.8447,-31.0609],[-60.839,-31.0691],[-60.8281,-31.0742],[-60.8256,-31.0865],[-60.8196,-31.0903],[-60.8127,-31.1029],[-60.8064,-31.103],[-60.802,-31.0916],[-60.7926,-31.0964],[-60.7816,-31.097],[-60.7775,-31.1125],[-60.7882,-31.1158],[-60.7919,-31.121],[-60.7852,-31.1244],[-60.786,-31.1322],[-60.7909,-31.1362],[-60.8084,-31.1363],[-60.8112,-31.1413],[-60.8087,-31.1466],[-60.8246,-31.1459],[-60.8271,-31.1574],[-60.8358,-31.1657],[-60.8295,-31.1776],[-60.8331,-31.1802],[-60.8432,-31.178],[-60.8488,-31.1849],[-60.8414,-31.1915],[-60.8454,-31.1947],[-60.8397,-31.2004],[-60.8399,-31.2133],[-60.8487,-31.2296],[-60.859,-31.2451],[-60.8681,-31.2437],[-60.8696,-31.2484],[-60.8789,-31.2435],[-60.8933,-31.2457],[-60.8862,-31.2515],[-60.8893,-31.2581],[-60.897,-31.2548],[-60.8961,-31.2674],[-60.9044,-31.2675],[-60.9052,-31.2745],[-60.9178,-31.2783],[-60.9203,-31.2867],[-60.915,-31.2984],[-60.9084,-31.3004],[-60.908,-31.3108],[-60.9129,-31.3263],[-60.9196,-31.3306],[-60.9178,-31.3375],[-60.9271,-31.3382],[-60.9315,-31.3522],[-60.9279,-31.3582],[-60.9181,-31.3612],[-60.9136,-31.3695],[-60.9028,-31.3703],[-60.8953,-31.3747],[-60.9016,-31.3819],[-60.9009,-31.3868],[-60.8856,-31.3852],[-60.8779,-31.3756],[-60.8724,-31.3732],[-60.854,-31.3753],[-60.8419,-31.3618],[-60.8307,-31.3597],[-60.8272,-31.3523],[-60.8204,-31.3608],[-60.8118,-31.3616],[-60.7999,-31.3543],[-60.7935,-31.3532],[-60.7886,-31.3573],[-60.7912,-31.3645],[-60.7837,-31.3736],[-60.7859,-31.3803],[-60.7946,-31.3867],[-60.8081,-31.3859],[-60.8104,-31.393],[-60.8026,-31.405],[-60.809,-31.4095],[-60.8035,-31.4142],[-60.801,-31.4233],[-60.7899,-31.4273],[-60.785,-31.4401],[-60.7864,-31.446],[-60.7773,-31.4643],[-60.7807,-31.4728],[-60.7695,-31.4775],[-60.7836,-31.4886],[-60.7836,-31.4994],[-60.7918,-31.501],[-60.7896,-31.5061],[-60.7939,-31.5122],[-60.7868,-31.5148],[-60.7936,-31.5211],[-60.7917,-31.527],[-60.7957,-31.535],[-60.7895,-31.5419],[-60.7811,-31.5462],[-60.7681,-31.5482],[-60.766,-31.554],[-60.7764,-31.5592],[-60.7781,-31.5715],[-60.7634,-31.5663],[-60.7571,-31.578],[-60.7658,-31.5835],[-60.7604,-31.5927],[-60.7674,-31.6044],[-60.8288,-31.5922],[-60.813,-31.6548],[-60.8133,-31.6566],[-60.8679,-31.6769],[-60.9046,-31.6996],[-60.9006,-31.7003],[-60.9045,-31.7126],[-60.9079,-31.712],[-60.9145,-31.74],[-60.95,-31.7322],[-60.9727,-31.7792],[-60.9782,-31.8027],[-60.853,-31.8235],[-60.8452,-31.8077],[-60.837,-31.7976],[-60.8283,-31.794],[-60.8353,-31.8191],[-60.8266,-31.8307],[-60.8258,-31.8432],[-60.8373,-31.8557],[-60.8373,-31.8692],[-60.8262,-31.8834],[-60.8127,-31.8828],[-60.8014,-31.8771],[-60.7899,-31.8745],[-60.7784,-31.8789],[-60.762,-31.8717],[-60.753,-31.8805],[-60.7482,-31.8718],[-60.7416,-31.8684],[-60.7312,-31.8681],[-60.7356,-31.8798],[-60.735,-31.8842],[-60.7476,-31.911],[-60.7461,-31.9211],[-60.7343,-31.9456],[-60.726,-31.9706],[-60.723,-31.9743],[-60.7197,-31.9588],[-60.6719,-31.9302],[-60.6601,-31.9183],[-60.6529,-31.8971],[-60.6592,-31.8781],[-60.6615,-31.8617],[-60.6607,-31.8512],[-60.6626,-31.8445],[-60.6734,-31.8302],[-60.6758,-31.8117],[-60.6655,-31.7977],[-60.6531,-31.792],[-60.6409,-31.7918],[-60.6367,-31.7825],[-60.6364,-31.7746],[-60.6437,-31.7633],[-60.6429,-31.7512],[-60.6388,-31.742],[-60.6276,-31.7332],[-60.591,-31.7109],[-60.5681,-31.7049],[-60.5374,-31.6999],[-60.5177,-31.6992],[-60.491,-31.7004],[-60.4676,-31.6983],[-60.4544,-31.6893],[-60.4438,-31.6756],[-60.3963,-31.643],[-60.3573,-31.6266],[-60.3347,-31.6126],[-60.3276,-31.6021],[-60.3257,-31.5867],[-60.3269,-31.5788],[-60.3373,-31.5674],[-60.3399,-31.5552],[-60.3352,-31.5491],[-60.3257,-31.5419],[-60.306,-31.5351],[-60.3267,-31.5229],[-60.333,-31.518],[-60.3375,-31.506],[-60.3435,-31.4999],[-60.3508,-31.5026],[-60.3575,-31.5116],[-60.3667,-31.5167],[-60.3804,-31.5182],[-60.3906,-31.5136],[-60.3958,-31.5088],[-60.3908,-31.4989],[-60.4031,-31.4992],[-60.4235,-31.503],[-60.4291,-31.5012],[-60.4418,-31.502],[-60.451,-31.4971],[-60.4705,-31.497],[-60.4814,-31.495],[-60.4935,-31.4807],[-60.5023,-31.4871],[-60.5079,-31.4857],[-60.5094,-31.4727],[-60.5304,-31.472],[-60.5352,-31.4667],[-60.5409,-31.4664],[-60.5465,-31.4608],[-60.5567,-31.462],[-60.5449,-31.4461],[-60.5355,-31.4422],[-60.5025,-31.4211],[-60.5092,-31.3886],[-60.4957,-31.3743],[-60.4858,-31.3568],[-60.4737,-31.3419],[-60.4986,-31.3122],[-60.4981,-31.3036],[-60.4782,-31.2851],[-60.4643,-31.2762],[-60.4552,-31.2632],[-60.465,-31.2518],[-60.4553,-31.2442],[-60.458,-31.236],[-60.4477,-31.2222],[-60.4495,-31.2155],[-60.5738,-31.1905],[-60.5583,-31.1714],[-60.5493,-31.1348],[-60.5921,-31.1272],[-60.6702,-31.1144],[-60.6661,-31.0861],[-60.6579,-31.0445],[-60.7418,-31.0307],[-60.8141,-31.0175]]]},"properties":{"id":418,"departamento":"LA CAPITAL","cabecera":"SANTA FE","provincia":"SANTA FE"}},
{"type":"Feature","geometry":{"type":"Polygon","coordinates":[[[-61.1273,-33.8344],[-60.9321,-33.6529],[-60.9289,-33.6438],[-60.9207,-33.6362],[-60.9228,-33.6181],[-60.9218,-33.6065],[-60.9181,-33.5902],[-60.9064,-33.5759],[-60.8799,-33.5555],[-60.8626,-33.5467],[-60.8243,-33.5436],[-60.8181,-33.5396],[-60.8099,-33.5472],[-60.8089,-33.5551],[-60.7942,-33.5682],[-60.7804,-33.5786],[-60.7708,-33.5802],[-60.7614,-33.5849],[-60.7463,-33.588],[-60.7327,-33.5863],[-60.7097,-33.5881],[-60.7002,-33.5846],[-60.6846,-33.5852],[-60.6647,-33.592],[-60.6543,-33.6048],[-60.6464,-33.6082],[-60.6391,-33.6161],[-60.624,-33.6266],[-60.6012,-33.628],[-60.5869,-33.6344],[-60.5701,-33.6396],[-60.5603,-33.6459],[-60.5226,-33.6488],[-60.5186,-33.6448],[-60.5031,-33.6464],[-60.4686,-33.6382],[-60.4572,-33.6283],[-60.4575,-33.6182],[-60.4604,-33.6105],[-60.4561,-33.6018],[-60.4582,-33.5891],[-60.4564,-33.5821],[-60.4488,-33.5794],[-60.4405,-33.568],[-60.4247,-33.5651],[-60.4184,-33.5591],[-60.417,-33.5421],[-60.4236,-33.5291],[-60.4202,-33.5254],[-60.4217,-33.5164],[-60.4208,-33.505],[-60.4131,-33.485],[-60.4092,-33.4673],[-60.3997,-33.4602],[-60.3888,-33.4482],[-60.3704,-33.4382],[-60.3599,-33.4304],[-60.346,-33.4243],[-60.3333,-33.4081],[-60.3318,-33.3972],[-60.3218,-33.3725],[-60.3261,-33.3677],[-60.3273,-33.3577],[-60.3237,-33.3491],[-60.3133,-33.3373],[-60.3025,-33.3282],[-60.2901,-33.3214],[-60.2825,-33.3136],[-60.2837,-33.3064],[-60.28,-33.3033],[-60.2746,-33.2896],[-60.2704,-33.2879],[-60.2649,-33.2753],[-60.266,-33.2692],[-60.2741,-33.2638],[-60.2658,-33.2585],[-60.2928,-33.2459],[-60.2978,-33.2423],[-60.3002,-33.2304],[-60.2988,-33.2266],[-60.2869,-33.2166],[-60.2845,-33.2099],[-60.2883,-33.1976],[-60.3031,-33.1835],[-60.3109,-33.1804],[-60.3295,-33.1768],[-60.3403,-33.1775],[-60.3452,-33.1865],[-60.3449,-33.1947],[-60.3384,-33.2026],[-60.3398,-33.2076],[-60.3539,-33.2078],[-60.3637,-33.2124],[-60.3774,-33.2074],[-60.3816,-33.2098],[-60.3902,-33.2079],[-60.3943,-33.2026],[-60.4026,-33.2051],[-60.4144,-33.2195],[-60.4172,-33.2265],[-60.4255,-33.2286],[-60.4295,-33.2339],[-60.4532,-33.253],[-60.4591,-33.2597],[-60.4624,-33.2696],[-60.4604,-33.2743],[-60.4706,-33.2803],[-60.4756,-33.2948],[-60.483,-33.303],[-60.4821,-33.3061],[-60.4915,-33.3175],[-60.5041,-33.3211],[-60.5089,-33.318],[-60.5143,-33.3285],[-60.5241,-33.3308],[-60.5338,-33.3416],[-60.5573,-33.3548],[-60.5749,-33.3604],[-60.5793,-33.3642],[-60.6092,-33.3634],[-60.6208,-33.3599],[-60.6248,-33.3556],[-60.6388,-33.348],[-60.6468,-33.3491],[-60.6585,-33.3408],[-60.6665,-33.3412],[-60.6829,-33.337],[-60.7034,-33.3251],[-60.7053,-33.3118],[-60.7145,-33.3096],[-60.7272,-33.3123],[-60.7392,-33.3167],[-60.7614,-33.3125],[-60.7726,-33.305],[-60.7819,-33.2943],[-60.7815,-33.291],[-60.791,-33.2781],[-60.8074,-33.2691],[-60.8199,-33.269],[-60.8355,-33.2753],[-60.8535,-33.2869],[-60.8809,-33.2939],[-60.8863,-33.2916],[-60.8951,-33.2967],[-60.9098,-33.3129],[-60.9146,-33.3258],[-60.9241,-33.3421],[-60.9337,-33.3593],[-60.9446,-33.3684],[-60.9548,-33.3708],[-60.9776,-33.3814],[-60.9806,-33.3884],[-60.9875,-33.3957],[-61.0011,-33.4029],[-61.019,-33.4105],[-61.0306,-33.4113],[-61.0426,-33.4145],[-61.0524,-33.4198],[-61.0668,-33.4317],[-61.075,-33.4214],[-61.1011,-33.4434],[-61.131,-33.4607],[-61.1689,-33.4766],[-61.1888,-33.494],[-61.2159,-33.4589],[-61.2467,-33.4181],[-61.3138,-33.3315],[-61.4523,-33.4069],[-61.5054,-33.4035],[-61.5166,-33.4075],[-61.4683,-33.4704],[-61.4222,-33.4456],[-61.3699,-33.513],[-61.3177,-33.5808],[-61.2184,-33.7088],[-61.1534,-33.7923],[-61.1652,-33.7972],[-61.1487,-33.811],[-61.1459,-33.8132],[-61.1254,-33.8302],[-61.1273,-33.8344]]]},"properties":{"id":419,"departamento":"CONSTITUCION","cabecera":"VILLA CONSTITUCION","provincia":"SANTA FE"}},
{"type":"Feature","geometry":{"type":"Polygon","coordinates":[[[-60.7204,-29.9121],[-60.7214,-29.9046],[-60.7164,-29.8976],[-60.7142,-29.8855],[-60.7036,-29.8857],[-60.7037,-29.8816],[-60.7141,-29.8657],[-60.7238,-29.8643],[-60.7286,-29.8532],[-60.7293,-29.8464],[-60.7397,-29.8347],[-60.751,-29.813],[-60.7635,-29.8038],[-60.7711,-29.7936],[-60.7732,-29.7796],[-60.7726,-29.766],[-60.7774,-29.7605],[-60.7912,-29.763],[-60.7987,-29.7624],[-60.806,-29.7659],[-60.8084,-29.7742],[-60.8148,-29.7754],[-60.8304,-29.7722],[-60.8344,-29.764],[-60.8434,-29.7597],[-60.8422,-29.7541],[-60.8335,-29.7425],[-60.837,-29.7312],[-60.8394,-29.7142],[-60.8449,-29.7067],[-60.8621,-29.7076],[-60.872,-29.7031],[-60.8818,-29.6954],[-60.8915,-29.6907],[-60.8975,-29.6811],[-60.91,-29.6769],[-60.9194,-29.6779],[-60.9343,-29.6746],[-60.944,-29.6781],[-60.9489,-29.6733],[-60.961,-29.6752],[-60.9685,-29.6799],[-60.985,-29.6739],[-60.9945,-29.6676],[-61.0153,-29.6659],[-61.0271,-29.6698],[-61.0321,-29.6634],[-61.0387,-29.6672],[-61.0384,-29.6555],[-61.0445,-29.657],[-61.0504,-29.6534],[-61.06,-29.6578],[-61.0719,-29.6469],[-61.074,-29.6538],[-61.0828,-29.6375],[-61.0957,-29.6198],[-61.0966,-29.6069],[-61.1081,-29.5959],[-61.1048,-29.5896],[-61.1158,-29.5807],[-61.1225,-29.5708],[-61.1386,-29.5717],[-61.142,-29.5616],[-61.1482,-29.5578],[-61.1614,-29.5584],[-61.1685,-29.5606],[-61.182,-29.5515],[-61.193,-29.5544],[-61.1976,-29.5442],[-61.2042,-29.5425],[-61.2139,-29.5452],[-61.2233,-29.5433],[-61.2367,-29.5484],[-61.2364,-29.5406],[-61.2641,-29.5296],[-61.2672,-29.5228],[-61.2824,-29.5188],[-61.304,-29.6179],[-61.3363,-29.766],[-61.353,-29.8418],[-61.3638,-29.8412],[-61.3769,-29.8368],[-61.391,-29.8352],[-61.4958,-29.818],[-61.5711,-29.8047],[-61.6293,-29.7948],[-61.6685,-29.7888],[-61.7472,-29.7778],[-61.7489,-29.7859],[-61.8082,-29.7861],[-61.8086,-29.7822],[-61.907,-29.781],[-61.9421,-29.7431],[-61.9279,-29.6645],[-61.9927,-29.664],[-62.0166,-29.8057],[-62.0369,-29.9259],[-62.1306,-30.4799],[-61.8415,-30.745],[-61.8441,-30.7531],[-61.7689,-30.7663],[-61.6661,-30.7849],[-61.6553,-30.74],[-61.438,-30.7785],[-61.4231,-30.7142],[-61.3978,-30.7187],[-61.2098,-30.7504],[-61.2033,-30.7233],[-61.1785,-30.6122],[-61.0764,-30.6295],[-61.079,-30.6409],[-61.0257,-30.6501],[-60.9205,-30.6676],[-60.8925,-30.6718],[-60.9248,-30.7088],[-60.9122,-30.7101],[-60.9052,-30.7145],[-60.8924,-30.7375],[-60.8957,-30.7439],[-60.8914,-30.7655],[-60.8861,-30.7675],[-60.8729,-30.7657],[-60.8594,-30.7742],[-60.8638,-30.7798],[-60.8541,-30.7845],[-60.8409,-30.7848],[-60.8396,-30.7906],[-60.8305,-30.7935],[-60.8228,-30.8046],[-60.8141,-30.7965],[-60.7946,-30.7853],[-60.7844,-30.7883],[-60.7812,-30.7931],[-60.7836,-30.8023],[-60.7739,-30.8074],[-60.7673,-30.8055],[-60.7609,-30.8102],[-60.7505,-30.8034],[-60.7488,-30.7979],[-60.7303,-30.7947],[-60.7262,-30.7842],[-60.7207,-30.7896],[-60.7166,-30.7786],[-60.7245,-30.7705],[-60.7161,-30.7659],[-60.7102,-30.7593],[-60.6909,-30.7495],[-60.688,-30.756],[-60.6813,-30.7497],[-60.6744,-30.7502],[-60.6585,-30.7446],[-60.65,-30.7487],[-60.6441,-30.7564],[-60.6404,-30.752],[-60.6225,-30.7493],[-60.6217,-30.7361],[-60.6252,-30.7328],[-60.6114,-30.7254],[-60.6116,-30.7182],[-60.6037,-30.7149],[-60.6082,-30.7057],[-60.6022,-30.6983],[-60.601,-30.6892],[-60.5956,-30.6875],[-60.5909,-30.6688],[-60.6054,-30.6685],[-60.6138,-30.6639],[-60.6115,-30.6548],[-60.6192,-30.6533],[-60.6204,-30.6403],[-60.6238,-30.6351],[-60.6171,-30.6241],[-60.6221,-30.6188],[-60.616,-30.6135],[-60.615,-30.6081],[-60.6191,-30.5966],[-60.6246,-30.5983],[-60.6403,-30.5965],[-60.6401,-30.5816],[-60.6479,-30.5851],[-60.6541,-30.5803],[-60.6555,-30.5727],[-60.6641,-30.5734],[-60.6602,-30.5656],[-60.661,-30.5578],[-60.6654,-30.5514],[-60.6742,-30.5504],[-60.6804,-30.5463],[-60.6865,-30.5315],[-60.6763,-30.5263],[-60.6869,-30.5155],[-60.6808,-30.5109],[-60.6646,-30.5083],[-60.6555,-30.5127],[-60.6541,-30.5058],[-60.6472,-30.5028],[-60.6552,-30.4952],[-60.648,-30.4768],[-60.6528,-30.4596],[-60.6486,-30.4411],[-60.6561,-30.4393],[-60.6464,-30.4309],[-60.6522,-30.4263],[-60.6617,-30.4274],[-60.6628,-30.4225],[-60.6552,-30.4191],[-60.6556,-30.4116],[-60.6642,-30.4092],[-60.6661,-30.4019],[-60.6555,-30.4026],[-60.6665,-30.3908],[-60.6826,-30.3817],[-60.6826,-30.3768],[-60.676,-30.3702],[-60.6811,-30.3567],[-60.671,-30.3517],[-60.6629,-30.3428],[-60.6499,-30.3446],[-60.6553,-30.3372],[-60.6531,-30.3279],[-60.6568,-30.3062],[-60.6502,-30.303],[-60.6415,-30.2909],[-60.6489,-30.287],[-60.6536,-30.2737],[-60.6486,-30.269],[-60.6568,-30.2615],[-60.6643,-30.2604],[-60.6807,-30.2669],[-60.6879,-30.2549],[-60.6954,-30.2574],[-60.6987,-30.2503],[-60.7043,-30.2481],[-60.7035,-30.2385],[-60.7168,-30.2389],[-60.7175,-30.2325],[-60.7224,-30.2234],[-60.7305,-30.2199],[-60.7352,-30.2096],[-60.7315,-30.2029],[-60.7328,-30.1967],[-60.7256,-30.1931],[-60.7173,-30.1691],[-60.7041,-30.1555],[-60.7056,-30.1379],[-60.7183,-30.1319],[-60.7269,-30.1246],[-60.7293,-30.11],[-60.7353,-30.1056],[-60.7392,-30.091],[-60.7437,-30.0911],[-60.7517,-30.0811],[-60.7447,-30.0753],[-60.7486,-30.0609],[-60.7397,-30.0459],[-60.7377,-30.0377],[-60.7389,-30.0252],[-60.7298,-30.0269],[-60.7225,-30.0227],[-60.718,-30.0107],[-60.7173,-29.9982],[-60.7213,-29.9917],[-60.7197,-29.9825],[-60.7146,-29.9762],[-60.6979,-29.9749],[-60.6931,-29.9645],[-60.7047,-29.9598],[-60.6975,-29.9483],[-60.7108,-29.9405],[-60.7145,-29.9225],[-60.7212,-29.9201],[-60.7204,-29.9121]]]},"properties":{"id":492,"departamento":"SAN CRISTOBAL","cabecera":"SAN CRISTOBAL","provincia":"SANTA FE"}}
]}