{"type":"FeatureCollection", "features": [
{"type":"Feature","geometry":{"type":"Polygon","coordinates":[[[-63.2154,-27.474],[-63.2127,-27.4313],[-63.193,-27.4307],[-63.1988,-27.3177],[-63.2472,-27.3115],[-63.2412,-27.2729],[-63.2035,-27.1497],[-63.2383,-27.1485],[-63.2385,-27.1076],[-63.2242,-27.1071],[-63.2238,-27.0291],[-63.2278,-26.9038],[-63.2125,-26.9035],[-63.2131,-26.854],[-63.2285,-26.8539],[-63.2295,-26.7945],[-63.2297,-26.7746],[-63.3865,-26.7734],[-63.3879,-26.9145],[-63.5559,-26.9178],[-63.5289,-26.9536],[-63.6981,-26.955],[-63.844,-26.9555],[-63.8445,-26.9658],[-63.9027,-26.9652],[-63.9025,-26.9371],[-64.003,-26.9373],[-64.0014,-27.0194],[-63.9589,-27.0204],[-63.9606,-27.1369],[-64.0134,-27.1377],[-64.0464,-27.1498],[-64.0459,-27.1679],[-63.9473,-27.1692],[-63.9473,-27.2067],[-63.9036,-27.2165],[-63.9216,-27.2947],[-63.8441,-27.3107],[-63.8663,-27.4097],[-63.9292,-27.3995],[-63.9557,-27.5174],[-63.9838,-27.5533],[-63.9094,-27.6501],[-63.8715,-27.6389],[-63.8709,-27.6588],[-63.8253,-27.6805],[-63.8257,-27.7323],[-63.7373,-27.7327],[-63.7312,-27.7436],[-63.6657,-27.7552],[-63.652,-27.8399],[-63.649,-27.8263],[-63.6116,-27.8323],[-63.5721,-27.8598],[-63.4838,-27.8295],[-63.4787,-27.791],[-63.4919,-27.7789],[-63.341,-27.7549],[-63.3368,-27.7433],[-63.2703,-27.7561],[-63.26,-27.7185],[-63.2191,-27.7273],[-63.1998,-27.6469],[-63.181,-27.54],[-63.2296,-27.5306],[-63.2154,-27.474]]]},"properties":{"id":177,"departamento":"FIGUEROA","cabecera":"LA CA¥ADA","provincia":"SANTIAGO DEL ESTERO"}},
{"type":"Feature","geometry":{"type":"Polygon","coordinates":[[[-63.1029,-28.3367],[-63.3547,-28.3326],[-63.4755,-28.1943],[-63.4898,-28.2906],[-63.5338,-28.284],[-63.536,-28.2627],[-63.562,-28.2567],[-63.5712,-28.332],[-63.5862,-28.2951],[-63.6125,-28.3444],[-63.6368,-28.3441],[-63.6654,-28.4133],[-63.7253,-28.3821],[-63.8053,-28.4217],[-63.7501,-28.4768],[-63.7123,-28.4913],[-63.7207,-28.5519],[-63.7089,-28.5833],[-63.6784,-28.5939],[-63.652,-28.6128],[-63.6393,-28.6088],[-63.5957,-28.6208],[-63.5709,-28.637],[-63.5653,-28.5833],[-63.5096,-28.5481],[-63.4945,-28.5196],[-63.4752,-28.507],[-63.4033,-28.5624],[-63.4208,-28.5954],[-63.3757,-28.5957],[-63.3736,-28.6308],[-63.1742,-28.6281],[-63.1682,-28.7607],[-63.0872,-28.761],[-63.0852,-28.8133],[-63.0241,-28.8138],[-63.0207,-28.906],[-62.8898,-28.9064],[-62.8893,-28.878],[-62.6363,-28.8786],[-62.6581,-28.8283],[-62.6808,-28.8093],[-62.6871,-28.7796],[-62.7117,-28.756],[-62.7135,-28.7046],[-62.752,-28.6322],[-62.8233,-28.6094],[-62.8382,-28.5865],[-62.8879,-28.5589],[-62.8788,-28.508],[-62.9259,-28.449],[-62.9676,-28.4326],[-62.9819,-28.4201],[-63.0288,-28.4112],[-63.0448,-28.3868],[-63.0798,-28.3713],[-63.1057,-28.3859],[-63.1126,-28.3586],[-63.1029,-28.3367]]]},"properties":{"id":178,"departamento":"AVELLANEDA","cabecera":"HERRERA","provincia":"SANTIAGO DEL ESTERO"}},
{"type":"Feature","geometry":{"type":"Polygon","coordinates":[[[-63.7654,-26.2553],[-63.7611,-26.196],[-63.7342,-26.1685],[-63.725,-26.133],[-63.7059,-26.1125],[-63.6917,-26.0753],[-63.6969,-26.0586],[-63.6856,-26.0349],[-63.7298,-25.9959],[-63.7787,-25.9209],[-63.8153,-25.8785],[-63.8185,-25.8637],[-63.851,-25.8372],[-63.8706,-25.7968],[-63.9099,-25.7758],[-63.9171,-25.7364],[-63.9428,-25.7109],[-63.9558,-25.6786],[-64.0077,-25.6734],[-64.0254,-25.7535],[-64.1964,-25.7277],[-64.1975,-25.7093],[-64.2681,-25.7],[-64.4036,-26.0312],[-64.3965,-26.0459],[-64.4122,-26.1135],[-64.4255,-26.1159],[-64.4951,-26.2189],[-64.5023,-26.239],[-64.482,-26.3068],[-64.5304,-26.3728],[-64.5344,-26.4106],[-64.5236,-26.4468],[-64.5165,-26.5118],[-64.5208,-26.5471],[-64.5077,-26.5652],[-64.4396,-26.5587],[-64.4281,-26.6099],[-64.3228,-26.6127],[-64.3123,-26.6706],[-64.2767,-26.6885],[-64.2771,-26.7167],[-64.2034,-26.736],[-64.2041,-26.7887],[-64.1554,-26.8007],[-64.1479,-26.7707],[-63.9702,-26.7969],[-63.97,-26.8233],[-63.8917,-26.8368],[-63.8663,-26.731],[-63.8009,-26.7293],[-63.794,-26.6457],[-63.7661,-26.5411],[-63.6523,-26.5433],[-63.6722,-26.4979],[-63.6929,-26.4841],[-63.7012,-26.4407],[-63.7214,-26.4166],[-63.7396,-26.3418],[-63.7652,-26.3207],[-63.7654,-26.2553]]]},"properties":{"id":176,"departamento":"PELLEGRINI","cabecera":"NUEVA ESPERANZA","provincia":"SANTIAGO DEL ESTERO"}},
{"type":"Feature","geometry":{"type":"Polygon","coordinates":[[[-63.5709,-28.637],[-63.6428,-28.7064],[-63.6444,-28.769],[-63.7151,-28.8099],[-63.6741,-28.8809],[-63.748,-28.93],[-63.7314,-28.9411],[-63.7065,-28.9373],[-63.6585,-28.9424],[-63.643,-28.9287],[-63.5716,-28.9769],[-63.5557,-28.9713],[-63.5314,-28.9905],[-63.5385,-29.019],[-63.5189,-29.0191],[-63.4721,-29.0408],[-63.4598,-29.0398],[-63.4321,-29.0711],[-63.3934,-29.0815],[-63.3807,-29.1371],[-63.322,-29.138],[-63.3095,-29.1886],[-63.2856,-29.2134],[-63.2806,-29.2107],[-63.0001,-29.2102],[-62.886,-29.2088],[-62.8871,-28.9741],[-63.0179,-28.974],[-63.0207,-28.906],[-63.0241,-28.8138],[-63.0852,-28.8133],[-63.0872,-28.761],[-63.1682,-28.7607],[-63.1742,-28.6281],[-63.3736,-28.6308],[-63.3757,-28.5957],[-63.4208,-28.5954],[-63.4033,-28.5624],[-63.4752,-28.507],[-63.4945,-28.5196],[-63.5096,-28.5481],[-63.5653,-28.5833],[-63.5709,-28.637]]]},"properties":{"id":179,"departamento":"SALAVINA","cabecera":"LOS TELARES","provincia":"SANTIAGO DEL ESTERO"}},
{"type":"Feature","geometry":{"type":"Polygon","coordinates":[[[-62.6363,-28.8786],[-62.1881,-28.8793],[-61.8598,-28.8782],[-61.8091,-28.5784],[-61.7679,-28.3345],[-62.0918,-28.3365],[-62.3842,-28.3376],[-62.7813,-28.3379],[-63.0006,-28.3382],[-63.1029,-28.3367],[-63.1126,-28.3586],[-63.1057,-28.3859],[-63.0798,-28.3713],[-63.0448,-28.3868],[-63.0288,-28.4112],[-62.9819,-28.4201],[-62.9676,-28.4326],[-62.9259,-28.449],[-62.8788,-28.508],[-62.8879,-28.5589],[-62.8382,-28.5865],[-62.8233,-28.6094],[-62.752,-28.6322],[-62.7135,-28.7046],[-62.7117,-28.756],[-62.6871,-28.7796],[-62.6808,-28.8093],[-62.6581,-28.8283],[-62.6363,-28.8786]]]},"properties":{"id":183,"departamento":"GENERAL TABOADA","cabecera":"A¥ATUYA","provincia":"SANTIAGO DEL ESTERO"}},
{"type":"Feature","geometry":{"type":"Polygon","coordinates":[[[-63.2295,-26.7945],[-62.9293,-26.7921],[-62.9293,-26.8196],[-62.7653,-26.8206],[-62.7652,-26.8343],[-62.5094,-26.8353],[-62.509,-26.7908],[-62.0587,-26.7971],[-61.7112,-26.8009],[-61.7112,-26.3971],[-61.7112,-26.2405],[-62.0691,-26.2454],[-62.5274,-26.2509],[-62.9994,-26.2541],[-63.7654,-26.2553],[-63.7652,-26.3207],[-63.7396,-26.3418],[-63.7214,-26.4166],[-63.7012,-26.4407],[-63.6929,-26.4841],[-63.6722,-26.4979],[-63.6523,-26.5433],[-63.6575,-26.5892],[-63.6715,-26.6191],[-63.6843,-26.6929],[-63.6695,-26.7109],[-63.6802,-26.7376],[-63.6781,-26.7942],[-63.7126,-26.8408],[-63.7168,-26.9097],[-63.6925,-26.9323],[-63.6981,-26.955],[-63.5289,-26.9536],[-63.5559,-26.9178],[-63.3879,-26.9145],[-63.3865,-26.7734],[-63.2297,-26.7746],[-63.2295,-26.7945]]]},"properties":{"id":180,"departamento":"ALBERDI","cabecera":"CAMPO GALLO","provincia":"SANTIAGO DEL ESTERO"}},
{"type":"Feature","geometry":{"type":"Polygon","coordinates":[[[-63.2191,-27.7273],[-63.096,-27.7543],[-63.0007,-27.7596],[-62.8837,-27.7626],[-62.883,-27.8085],[-62.6761,-27.8101],[-62.6759,-27.7902],[-62.5682,-27.7914],[-62.5676,-27.8112],[-62.2616,-27.816],[-62.2606,-27.7874],[-61.9093,-27.7895],[-61.7112,-27.7896],[-61.7112,-27.6519],[-61.7112,-27.0056],[-61.7112,-26.8009],[-62.0587,-26.7971],[-62.509,-26.7908],[-62.5094,-26.8353],[-62.7652,-26.8343],[-62.7653,-26.8206],[-62.9293,-26.8196],[-62.9293,-26.7921],[-63.2295,-26.7945],[-63.2285,-26.8539],[-63.2131,-26.854],[-63.2125,-26.9035],[-63.2278,-26.9038],[-63.2238,-27.0291],[-63.2242,-27.1071],[-63.2385,-27.1076],[-63.2383,-27.1485],[-63.2035,-27.1497],[-63.2412,-27.2729],[-63.2472,-27.3115],[-63.1988,-27.3177],[-63.193,-27.4307],[-63.2127,-27.4313],[-63.2154,-27.474],[-63.2296,-27.5306],[-63.181,-27.54],[-63.1998,-27.6469],[-63.2191,-27.7273]]]},"properties":{"id":181,"departamento":"MORENO","cabecera":"QUIMILI","provincia":"SANTIAGO DEL ESTERO"}},
{"type":"Feature","geometry":{"type":"Polygon","coordinates":[[[-63.4838,-27.8295],[-63.4722,-27.8282],[-63.4621,-27.8721],[-63.4496,-27.888],[-63.4522,-27.9251],[-63.4337,-27.9346],[-63.4275,-27.9702],[-63.3958,-27.9887],[-63.3913,-28.0342],[-63.3615,-28.0416],[-63.3004,-28.086],[-63.2775,-28.1284],[-63.2807,-28.1452],[-63.2532,-28.1676],[-63.2023,-28.1665],[-63.1485,-28.2065],[-63.1334,-28.2455],[-63.0935,-28.2684],[-63.1091,-28.3079],[-63.1029,-28.3367],[-63.0006,-28.3382],[-62.7813,-28.3379],[-62.3842,-28.3376],[-62.0918,-28.3365],[-61.7679,-28.3345],[-61.7113,-27.9994],[-61.7112,-27.7896],[-61.9093,-27.7895],[-62.2606,-27.7874],[-62.2616,-27.816],[-62.5676,-27.8112],[-62.5682,-27.7914],[-62.6759,-27.7902],[-62.6761,-27.8101],[-62.883,-27.8085],[-62.8837,-27.7626],[-63.0007,-27.7596],[-63.096,-27.7543],[-63.2191,-27.7273],[-63.26,-27.7185],[-63.2703,-27.7561],[-63.3368,-27.7433],[-63.341,-27.7549],[-63.4919,-27.7789],[-63.4787,-27.791],[-63.4838,-27.8295]]]},"properties":{"id":182,"departamento":"JUAN F IBARRA","cabecera":"SUNCHO CORRAL","provincia":"SANTIAGO DEL ESTERO"}},
{"type":"Feature","geometry":{"type":"Polygon","coordinates":[[[-64.5719,-28.1772],[-64.7631,-28.1292],[-64.7771,-28.1662],[-64.8406,-28.1535],[-64.8673,-28.2485],[-64.9381,-28.2447],[-64.9439,-28.2628],[-65.1081,-28.2578],[-65.0969,-28.471],[-65.1256,-28.6115],[-65.1846,-28.6006],[-65.1611,-28.6396],[-65.1385,-28.6581],[-65.1272,-28.7162],[-65.0166,-28.7378],[-65.0008,-28.7661],[-64.9773,-28.7892],[-64.9386,-28.8057],[-64.9011,-28.8413],[-64.912,-28.8866],[-64.9017,-28.9143],[-64.9066,-28.9324],[-64.8637,-29.0161],[-64.8637,-29.0599],[-64.8544,-29.0703],[-64.8545,-29.1974],[-64.8376,-29.2286],[-64.7812,-29.2655],[-64.8247,-29.2738],[-64.8384,-29.298],[-64.8426,-29.3337],[-64.8145,-29.3775],[-64.7879,-29.4006],[-64.7964,-29.4345],[-64.8167,-29.4527],[-64.8312,-29.5124],[-64.8246,-29.5743],[-64.5374,-29.5303],[-64.5299,-29.2281],[-64.5248,-29.0007],[-64.5226,-28.8665],[-64.4444,-28.8668],[-64.4421,-28.7617],[-64.5319,-28.7585],[-64.5345,-28.7019],[-64.6238,-28.7007],[-64.6244,-28.5965],[-64.5806,-28.5968],[-64.5458,-28.4712],[-64.5878,-28.4578],[-64.5536,-28.3728],[-64.4685,-28.4],[-64.4574,-28.3772],[-64.481,-28.36],[-64.4785,-28.3446],[-64.5714,-28.3301],[-64.5677,-28.2997],[-64.5227,-28.3078],[-64.5075,-28.198],[-64.5719,-28.1772]]]},"properties":{"id":186,"departamento":"CHOYA","cabecera":"FRIAS","provincia":"SANTIAGO DEL ESTERO"}},
{"type":"Feature","geometry":{"type":"Polygon","coordinates":[[[-62.807,-29.8159],[-62.8234,-29.8378],[-62.837,-29.8729],[-62.8175,-29.9043],[-62.8005,-29.908],[-62.7855,-29.9457],[-62.7919,-29.96],[-62.7536,-29.9664],[-62.7239,-29.9908],[-62.6995,-29.9888],[-62.655,-30.0073],[-62.6746,-30.0341],[-62.6554,-30.0553],[-62.6227,-30.0528],[-62.5863,-30.0637],[-62.5565,-30.0628],[-62.5646,-30.1148],[-62.5962,-30.1641],[-62.599,-30.217],[-62.5897,-30.236],[-62.5894,-30.2687],[-62.5345,-30.312],[-62.5201,-30.3419],[-62.1738,-30.3453],[-62.1306,-30.4799],[-62.0369,-29.9259],[-61.9893,-29.6441],[-62.4123,-29.6449],[-62.4103,-29.7613],[-62.4682,-29.7615],[-62.6186,-29.7617],[-62.8238,-29.7616],[-62.8061,-29.7849],[-62.807,-29.8159]]]},"properties":{"id":184,"departamento":"RIVADAVIA","cabecera":"SELVA","provincia":"SANTIAGO DEL ESTERO"}},
{"type":"Feature","geometry":{"type":"Polygon","coordinates":[[[-64.5374,-29.5303],[-64.3423,-29.5004],[-63.977,-29.5554],[-63.9586,-29.6213],[-63.8696,-29.6239],[-63.8417,-29.5818],[-63.784,-29.584],[-63.785,-29.5989],[-63.737,-29.6365],[-63.7237,-29.6592],[-63.6487,-29.6622],[-63.585,-29.6576],[-63.5537,-29.6636],[-63.4652,-29.6648],[-63.4807,-29.7257],[-63.4593,-29.7257],[-63.459,-29.7571],[-63.2522,-29.7758],[-63.2535,-29.64],[-63.3357,-29.5924],[-63.3393,-29.5596],[-63.4573,-29.546],[-63.4771,-29.4751],[-63.5445,-29.4395],[-63.592,-29.4387],[-63.603,-29.4061],[-63.7397,-29.2049],[-63.7574,-29.199],[-63.7588,-29.0004],[-63.7568,-28.9364],[-63.748,-28.93],[-63.7877,-28.9253],[-63.8321,-28.8905],[-63.8454,-28.907],[-63.8771,-28.9101],[-63.9478,-28.8735],[-63.9794,-28.8817],[-64.0196,-28.8754],[-64.0845,-28.8405],[-64.1092,-28.8339],[-64.1242,-28.8076],[-64.203,-28.7579],[-64.1802,-28.8037],[-64.238,-28.9981],[-64.4949,-28.9993],[-64.5248,-29.0007],[-64.5299,-29.2281],[-64.5374,-29.5303]]]},"properties":{"id":185,"departamento":"OJO DE AGUA","cabecera":"VILLA OJO DE AGUA","provincia":"SANTIAGO DEL ESTERO"}},
{"type":"Feature","geometry":{"type":"Polygon","coordinates":[[[-64.4785,-28.3446],[-64.446,-28.3497],[-64.416,-28.3159],[-64.2322,-28.3161],[-64.2294,-28.3004],[-64.0624,-28.2236],[-64.0571,-28.1925],[-64.0684,-28.1748],[-64.0562,-28.1611],[-64.0678,-28.0725],[-64.0855,-28.0254],[-64.1149,-27.9775],[-64.1089,-27.9699],[-64.1023,-27.9624],[-64.2251,-27.9838],[-64.2753,-28.1049],[-64.4302,-28.0793],[-64.4225,-28.1266],[-64.4558,-28.1245],[-64.4739,-28.2035],[-64.5075,-28.198],[-64.5227,-28.3078],[-64.5677,-28.2997],[-64.5714,-28.3301],[-64.4785,-28.3446]]]},"properties":{"id":518,"departamento":"SILIPICA","cabecera":"ARRAGA","provincia":"SANTIAGO DEL ESTERO"}},
{"type":"Feature","geometry":{"type":"Polygon","coordinates":[[[-63.7654,-26.2553],[-62.9994,-26.2541],[-62.5274,-26.2509],[-62.0691,-26.2454],[-61.7112,-26.2405],[-61.7112,-25.9786],[-61.7111,-25.6547],[-61.9701,-25.6538],[-63.4225,-25.649],[-63.4761,-25.7098],[-63.5673,-25.7095],[-63.6605,-25.6854],[-63.8743,-25.6845],[-63.9558,-25.6786],[-63.9428,-25.7109],[-63.9171,-25.7364],[-63.9099,-25.7758],[-63.8706,-25.7968],[-63.851,-25.8372],[-63.8185,-25.8637],[-63.8153,-25.8785],[-63.7787,-25.9209],[-63.7298,-25.9959],[-63.6856,-26.0349],[-63.6969,-26.0586],[-63.6917,-26.0753],[-63.7059,-26.1125],[-63.725,-26.133],[-63.7342,-26.1685],[-63.7611,-26.196],[-63.7654,-26.2553]]]},"properties":{"id":429,"departamento":"COPO","cabecera":"MONTE QUEMADO","provincia":"SANTIAGO DEL ESTERO"}},
{"type":"Feature","geometry":{"type":"Polygon","coordinates":[[[-64.5991,-27.3044],[-64.6589,-27.2415],[-64.6864,-27.2266],[-64.7455,-27.2285],[-64.7581,-27.1865],[-64.7985,-27.1506],[-64.8112,-27.1487],[-64.8323,-27.2203],[-64.8541,-27.3173],[-64.9344,-27.3444],[-64.9375,-27.3579],[-64.9743,-27.3506],[-65.0089,-27.4837],[-64.9681,-27.5054],[-64.9674,-27.5541],[-64.9784,-27.5665],[-65.0117,-27.5642],[-65.0271,-27.5871],[-65.0185,-27.6267],[-64.986,-27.7416],[-64.9409,-27.7295],[-64.9511,-27.7019],[-64.8988,-27.6837],[-64.8745,-27.6843],[-64.82,-27.6575],[-64.8273,-27.7008],[-64.784,-27.7073],[-64.7678,-27.6567],[-64.724,-27.6638],[-64.663,-27.6741],[-64.6578,-27.6601],[-64.6212,-27.6542],[-64.5483,-27.6689],[-64.511,-27.7208],[-64.4456,-27.5947],[-64.4698,-27.5764],[-64.4682,-27.5365],[-64.5117,-27.4958],[-64.558,-27.4946],[-64.5714,-27.4741],[-64.615,-27.4429],[-64.5991,-27.3044]]]},"properties":{"id":430,"departamento":"RIO HONDO","cabecera":"TERMAS DE RIO HONDO","provincia":"SANTIAGO DEL ESTERO"}},
{"type":"Feature","geometry":{"type":"Polygon","coordinates":[[[-64.0134,-27.1377],[-64.0135,-27.1005],[-64.0478,-27.1005],[-64.0484,-27.0661],[-64.2002,-27.0683],[-64.2082,-27.1058],[-64.2112,-27.2007],[-64.3041,-27.1888],[-64.3102,-27.199],[-64.4203,-27.175],[-64.4416,-27.1883],[-64.444,-27.2231],[-64.4327,-27.2665],[-64.4575,-27.2619],[-64.4804,-27.3502],[-64.5081,-27.3454],[-64.5539,-27.3112],[-64.5403,-27.2907],[-64.5973,-27.2898],[-64.5991,-27.3044],[-64.615,-27.4429],[-64.5714,-27.4741],[-64.558,-27.4946],[-64.5117,-27.4958],[-64.4682,-27.5365],[-64.4698,-27.5764],[-64.4456,-27.5947],[-64.4026,-27.6076],[-64.3959,-27.6279],[-64.3729,-27.6325],[-64.3596,-27.6648],[-64.3199,-27.6874],[-64.3103,-27.7319],[-64.2316,-27.7876],[-64.2306,-27.8034],[-64.2075,-27.8109],[-64.0869,-27.7396],[-64.0585,-27.754],[-63.9307,-27.7381],[-63.9304,-27.6934],[-63.9056,-27.6897],[-63.9059,-27.6712],[-63.8709,-27.6588],[-63.8715,-27.6389],[-63.9094,-27.6501],[-63.9838,-27.5533],[-63.9557,-27.5174],[-63.9292,-27.3995],[-63.8663,-27.4097],[-63.8441,-27.3107],[-63.9216,-27.2947],[-63.9036,-27.2165],[-63.9473,-27.2067],[-63.9473,-27.1692],[-64.0459,-27.1679],[-64.0464,-27.1498],[-64.0134,-27.1377]]]},"properties":{"id":515,"departamento":"BANDA","cabecera":"LA BANDA","provincia":"SANTIAGO DEL ESTERO"}},
{"type":"Feature","geometry":{"type":"Polygon","coordinates":[[[-63.8709,-27.6588],[-63.9059,-27.6712],[-63.9056,-27.6897],[-63.9304,-27.6934],[-63.9307,-27.7381],[-64.0585,-27.754],[-64.0869,-27.7396],[-64.2075,-27.8109],[-64.1896,-27.8401],[-64.1619,-27.8676],[-64.1542,-27.8905],[-64.1536,-27.9351],[-64.1193,-27.9395],[-64.1023,-27.9624],[-64.1089,-27.9699],[-64.0401,-27.96],[-64.0458,-27.9813],[-63.9403,-28.0043],[-63.9326,-27.9731],[-63.7333,-28.0065],[-63.7229,-27.9824],[-63.686,-27.9901],[-63.652,-27.8399],[-63.6657,-27.7552],[-63.7312,-27.7436],[-63.7373,-27.7327],[-63.8257,-27.7323],[-63.8253,-27.6805],[-63.8709,-27.6588]]]},"properties":{"id":516,"departamento":"ROBLES","cabecera":"FERNANDEZ","provincia":"SANTIAGO DEL ESTERO"}},
{"type":"Feature","geometry":{"type":"Polygon","coordinates":[[[-64.5075,-28.198],[-64.4739,-28.2035],[-64.4558,-28.1245],[-64.4225,-28.1266],[-64.4302,-28.0793],[-64.2753,-28.1049],[-64.2251,-27.9838],[-64.1023,-27.9624],[-64.1193,-27.9395],[-64.1536,-27.9351],[-64.1542,-27.8905],[-64.1619,-27.8676],[-64.1896,-27.8401],[-64.2075,-27.8109],[-64.2306,-27.8034],[-64.2316,-27.7876],[-64.3103,-27.7319],[-64.3199,-27.6874],[-64.3596,-27.6648],[-64.3729,-27.6325],[-64.3959,-27.6279],[-64.4026,-27.6076],[-64.4456,-27.5947],[-64.511,-27.7208],[-64.5483,-27.6689],[-64.6212,-27.6542],[-64.6578,-27.6601],[-64.663,-27.6741],[-64.724,-27.6638],[-64.7196,-27.7958],[-64.7062,-27.8033],[-64.7219,-27.8415],[-64.6934,-27.8461],[-64.6997,-27.8912],[-64.6595,-27.8921],[-64.5778,-27.9123],[-64.5823,-27.9274],[-64.5261,-27.9408],[-64.5375,-27.9993],[-64.5719,-28.1772],[-64.5075,-28.198]]]},"properties":{"id":517,"departamento":"CAPITAL","cabecera":"SANTIAGO DEL ESTERO","provincia":"SANTIAGO DEL ESTERO"}},
{"type":"Feature","geometry":{"type":"Polygon","coordinates":[[[-63.4755,-28.1943],[-63.5175,-28.1716],[-63.6291,-28.0888],[-63.7345,-28.014],[-63.7333,-28.0065],[-63.9326,-27.9731],[-63.9403,-28.0043],[-64.0458,-27.9813],[-64.0401,-27.96],[-64.1089,-27.9699],[-64.1149,-27.9775],[-64.0855,-28.0254],[-64.0678,-28.0725],[-64.0562,-28.1611],[-64.0684,-28.1748],[-64.0571,-28.1925],[-64.0624,-28.2236],[-64.0513,-28.2463],[-64.0733,-28.2536],[-64.0939,-28.3039],[-64.0656,-28.3276],[-64.014,-28.3376],[-64.0008,-28.3316],[-63.968,-28.3495],[-63.9473,-28.3773],[-63.8681,-28.3848],[-63.8378,-28.4005],[-63.8204,-28.3998],[-63.8053,-28.4217],[-63.7253,-28.3821],[-63.6654,-28.4133],[-63.6368,-28.3441],[-63.6125,-28.3444],[-63.5862,-28.2951],[-63.5712,-28.332],[-63.562,-28.2567],[-63.536,-28.2627],[-63.5338,-28.284],[-63.4898,-28.2906],[-63.4755,-28.1943]]]},"properties":{"id":519,"departamento":"SAN MARTIN","cabecera":"BREA POZO","provincia":"SANTIAGO DEL ESTERO"}},
{"type":"Feature","geometry":{"type":"Polygon","coordinates":[[[-63.2856,-29.2134],[-63.2642,-29.2165],[-63.2122,-29.2382],[-63.1996,-29.2694],[-63.182,-29.2864],[-63.1608,-29.2885],[-63.1476,-29.3125],[-63.131,-29.3203],[-63.1153,-29.3588],[-63.129,-29.3967],[-63.108,-29.4007],[-63.0818,-29.4405],[-63.0399,-29.4938],[-63.039,-29.5095],[-63.01,-29.5179],[-62.9962,-29.5434],[-62.9655,-29.5616],[-62.9545,-29.5965],[-62.9336,-29.6219],[-62.888,-29.6291],[-62.8786,-29.646],[-62.847,-29.6671],[-62.8428,-29.6818],[-62.8496,-29.7448],[-62.8238,-29.7616],[-62.6186,-29.7617],[-62.4682,-29.7615],[-62.4103,-29.7613],[-62.4123,-29.6449],[-62.4132,-29.5937],[-62.5847,-29.5944],[-62.5835,-29.3659],[-62.6124,-29.3662],[-62.6124,-29.3214],[-62.6569,-29.3219],[-62.6572,-29.2972],[-62.7604,-29.2981],[-62.7613,-29.2075],[-62.886,-29.2088],[-63.0001,-29.2102],[-63.2806,-29.2107],[-63.2856,-29.2134]]]},"properties":{"id":520,"departamento":"MITRE","cabecera":"VILLA UNION","provincia":"SANTIAGO DEL ESTERO"}},
{"type":"Feature","geometry":{"type":"Polygon","coordinates":[[[-63.652,-27.8399],[-63.686,-27.9901],[-63.7229,-27.9824],[-63.7333,-28.0065],[-63.7345,-28.014],[-63.6291,-28.0888],[-63.5175,-28.1716],[-63.4755,-28.1943],[-63.3547,-28.3326],[-63.1029,-28.3367],[-63.1091,-28.3079],[-63.0935,-28.2684],[-63.1334,-28.2455],[-63.1485,-28.2065],[-63.2023,-28.1665],[-63.2532,-28.1676],[-63.2807,-28.1452],[-63.2775,-28.1284],[-63.3004,-28.086],[-63.3615,-28.0416],[-63.3913,-28.0342],[-63.3958,-27.9887],[-63.4275,-27.9702],[-63.4337,-27.9346],[-63.4522,-27.9251],[-63.4496,-27.888],[-63.4621,-27.8721],[-63.4722,-27.8282],[-63.4838,-27.8295],[-63.5721,-27.8598],[-63.6116,-27.8323],[-63.649,-27.8263],[-63.652,-27.8399]]]},"properties":{"id":521,"departamento":"SARMIENTO","cabecera":"GARZA","provincia":"SANTIAGO DEL ESTERO"}},
{"type":"Feature","geometry":{"type":"Polygon","coordinates":[[[-63.8053,-28.4217],[-63.8204,-28.3998],[-63.8378,-28.4005],[-63.8681,-28.3848],[-64.066,-28.4801],[-64.1118,-28.6093],[-64.1544,-28.5936],[-64.1764,-28.6661],[-64.2043,-28.6576],[-64.2242,-28.7151],[-64.203,-28.7579],[-64.1242,-28.8076],[-64.1092,-28.8339],[-64.0845,-28.8405],[-64.0196,-28.8754],[-63.9794,-28.8817],[-63.9478,-28.8735],[-63.8771,-28.9101],[-63.8454,-28.907],[-63.8321,-28.8905],[-63.7877,-28.9253],[-63.748,-28.93],[-63.6741,-28.8809],[-63.7151,-28.8099],[-63.6444,-28.769],[-63.6428,-28.7064],[-63.5709,-28.637],[-63.5957,-28.6208],[-63.6393,-28.6088],[-63.652,-28.6128],[-63.6784,-28.5939],[-63.7089,-28.5833],[-63.7207,-28.5519],[-63.7123,-28.4913],[-63.7501,-28.4768],[-63.8053,-28.4217]]]},"properties":{"id":522,"departamento":"ATAMISQUI","cabecera":"VILLA ATAMISQUI","provincia":"SANTIAGO DEL ESTERO"}},
{"type":"Feature","geometry":{"type":"Polygon","coordinates":[[[-64.5248,-29.0007],[-64.4949,-28.9993],[-64.238,-28.9981],[-64.1802,-28.8037],[-64.203,-28.7579],[-64.2242,-28.7151],[-64.2043,-28.6576],[-64.1764,-28.6661],[-64.1544,-28.5936],[-64.1118,-28.6093],[-64.066,-28.4801],[-63.8681,-28.3848],[-63.9473,-28.3773],[-63.968,-28.3495],[-64.0008,-28.3316],[-64.014,-28.3376],[-64.0656,-28.3276],[-64.0939,-28.3039],[-64.0733,-28.2536],[-64.0513,-28.2463],[-64.0624,-28.2236],[-64.2294,-28.3004],[-64.2322,-28.3161],[-64.416,-28.3159],[-64.446,-28.3497],[-64.4785,-28.3446],[-64.481,-28.36],[-64.4574,-28.3772],[-64.4685,-28.4],[-64.5536,-28.3728],[-64.5878,-28.4578],[-64.5458,-28.4712],[-64.5806,-28.5968],[-64.6244,-28.5965],[-64.6238,-28.7007],[-64.5345,-28.7019],[-64.5319,-28.7585],[-64.4421,-28.7617],[-64.4444,-28.8668],[-64.5226,-28.8665],[-64.5248,-29.0007]]]},"properties":{"id":523,"departamento":"LORETO","cabecera":"LORETO","provincia":"SANTIAGO DEL ESTERO"}},
{"type":"Feature","geometry":{"type":"Polygon","coordinates":[[[-64.5719,-28.1772],[-64.5375,-27.9993],[-64.5261,-27.9408],[-64.5823,-27.9274],[-64.5778,-27.9123],[-64.6595,-27.8921],[-64.6997,-27.8912],[-64.6934,-27.8461],[-64.7219,-27.8415],[-64.7062,-27.8033],[-64.7196,-27.7958],[-64.724,-27.6638],[-64.7678,-27.6567],[-64.784,-27.7073],[-64.8273,-27.7008],[-64.82,-27.6575],[-64.8745,-27.6843],[-64.8988,-27.6837],[-64.9511,-27.7019],[-64.9409,-27.7295],[-64.986,-27.7416],[-65.0281,-27.7527],[-65.0168,-27.7934],[-65.039,-27.8792],[-65.1071,-27.8932],[-65.1591,-27.8772],[-65.1782,-27.916],[-65.1119,-28.1857],[-65.1081,-28.2578],[-64.9439,-28.2628],[-64.9381,-28.2447],[-64.8673,-28.2485],[-64.8406,-28.1535],[-64.7771,-28.1662],[-64.7631,-28.1292],[-64.5719,-28.1772]]]},"properties":{"id":524,"departamento":"GUASAYAN","cabecera":"SAN PEDRO DE GUASAYÁN","provincia":"SANTIAGO DEL ESTERO"}},
{"type":"Feature","geometry":{"type":"Polygon","coordinates":[[[-63.6981,-26.955],[-63.6925,-26.9323],[-63.7168,-26.9097],[-63.7126,-26.8408],[-63.6781,-26.7942],[-63.6802,-26.7376],[-63.6695,-26.7109],[-63.6843,-26.6929],[-63.6715,-26.6191],[-63.6575,-26.5892],[-63.6523,-26.5433],[-63.7661,-26.5411],[-63.794,-26.6457],[-63.8009,-26.7293],[-63.8663,-26.731],[-63.8917,-26.8368],[-63.97,-26.8233],[-63.9702,-26.7969],[-64.1479,-26.7707],[-64.1554,-26.8007],[-64.2041,-26.7887],[-64.2034,-26.736],[-64.2771,-26.7167],[-64.2767,-26.6885],[-64.3123,-26.6706],[-64.3228,-26.6127],[-64.4281,-26.6099],[-64.4396,-26.5587],[-64.5077,-26.5652],[-64.499,-26.6737],[-64.5875,-26.6581],[-64.6179,-26.8027],[-64.6726,-26.794],[-64.6776,-26.8245],[-64.7072,-26.8195],[-64.7426,-27.0044],[-64.767,-27.0143],[-64.7985,-27.1506],[-64.7581,-27.1865],[-64.7455,-27.2285],[-64.6864,-27.2266],[-64.6589,-27.2415],[-64.5991,-27.3044],[-64.5973,-27.2898],[-64.5403,-27.2907],[-64.5539,-27.3112],[-64.5081,-27.3454],[-64.4804,-27.3502],[-64.4575,-27.2619],[-64.4327,-27.2665],[-64.444,-27.2231],[-64.4416,-27.1883],[-64.4203,-27.175],[-64.3102,-27.199],[-64.3041,-27.1888],[-64.2112,-27.2007],[-64.2082,-27.1058],[-64.2002,-27.0683],[-64.0484,-27.0661],[-64.0478,-27.1005],[-64.0135,-27.1005],[-64.0134,-27.1377],[-63.9606,-27.1369],[-63.9589,-27.0204],[-64.0014,-27.0194],[-64.003,-26.9373],[-63.9025,-26.9371],[-63.9027,-26.9652],[-63.8445,-26.9658],[-63.844,-26.9555],[-63.6981,-26.955]]]},"properties":{"id":525,"departamento":"JIMENEZ","cabecera":"POZO HONDO","provincia":"SANTIAGO DEL ESTERO"}},
{"type":"Feature","geometry":{"type":"Polygon","coordinates":[[[-63.748,-28.93],[-63.7568,-28.9364],[-63.7588,-29.0004],[-63.7574,-29.199],[-63.7397,-29.2049],[-63.603,-29.4061],[-63.592,-29.4387],[-63.5445,-29.4395],[-63.4771,-29.4751],[-63.4573,-29.546],[-63.3393,-29.5596],[-63.3357,-29.5924],[-63.2535,-29.64],[-63.2522,-29.7758],[-62.807,-29.8159],[-62.8061,-29.7849],[-62.8238,-29.7616],[-62.8496,-29.7448],[-62.8428,-29.6818],[-62.847,-29.6671],[-62.8786,-29.646],[-62.888,-29.6291],[-62.9336,-29.6219],[-62.9545,-29.5965],[-62.9655,-29.5616],[-62.9962,-29.5434],[-63.01,-29.5179],[-63.039,-29.5095],[-63.0399,-29.4938],[-63.0818,-29.4405],[-63.108,-29.4007],[-63.129,-29.3967],[-63.1153,-29.3588],[-63.131,-29.3203],[-63.1476,-29.3125],[-63.1608,-29.2885],[-63.182,-29.2864],[-63.1996,-29.2694],[-63.2122,-29.2382],[-63.2642,-29.2165],[-63.2856,-29.2134],[-63.3095,-29.1886],[-63.322,-29.138],[-63.3807,-29.1371],[-63.3934,-29.0815],[-63.4321,-29.0711],[-63.4598,-29.0398],[-63.4721,-29.0408],[-63.5189,-29.0191],[-63.5385,-29.019],[-63.5314,-28.9905],[-63.5557,-28.9713],[-63.5716,-28.9769],[-63.643,-28.9287],[-63.6585,-28.9424],[-63.7065,-28.9373],[-63.7314,-28.9411],[-63.748,-28.93]]]},"properties":{"id":526,"departamento":"QUEBRACHOS","cabecera":"SUMAMPA","provincia":"SANTIAGO DEL ESTERO"}},
{"type":"Feature","geometry":{"type":"Polygon","coordinates":[[[-62.6363,-28.8786],[-62.6406,-28.9135],[-62.659,-28.9404],[-62.6478,-28.9509],[-62.667,-28.9744],[-62.6608,-29.0077],[-62.6445,-29.0106],[-62.6243,-29.0373],[-62.6361,-29.0681],[-62.6135,-29.0911],[-62.5645,-29.1023],[-62.5377,-29.1293],[-62.4915,-29.1348],[-62.457,-29.1548],[-62.438,-29.149],[-62.4167,-29.165],[-62.4077,-29.2003],[-62.3669,-29.2215],[-62.3424,-29.2585],[-62.2989,-29.2883],[-62.3049,-29.3279],[-62.2415,-29.3591],[-62.199,-29.3565],[-62.1813,-29.3728],[-62.1533,-29.3778],[-62.1269,-29.3551],[-62.0845,-29.3559],[-62.0419,-29.3776],[-62.0219,-29.4014],[-62.0005,-29.4048],[-61.9818,-29.4242],[-61.9493,-29.4077],[-61.8962,-29.0934],[-61.8598,-28.8782],[-62.1881,-28.8793],[-62.6363,-28.8786]]]},"properties":{"id":527,"departamento":"BELGRANO","cabecera":"BANDERA","provincia":"SANTIAGO DEL ESTERO"}},
{"type":"Feature","geometry":{"type":"Polygon","coordinates":[[[-63.0207,-28.906],[-63.0179,-28.974],[-62.8871,-28.9741],[-62.886,-29.2088],[-62.7613,-29.2075],[-62.7604,-29.2981],[-62.6572,-29.2972],[-62.6569,-29.3219],[-62.6124,-29.3214],[-62.6124,-29.3662],[-62.5835,-29.3659],[-62.5847,-29.5944],[-62.4132,-29.5937],[-62.4123,-29.6449],[-61.9893,-29.6441],[-61.9493,-29.4077],[-61.9818,-29.4242],[-62.0005,-29.4048],[-62.0219,-29.4014],[-62.0419,-29.3776],[-62.0845,-29.3559],[-62.1269,-29.3551],[-62.1533,-29.3778],[-62.1813,-29.3728],[-62.199,-29.3565],[-62.2415,-29.3591],[-62.3049,-29.3279],[-62.2989,-29.2883],[-62.3424,-29.2585],[-62.3669,-29.2215],[-62.4077,-29.2003],[-62.4167,-29.165],[-62.438,-29.149],[-62.457,-29.1548],[-62.4915,-29.1348],[-62.5377,-29.1293],[-62.5645,-29.1023],[-62.6135,-29.0911],[-62.6361,-29.0681],[-62.6243,-29.0373],[-62.6445,-29.0106],[-62.6608,-29.0077],[-62.667,-28.9744],[-62.6478,-28.9509],[-62.659,-28.9404],[-62.6406,-28.9135],[-62.6363,-28.8786],[-62.8893,-28.878],[-62.8898,-28.9064],[-63.0207,-28.906]]]},"properties":{"id":528,"departamento":"AGUIRRE","cabecera":"PINTO","provincia":"SANTIAGO DEL ESTERO"}}
]}