{"type":"FeatureCollection", "features": [
{"type":"Feature","geometry":{"type":"Polygon","coordinates":[[[-67.1719,-48.4839],[-67.3077,-48.3522],[-67.5531,-48.113],[-67.5874,-48.1124],[-67.6161,-48.0917],[-68.1856,-48.4446],[-68.3354,-48.3796],[-68.6636,-48.3995],[-68.9936,-48.4185],[-69.3553,-48.4383],[-69.7344,-48.3221],[-69.7386,-48.4863],[-69.7582,-49.2087],[-69.7578,-49.3182],[-68.8268,-49.3168],[-68.8226,-49.4548],[-68.6891,-49.4541],[-68.0202,-49.446],[-67.676,-49.4419],[-67.6682,-49.4208],[-67.6678,-49.4093],[-67.6608,-49.3942],[-67.6316,-49.3553],[-67.6208,-49.3247],[-67.6112,-49.3101],[-67.6045,-49.2956],[-67.6054,-49.2752],[-67.6084,-49.2725],[-67.6153,-49.2497],[-67.6361,-49.2524],[-67.646,-49.2577],[-67.6681,-49.2552],[-67.665,-49.2657],[-67.6719,-49.2698],[-67.6727,-49.2985],[-67.6821,-49.3065],[-67.6991,-49.3089],[-67.6922,-49.3195],[-67.6831,-49.3418],[-67.6854,-49.3536],[-67.6911,-49.3577],[-67.693,-49.3689],[-67.7015,-49.378],[-67.7138,-49.3859],[-67.7286,-49.3903],[-67.7542,-49.3904],[-67.7631,-49.3877],[-67.7696,-49.3946],[-67.7926,-49.3948],[-67.8108,-49.3999],[-67.8186,-49.4055],[-67.8301,-49.4012],[-67.8332,-49.3901],[-67.8192,-49.3842],[-67.8194,-49.3766],[-67.7989,-49.3824],[-67.7815,-49.3802],[-67.795,-49.3632],[-67.7931,-49.355],[-67.8012,-49.3496],[-67.8047,-49.3428],[-67.7987,-49.3313],[-67.793,-49.3282],[-67.7829,-49.3305],[-67.7819,-49.3204],[-67.7608,-49.3139],[-67.7452,-49.3161],[-67.7333,-49.312],[-67.7157,-49.3178],[-67.7143,-49.3123],[-67.7201,-49.3014],[-67.7336,-49.2936],[-67.7422,-49.2765],[-67.7259,-49.2702],[-67.7053,-49.2694],[-67.6889,-49.2618],[-67.6789,-49.2488],[-67.6676,-49.2459],[-67.6672,-49.2399],[-67.6747,-49.2226],[-67.6678,-49.2165],[-67.6646,-49.2035],[-67.6432,-49.1961],[-67.636,-49.1969],[-67.6151,-49.1864],[-67.6103,-49.1789],[-67.6162,-49.1719],[-67.6178,-49.1635],[-67.6319,-49.1577],[-67.6369,-49.1507],[-67.6366,-49.1398],[-67.6312,-49.1285],[-67.6155,-49.1127],[-67.6032,-49.1084],[-67.5993,-49.0948],[-67.5925,-49.0901],[-67.5855,-49.0727],[-67.5787,-49.0475],[-67.5683,-49.0326],[-67.5555,-49.0182],[-67.5422,-49.007],[-67.5329,-49.0025],[-67.4964,-48.9734],[-67.4903,-48.9613],[-67.4676,-48.9456],[-67.4117,-48.9132],[-67.3589,-48.8873],[-67.3289,-48.8741],[-67.2955,-48.8634],[-67.2702,-48.8578],[-67.2458,-48.855],[-67.2378,-48.8471],[-67.2203,-48.8394],[-67.2148,-48.8299],[-67.1926,-48.8142],[-67.1965,-48.8021],[-67.1901,-48.7937],[-67.1943,-48.7894],[-67.1863,-48.7736],[-67.1749,-48.7644],[-67.1511,-48.749],[-67.1475,-48.7282],[-67.1388,-48.7119],[-67.1407,-48.6976],[-67.1292,-48.6853],[-67.1205,-48.6804],[-67.0805,-48.6645],[-67.0597,-48.6505],[-67.0434,-48.6473],[-67.0225,-48.6374],[-67.0218,-48.6308],[-67.0115,-48.6228],[-66.9925,-48.6146],[-66.972,-48.6089],[-66.9512,-48.6058],[-66.9211,-48.6069],[-66.8967,-48.6023],[-66.8769,-48.5954],[-66.8691,-48.5887],[-66.8694,-48.5829],[-66.8697,-48.5828],[-67.1719,-48.4839]]]},"properties":{"id":288,"departamento":"MAGALLANES","cabecera":"SAN JULIAN","provincia":"SANTA CRUZ"}},
{"type":"Feature","geometry":{"type":"Polygon","coordinates":[[[-69.7582,-49.2087],[-70.4416,-49.2051],[-70.5808,-49.2039],[-70.6018,-49.7318],[-70.6056,-49.8233],[-70.6216,-50.2125],[-70.6311,-50.2193],[-70.6387,-50.3681],[-70.6301,-50.3745],[-70.646,-50.7368],[-70.3999,-50.7428],[-69.965,-50.7523],[-69.4523,-50.7606],[-69.1384,-50.7656],[-69.1402,-50.7336],[-69.138,-50.7206],[-69.1266,-50.6966],[-69.1247,-50.677],[-69.122,-50.6702],[-69.1093,-50.6557],[-69.0925,-50.6238],[-69.0804,-50.5857],[-69.079,-50.566],[-69.0717,-50.5537],[-69.0501,-50.5305],[-69.0385,-50.5087],[-69.0349,-50.4965],[-69.0106,-50.4744],[-68.9966,-50.4568],[-68.9837,-50.4364],[-68.9713,-50.4217],[-68.9417,-50.3949],[-68.924,-50.3839],[-68.9237,-50.378],[-68.904,-50.363],[-68.8837,-50.3581],[-68.8842,-50.3521],[-68.878,-50.3471],[-68.8801,-50.3362],[-68.862,-50.3246],[-68.8412,-50.3172],[-68.8225,-50.3135],[-68.8095,-50.3089],[-68.7988,-50.3009],[-68.7771,-50.2906],[-68.763,-50.2864],[-68.7495,-50.287],[-68.7318,-50.2821],[-68.7317,-50.2793],[-68.6732,-50.2636],[-68.6654,-50.2591],[-68.6393,-50.2527],[-68.6328,-50.2492],[-68.6112,-50.2441],[-68.5302,-50.2216],[-68.5158,-50.2152],[-68.4712,-50.2049],[-68.4549,-50.1991],[-68.4081,-50.1875],[-68.3698,-50.1697],[-68.3575,-50.1601],[-68.354,-50.1519],[-68.3557,-50.1393],[-68.3608,-50.1354],[-68.3879,-50.1295],[-68.4015,-50.1292],[-68.4115,-50.1155],[-68.4264,-50.1146],[-68.4517,-50.1107],[-68.4619,-50.1063],[-68.4844,-50.0927],[-68.5006,-50.0782],[-68.5,-50.0661],[-68.5131,-50.0531],[-68.5108,-50.0182],[-68.5288,-50.006],[-68.5417,-50.0002],[-68.5669,-49.9729],[-68.5807,-49.9644],[-68.594,-49.9667],[-68.6093,-49.9756],[-68.6469,-49.9897],[-68.6729,-49.9933],[-68.7107,-49.9859],[-68.7331,-49.9834],[-68.7423,-49.98],[-68.7674,-49.9773],[-68.7959,-49.9772],[-68.8156,-49.9792],[-68.8232,-49.9781],[-68.8487,-49.9692],[-68.8804,-49.9714],[-68.9005,-49.9806],[-68.9045,-49.995],[-68.9163,-49.9999],[-68.9328,-50],[-68.9088,-49.9898],[-68.9051,-49.9785],[-68.8961,-49.9715],[-68.8665,-49.9645],[-68.8532,-49.964],[-68.8189,-49.9688],[-68.7928,-49.9654],[-68.7629,-49.9665],[-68.7354,-49.9634],[-68.7209,-49.9634],[-68.7043,-49.967],[-68.6788,-49.9667],[-68.6591,-49.9649],[-68.6401,-49.9596],[-68.6152,-49.9452],[-68.5986,-49.9378],[-68.5714,-49.9368],[-68.5776,-49.9258],[-68.5804,-49.9077],[-68.5846,-49.9038],[-68.5829,-49.8955],[-68.5878,-49.8911],[-68.5893,-49.8812],[-68.608,-49.8567],[-68.6106,-49.8419],[-68.6212,-49.8324],[-68.627,-49.8187],[-68.6208,-49.8122],[-68.6315,-49.7979],[-68.6199,-49.7989],[-68.6128,-49.8088],[-68.6072,-49.8256],[-68.594,-49.8346],[-68.5738,-49.8556],[-68.5685,-49.8584],[-68.5583,-49.8722],[-68.5565,-49.8834],[-68.5416,-49.9005],[-68.5448,-49.9069],[-68.5428,-49.9156],[-68.532,-49.9265],[-68.5292,-49.9358],[-68.5107,-49.9379],[-68.4992,-49.9458],[-68.4894,-49.9618],[-68.477,-49.9674],[-68.4557,-49.9923],[-68.4452,-50.012],[-68.4405,-50.0273],[-68.4226,-50.0465],[-68.4164,-50.059],[-68.3999,-50.0724],[-68.3694,-50.0873],[-68.358,-50.1031],[-68.3567,-50.1125],[-68.3504,-50.1195],[-68.3354,-50.1238],[-68.3066,-50.1214],[-68.264,-50.12],[-68.234,-50.1205],[-68.2003,-50.1173],[-68.1728,-50.1124],[-68.1422,-50.1052],[-68.1006,-50.089],[-68.0665,-50.0781],[-68.0378,-50.0678],[-67.991,-50.0454],[-67.9573,-50.0243],[-67.9077,-49.9999],[-67.8566,-49.9643],[-67.8352,-49.9424],[-67.8324,-49.9354],[-67.82,-49.9234],[-67.8052,-49.9056],[-67.7964,-49.8926],[-67.7829,-49.8644],[-67.7679,-49.8391],[-67.754,-49.8221],[-67.7434,-49.7999],[-67.7344,-49.7858],[-67.7295,-49.7724],[-67.7205,-49.7355],[-67.7223,-49.7235],[-67.7179,-49.7149],[-67.7162,-49.6813],[-67.7215,-49.6695],[-67.7174,-49.6532],[-67.7212,-49.6358],[-67.7095,-49.6177],[-67.706,-49.5997],[-67.7046,-49.5648],[-67.6981,-49.5297],[-67.6898,-49.5086],[-67.6885,-49.4867],[-67.683,-49.4634],[-67.676,-49.4419],[-68.0202,-49.446],[-68.6891,-49.4541],[-68.8226,-49.4548],[-68.8268,-49.3168],[-69.7578,-49.3182],[-69.7582,-49.2087]]]},"properties":{"id":289,"departamento":"CORPEN AIKE","cabecera":"PUERTO SANTA CRUZ","provincia":"SANTA CRUZ"}},
{"type":"Feature","geometry":{"type":"Polygon","coordinates":[[[-66.8694,-48.5829],[-66.8726,-48.5738],[-66.8656,-48.5688],[-66.859,-48.5575],[-66.8395,-48.5456],[-66.8423,-48.5372],[-66.8307,-48.5237],[-66.8161,-48.5151],[-66.7848,-48.5017],[-66.7716,-48.4991],[-66.7702,-48.4936],[-66.7558,-48.4812],[-66.7558,-48.4765],[-66.7356,-48.4656],[-66.7125,-48.4582],[-66.6917,-48.4534],[-66.6825,-48.4532],[-66.6821,-48.4466],[-66.6642,-48.4373],[-66.6401,-48.4314],[-66.6163,-48.4275],[-66.5645,-48.423],[-66.545,-48.4233],[-66.5287,-48.4167],[-66.4956,-48.4182],[-66.4886,-48.4084],[-66.4682,-48.4015],[-66.4743,-48.398],[-66.4669,-48.3814],[-66.476,-48.3761],[-66.4762,-48.3681],[-66.4678,-48.3604],[-66.4541,-48.3543],[-66.4291,-48.3495],[-66.4065,-48.3492],[-66.3739,-48.3525],[-66.3615,-48.3573],[-66.3517,-48.3683],[-66.3426,-48.3691],[-66.3344,-48.3615],[-66.3324,-48.3526],[-66.3482,-48.344],[-66.3551,-48.3335],[-66.3602,-48.3195],[-66.3594,-48.3111],[-66.3539,-48.3014],[-66.3431,-48.2932],[-66.3444,-48.2881],[-66.3389,-48.2793],[-66.328,-48.2696],[-66.3123,-48.2639],[-66.2954,-48.2514],[-66.2837,-48.2499],[-66.2771,-48.2419],[-66.2622,-48.2377],[-66.2632,-48.232],[-66.2543,-48.2187],[-66.2423,-48.2133],[-66.2382,-48.2075],[-66.2261,-48.2002],[-66.2079,-48.2015],[-66.1969,-48.1946],[-66.1709,-48.1944],[-66.1595,-48.1909],[-66.1548,-48.1858],[-66.1575,-48.1695],[-66.1494,-48.1667],[-66.1405,-48.1568],[-66.1391,-48.1404],[-66.1292,-48.1335],[-66.126,-48.1274],[-66.1156,-48.1209],[-66.101,-48.1175],[-66.0808,-48.1098],[-66.0663,-48.1109],[-66.045,-48.1048],[-66.0301,-48.1053],[-66.0167,-48.1092],[-66.0127,-48.1042],[-65.9936,-48.1067],[-65.9808,-48.1001],[-65.9544,-48.1022],[-65.9441,-48.1133],[-65.9305,-48.1155],[-65.9169,-48.1081],[-65.9164,-48.0989],[-65.8963,-48.1026],[-65.8992,-48.0954],[-65.9116,-48.0803],[-65.9396,-48.0752],[-65.9548,-48.0662],[-65.9673,-48.0485],[-65.9518,-48.0334],[-65.9433,-48.0319],[-65.9511,-48.0135],[-65.9332,-48.0174],[-65.9328,-48.0113],[-65.9432,-48.0078],[-65.9296,-47.9928],[-65.9483,-47.9824],[-65.9518,-47.9756],[-65.9478,-47.9637],[-65.9375,-47.9496],[-65.9206,-47.9369],[-65.9043,-47.9318],[-65.878,-47.9341],[-65.8671,-47.9414],[-65.8598,-47.9374],[-65.8411,-47.9409],[-65.8368,-47.946],[-65.8407,-47.9515],[-65.8284,-47.9635],[-65.817,-47.9561],[-65.8117,-47.9598],[-65.8013,-47.9521],[-65.7652,-47.9493],[-65.7698,-47.9446],[-65.7856,-47.9461],[-65.7926,-47.9309],[-65.7862,-47.9229],[-65.7649,-47.9191],[-65.7752,-47.91],[-65.7937,-47.903],[-65.8088,-47.9026],[-65.8213,-47.9046],[-65.8377,-47.8937],[-65.8437,-47.8949],[-65.8523,-47.8789],[-65.8587,-47.8726],[-65.8642,-47.8485],[-65.8636,-47.8394],[-65.8681,-47.8227],[-65.8762,-47.8086],[-65.8845,-47.7888],[-65.8863,-47.7708],[-65.9078,-47.762],[-65.9403,-47.7669],[-65.9518,-47.759],[-65.9634,-47.7632],[-65.9781,-47.7627],[-65.9818,-47.7662],[-66.006,-47.7751],[-66.0317,-47.7812],[-66.0362,-47.7864],[-66.0524,-47.7922],[-66.0532,-47.795],[-66.0827,-47.811],[-66.092,-47.8137],[-66.1156,-47.8145],[-66.1279,-47.8189],[-66.1378,-47.8161],[-66.1949,-47.8316],[-66.2027,-47.8374],[-66.2324,-47.8468],[-66.2424,-47.8521],[-66.2546,-47.8528],[-66.2254,-47.8382],[-66.195,-47.82],[-66.1792,-47.8178],[-66.1718,-47.8131],[-66.1504,-47.807],[-66.139,-47.8091],[-66.1234,-47.808],[-66.1053,-47.799],[-66.084,-47.7847],[-66.0703,-47.7775],[-66.0519,-47.7557],[-66.0344,-47.7441],[-66.0147,-47.7412],[-66.0014,-47.7453],[-65.9827,-47.7418],[-65.961,-47.7468],[-65.958,-47.7445],[-65.9333,-47.7506],[-65.9181,-47.7512],[-65.8969,-47.7573],[-65.8764,-47.7515],[-65.8578,-47.7508],[-65.844,-47.7433],[-65.8464,-47.737],[-65.8324,-47.7139],[-65.8179,-47.6805],[-65.7926,-47.6365],[-65.7845,-47.618],[-65.7808,-47.603],[-65.7735,-47.5898],[-65.7675,-47.5843],[-65.7574,-47.5561],[-65.7527,-47.5351],[-65.7408,-47.5136],[-65.7386,-47.4995],[-65.7383,-47.4763],[-65.7311,-47.4529],[-65.7293,-47.4311],[-65.7256,-47.4139],[-65.7264,-47.3942],[-65.7252,-47.3758],[-65.7209,-47.3631],[-65.7185,-47.3481],[-65.718,-47.3279],[-65.7305,-47.2956],[-65.7376,-47.2728],[-65.7437,-47.2636],[-65.7466,-47.2478],[-65.7568,-47.232],[-65.7568,-47.2154],[-65.7445,-47.2021],[-65.769,-47.1887],[-65.7984,-47.1695],[-65.8095,-47.1582],[-65.8348,-47.1452],[-65.8488,-47.1321],[-65.8526,-47.1223],[-65.8543,-47.1089],[-65.8658,-47.1063],[-65.8741,-47.0966],[-65.8958,-47.0979],[-65.905,-47.0955],[-65.9274,-47.086],[-65.9333,-47.0855],[-65.9451,-47.0769],[-65.955,-47.0782],[-65.9793,-47.0719],[-65.9859,-47.0754],[-66.001,-47.0729],[-66.017,-47.0741],[-66.0424,-47.0716],[-66.076,-47.076],[-66.0962,-47.0842],[-66.109,-47.0858],[-66.1211,-47.0835],[-66.1454,-47.084],[-66.1625,-47.0823],[-66.1819,-47.0876],[-66.197,-47.0881],[-66.2206,-47.0844],[-66.2394,-47.0798],[-66.2662,-47.0787],[-66.2969,-47.0707],[-66.3059,-47.0732],[-66.3366,-47.0689],[-66.3493,-47.0688],[-66.3639,-47.0652],[-66.3832,-47.0632],[-66.406,-47.0567],[-66.4172,-47.0569],[-66.4617,-47.0472],[-66.4731,-47.0472],[-66.5106,-47.0405],[-66.5458,-47.0487],[-66.5618,-47.0488],[-66.5717,-47.0445],[-66.5787,-47.0464],[-66.6025,-47.0401],[-66.6155,-47.0453],[-66.6299,-47.0461],[-66.6481,-47.0407],[-66.6624,-47.0295],[-66.6739,-47.0295],[-66.6897,-47.034],[-66.708,-47.034],[-66.7578,-47.017],[-66.7784,-47.0078],[-66.7924,-46.9998],[-66.8039,-46.9854],[-66.8421,-46.9607],[-66.859,-46.9452],[-66.8573,-46.9358],[-66.8789,-46.9314],[-66.8911,-46.9168],[-66.9003,-46.9122],[-66.9162,-46.8926],[-66.925,-46.886],[-66.9285,-46.8791],[-66.9384,-46.8736],[-66.9425,-46.8637],[-66.9562,-46.8529],[-66.9723,-46.8504],[-66.9831,-46.8441],[-66.9928,-46.8308],[-67.0322,-46.8133],[-67.0439,-46.8033],[-67.0562,-46.7871],[-67.0719,-46.7786],[-67.0837,-46.7688],[-67.0912,-46.7562],[-67.1021,-46.7492],[-67.1072,-46.7405],[-67.1228,-46.7299],[-67.1279,-46.7172],[-67.1353,-46.7078],[-67.1488,-46.7048],[-67.164,-46.6944],[-67.1755,-46.6921],[-67.1825,-46.695],[-67.198,-46.6916],[-67.2142,-46.6813],[-67.2306,-46.6755],[-67.2391,-46.6687],[-67.2521,-46.649],[-67.2673,-46.6435],[-67.2753,-46.6436],[-67.2923,-46.6367],[-67.3271,-46.6308],[-67.3585,-46.6184],[-67.3673,-46.6116],[-67.3825,-46.6043],[-67.3984,-46.5912],[-67.4056,-46.5797],[-67.4215,-46.5691],[-67.4431,-46.5465],[-67.4621,-46.5137],[-67.4839,-46.4828],[-67.4942,-46.4712],[-67.4953,-46.4606],[-67.504,-46.4499],[-67.5579,-46.366],[-67.5764,-46.3323],[-67.5846,-46.3111],[-67.593,-46.2949],[-67.5934,-46.2902],[-67.6133,-46.2336],[-67.6226,-46.1937],[-67.6266,-46.1692],[-67.6283,-46.1397],[-67.6258,-46.1007],[-67.6269,-46.0824],[-67.6245,-46.0723],[-67.6186,-46.0694],[-67.6229,-46.0622],[-67.6243,-46.0493],[-67.6053,-46.0447],[-67.6014,-46.0346],[-67.5923,-46.0232],[-67.5957,-45.9999],[-67.784,-45.9999],[-68.3631,-45.9999],[-69.4183,-45.9999],[-69.6562,-45.9999],[-69.6619,-46.2209],[-69.6641,-46.3059],[-69.6689,-46.4928],[-69.6737,-46.6724],[-69.6867,-47.1613],[-69.7076,-47.2347],[-69.7092,-47.3013],[-69.7344,-48.3221],[-69.3553,-48.4383],[-68.9936,-48.4185],[-68.6636,-48.3995],[-68.3354,-48.3796],[-68.1856,-48.4446],[-67.6161,-48.0917],[-67.5874,-48.1124],[-67.5531,-48.113],[-67.3077,-48.3522],[-67.1719,-48.4839],[-66.8697,-48.5828],[-66.8694,-48.5829]]]},"properties":{"id":290,"departamento":"DESEADO","cabecera":"PUERTO DESEADO","provincia":"SANTA CRUZ"}},
{"type":"Feature","geometry":{"type":"Polygon","coordinates":[[[-69.7344,-48.3221],[-69.783,-48.307],[-70.2498,-47.8453],[-70.7689,-47.3199],[-71.3766,-47.3532],[-71.5715,-47.3639],[-71.875,-47.2348],[-71.8928,-47.2268],[-71.9046,-47.2263],[-71.9208,-47.2188],[-71.9277,-47.2206],[-71.9501,-47.2152],[-71.9782,-47.2124],[-71.9964,-47.2061],[-72.0116,-47.2065],[-72.0012,-47.2173],[-72.0009,-47.2286],[-72.0119,-47.2392],[-72.0164,-47.2477],[-72.0127,-47.2586],[-71.9994,-47.2799],[-71.9963,-47.2897],[-71.9979,-47.2966],[-72.0364,-47.3192],[-72.0414,-47.3295],[-72.0534,-47.3411],[-72.0716,-47.3414],[-72.0802,-47.3341],[-72.099,-47.3334],[-72.1275,-47.3277],[-72.1345,-47.3332],[-72.1362,-47.3419],[-72.1445,-47.3518],[-72.1426,-47.363],[-72.1607,-47.3794],[-72.1586,-47.3871],[-72.1615,-47.3944],[-72.1777,-47.3981],[-72.1879,-47.405],[-72.1893,-47.4097],[-72.1991,-47.4155],[-72.232,-47.4034],[-72.2482,-47.4086],[-72.2495,-47.4145],[-72.2696,-47.4168],[-72.2851,-47.4319],[-72.2855,-47.4371],[-72.2935,-47.4457],[-72.3009,-47.4454],[-72.3428,-47.4574],[-72.3397,-47.469],[-72.3271,-47.4817],[-72.3087,-47.4796],[-72.3072,-47.4914],[-72.2951,-47.4983],[-72.2921,-47.5112],[-72.2963,-47.5241],[-72.3096,-47.5521],[-72.3227,-47.5625],[-72.3272,-47.5716],[-72.3253,-47.5843],[-72.3168,-47.5888],[-72.3152,-47.5958],[-72.3254,-47.6017],[-72.3352,-47.6109],[-72.344,-47.6292],[-72.3595,-47.6395],[-72.3661,-47.6352],[-72.3799,-47.6363],[-72.3933,-47.6437],[-72.4025,-47.6522],[-72.3979,-47.6577],[-72.4209,-47.6613],[-72.4096,-47.6773],[-72.4179,-47.6942],[-72.4432,-47.7037],[-72.4503,-47.7044],[-72.4526,-47.714],[-72.4356,-47.733],[-72.4417,-47.7394],[-72.451,-47.7417],[-72.4668,-47.7377],[-72.4713,-47.7458],[-72.4736,-47.7581],[-72.4849,-47.7581],[-72.4871,-47.7534],[-72.499,-47.7545],[-72.5082,-47.7454],[-72.52,-47.7436],[-72.5223,-47.7538],[-72.5135,-47.7602],[-72.5051,-47.762],[-72.5,-47.7742],[-72.5002,-47.7868],[-72.496,-47.7967],[-72.4773,-47.8102],[-72.4683,-47.8122],[-72.4718,-47.8254],[-72.4754,-47.8645],[-72.4808,-47.8703],[-72.4951,-47.8732],[-72.5,-47.8857],[-72.5105,-47.8942],[-72.5227,-47.9115],[-72.5269,-47.9238],[-72.5275,-47.938],[-72.5181,-47.9454],[-72.5072,-47.9498],[-72.5035,-47.9578],[-72.4789,-47.9604],[-72.4594,-47.9562],[-72.4531,-47.9638],[-72.4273,-47.9655],[-72.4276,-47.9729],[-72.4205,-47.9868],[-72.4253,-47.9958],[-72.4193,-48.0026],[-72.4295,-48.0123],[-72.4316,-48.0271],[-72.4283,-48.0391],[-72.4409,-48.0485],[-72.4396,-48.0577],[-72.4439,-48.0625],[-72.422,-48.0756],[-72.4154,-48.0777],[-72.4042,-48.075],[-72.3946,-48.0762],[-72.3851,-48.0709],[-72.3696,-48.075],[-72.3618,-48.073],[-72.3611,-48.0881],[-72.3551,-48.1007],[-72.3385,-48.1115],[-72.3274,-48.1155],[-72.3235,-48.121],[-72.3223,-48.1324],[-72.3058,-48.1402],[-72.2993,-48.1589],[-72.3043,-48.1632],[-72.3081,-48.1815],[-72.3113,-48.1861],[-72.3064,-48.1962],[-72.3091,-48.2048],[-72.3258,-48.2155],[-72.3167,-48.2348],[-72.2904,-48.2559],[-72.2803,-48.2695],[-72.2655,-48.278],[-72.2553,-48.2903],[-72.2534,-48.3001],[-72.2417,-48.3019],[-72.2404,-48.309],[-72.2269,-48.3218],[-72.2356,-48.3253],[-72.2409,-48.3389],[-72.2408,-48.3474],[-72.2504,-48.3483],[-72.2653,-48.3542],[-72.2781,-48.362],[-72.2864,-48.3556],[-72.3117,-48.3535],[-72.3224,-48.358],[-72.3301,-48.3507],[-72.3425,-48.3453],[-72.3698,-48.3516],[-72.3813,-48.3504],[-72.3801,-48.3652],[-72.3767,-48.3712],[-72.3585,-48.377],[-72.3465,-48.3841],[-72.3477,-48.3901],[-72.3581,-48.392],[-72.3606,-48.3984],[-72.3806,-48.3988],[-72.3918,-48.4085],[-72.4066,-48.4157],[-72.4035,-48.4214],[-72.4079,-48.4331],[-72.3965,-48.4355],[-72.3745,-48.4483],[-72.3924,-48.47],[-72.3936,-48.4824],[-72.3983,-48.4832],[-72.4143,-48.4953],[-72.4244,-48.4948],[-72.441,-48.5135],[-72.4502,-48.5131],[-72.4675,-48.5166],[-72.4935,-48.5131],[-72.5037,-48.5166],[-72.5163,-48.5103],[-72.5286,-48.4991],[-72.5278,-48.4909],[-72.5378,-48.4824],[-72.5541,-48.4845],[-72.5653,-48.4835],[-72.3038,-48.6427],[-72.1664,-48.7264],[-71.4002,-49.1933],[-70.9739,-49.1995],[-70.5808,-49.2039],[-70.4416,-49.2051],[-69.7582,-49.2087],[-69.7386,-48.4863],[-69.7344,-48.3221]]]},"properties":{"id":351,"departamento":"RIO CHICO","cabecera":"GOBERNADOR GREGORES","provincia":"SANTA CRUZ"}},
{"type":"Feature","geometry":{"type":"Polygon","coordinates":[[[-70.5808,-49.2039],[-70.9739,-49.1995],[-71.4002,-49.1933],[-72.1664,-48.7264],[-72.3038,-48.6427],[-72.5653,-48.4835],[-72.585,-48.487],[-72.5769,-48.5147],[-72.568,-48.525],[-72.5679,-48.536],[-72.5586,-48.5641],[-72.5638,-48.5714],[-72.5631,-48.5848],[-72.5491,-48.6088],[-72.5502,-48.615],[-72.5422,-48.6325],[-72.5431,-48.6474],[-72.5387,-48.6627],[-72.535,-48.6667],[-72.5395,-48.6802],[-72.5363,-48.69],[-72.5388,-48.706],[-72.5368,-48.7122],[-72.5416,-48.7301],[-72.542,-48.7413],[-72.5346,-48.7536],[-72.5365,-48.7569],[-72.5299,-48.7702],[-72.5298,-48.7931],[-72.5331,-48.7997],[-72.5486,-48.8129],[-72.5649,-48.8233],[-72.5863,-48.828],[-72.6024,-48.8378],[-72.6298,-48.861],[-72.6434,-48.8686],[-72.6826,-48.8666],[-72.6926,-48.867],[-72.6961,-48.8965],[-72.7039,-48.8981],[-72.7105,-48.9048],[-72.7388,-48.907],[-72.7458,-48.9097],[-72.7581,-48.9218],[-72.7569,-48.9271],[-72.7644,-48.9366],[-72.7665,-48.9479],[-72.7821,-48.9587],[-72.7833,-48.9625],[-72.8025,-48.968],[-72.8108,-48.9608],[-72.8215,-48.9605],[-72.8279,-48.9664],[-72.8509,-48.9657],[-72.862,-48.9574],[-72.8651,-48.9465],[-72.8757,-48.9481],[-72.894,-48.9462],[-72.9153,-48.9409],[-72.9217,-48.9358],[-72.9483,-48.9461],[-72.9558,-48.9607],[-72.9535,-48.9667],[-72.9616,-48.9819],[-72.9699,-48.9864],[-72.9885,-48.9898],[-72.9945,-48.9981],[-72.9874,-49.009],[-72.9901,-49.0166],[-72.984,-49.0281],[-73.0085,-49.0297],[-73.0143,-49.0358],[-73.0039,-49.053],[-73.0057,-49.0628],[-73.0275,-49.0646],[-73.0321,-49.0742],[-73.0462,-49.0804],[-73.0555,-49.1054],[-73.0634,-49.1136],[-73.0596,-49.1173],[-73.0627,-49.1259],[-73.0834,-49.133],[-73.0852,-49.1449],[-73.1025,-49.1454],[-73.1114,-49.1511],[-73.1172,-49.1656],[-73.1363,-49.1749],[-73.1425,-49.1855],[-73.1362,-49.2025],[-73.1436,-49.2173],[-73.1407,-49.2266],[-73.1421,-49.2438],[-73.133,-49.2544],[-73.1306,-49.2627],[-73.1008,-49.2635],[-73.0869,-49.2496],[-73.0662,-49.264],[-73.0442,-49.2692],[-73.0364,-49.2733],[-73.1202,-49.2676],[-73.1444,-49.2673],[-73.2256,-49.2508],[-73.4565,-49.2041],[-73.4728,-49.2033],[-73.4757,-49.2184],[-73.4947,-49.242],[-73.4964,-49.2683],[-73.4934,-49.2727],[-73.482,-49.2735],[-73.4707,-49.2788],[-73.458,-49.2887],[-73.4557,-49.2965],[-73.4382,-49.2973],[-73.4342,-49.3014],[-73.432,-49.3141],[-73.4187,-49.3155],[-73.4103,-49.3194],[-73.4197,-49.338],[-73.4272,-49.341],[-73.4263,-49.3552],[-73.4302,-49.3607],[-73.4257,-49.3769],[-73.4273,-49.3936],[-73.4344,-49.393],[-73.4571,-49.3988],[-73.4674,-49.4056],[-73.4749,-49.4197],[-73.4841,-49.4222],[-73.4901,-49.4287],[-73.4892,-49.4343],[-73.4736,-49.4413],[-73.4783,-49.4479],[-73.4793,-49.4613],[-73.4699,-49.4697],[-73.4635,-49.4825],[-73.4723,-49.4847],[-73.4875,-49.5005],[-73.5132,-49.497],[-73.5283,-49.5006],[-73.5393,-49.4982],[-73.5445,-49.5047],[-73.5399,-49.5266],[-73.5494,-49.5381],[-73.5454,-49.5503],[-73.5357,-49.564],[-73.526,-49.5685],[-73.5043,-49.5731],[-73.4919,-49.5792],[-73.4742,-49.601],[-73.4607,-49.6245],[-73.4638,-49.6424],[-73.4953,-49.6614],[-73.5058,-49.6662],[-73.4985,-49.6823],[-73.4983,-49.6917],[-73.508,-49.7014],[-73.5042,-49.7094],[-73.4941,-49.7113],[-73.4743,-49.7202],[-73.4681,-49.7333],[-73.4589,-49.7453],[-73.4492,-49.753],[-73.4385,-49.7578],[-73.4517,-49.764],[-73.4659,-49.7737],[-73.4617,-49.7826],[-73.445,-49.7939],[-73.4962,-49.8144],[-73.4994,-49.818],[-73.4973,-49.8441],[-73.4902,-49.8526],[-73.4989,-49.8612],[-73.4997,-49.8666],[-73.5122,-49.883],[-73.5216,-49.9005],[-73.542,-49.9125],[-73.5512,-49.92],[-73.5471,-49.9461],[-73.5379,-49.9522],[-73.5246,-49.9555],[-73.5065,-49.963],[-73.5115,-49.9746],[-73.5367,-49.9873],[-73.5637,-50.0134],[-73.5663,-50.0204],[-73.5471,-50.0344],[-73.5302,-50.043],[-73.499,-50.0443],[-73.4938,-50.0494],[-73.4829,-50.0517],[-73.4915,-50.0608],[-73.4865,-50.0721],[-73.4892,-50.0816],[-73.5094,-50.099],[-73.5346,-50.112],[-73.5412,-50.119],[-73.5386,-50.1266],[-73.5219,-50.1432],[-73.5219,-50.1578],[-73.528,-50.1654],[-73.5382,-50.1698],[-73.5532,-50.1814],[-73.5543,-50.1933],[-73.5597,-50.2169],[-73.5501,-50.2237],[-73.5497,-50.2282],[-73.5644,-50.2558],[-73.5651,-50.2707],[-73.5526,-50.2757],[-73.5412,-50.2871],[-73.534,-50.29],[-73.5184,-50.2885],[-73.5141,-50.2911],[-73.5082,-50.3067],[-73.4967,-50.3182],[-73.486,-50.3189],[-73.4696,-50.3445],[-73.4748,-50.355],[-73.4743,-50.3655],[-73.4817,-50.3702],[-73.4864,-50.3808],[-73.4795,-50.3863],[-73.4568,-50.3918],[-73.4562,-50.4005],[-73.4443,-50.4084],[-73.4388,-50.4219],[-73.4331,-50.4267],[-73.419,-50.4296],[-73.4212,-50.4433],[-73.4092,-50.446],[-73.4034,-50.4519],[-73.4076,-50.4677],[-73.4222,-50.4778],[-73.4275,-50.485],[-73.3971,-50.4849],[-73.3666,-50.4872],[-73.3628,-50.4895],[-73.3644,-50.5062],[-73.3861,-50.5164],[-73.3705,-50.5301],[-73.3594,-50.5368],[-73.3528,-50.5473],[-73.3429,-50.5516],[-73.3307,-50.562],[-73.3298,-50.5697],[-73.2997,-50.5743],[-73.2884,-50.586],[-73.281,-50.5984],[-73.278,-50.6106],[-73.2685,-50.6248],[-73.2666,-50.635],[-73.2726,-50.6437],[-73.2669,-50.6507],[-73.2565,-50.6527],[-73.2445,-50.6631],[-73.236,-50.6665],[-73.2211,-50.6665],[-73.1979,-50.6734],[-73.1817,-50.6731],[-73.1739,-50.6753],[-73.169,-50.6857],[-73.1841,-50.696],[-73.1856,-50.7004],[-73.1979,-50.7011],[-73.2252,-50.7193],[-73.2378,-50.7217],[-73.2522,-50.7281],[-73.2846,-50.7386],[-73.2826,-50.7423],[-73.2575,-50.7487],[-73.2625,-50.7622],[-73.2734,-50.7704],[-73.2841,-50.7865],[-73.2815,-50.8006],[-73.2671,-50.8091],[-73.2672,-50.824],[-73.2568,-50.8249],[-73.2225,-50.8174],[-73.2096,-50.822],[-73.2,-50.8193],[-73.1912,-50.8105],[-73.1654,-50.8033],[-73.1567,-50.7942],[-73.1466,-50.7915],[-73.1299,-50.7831],[-73.1225,-50.784],[-73.1047,-50.7762],[-73.0932,-50.7735],[-73.0851,-50.7817],[-73.0704,-50.789],[-73.0561,-50.7729],[-73.0417,-50.7613],[-73.0306,-50.7594],[-73.006,-50.762],[-72.9967,-50.7541],[-72.9843,-50.7512],[-72.9817,-50.745],[-72.9612,-50.7397],[-72.947,-50.7326],[-72.9403,-50.7226],[-72.9435,-50.7161],[-72.9412,-50.7072],[-72.9297,-50.7026],[-72.9159,-50.7027],[-72.9044,-50.6956],[-72.9023,-50.6846],[-72.8889,-50.6692],[-72.8746,-50.6705],[-72.8603,-50.6579],[-72.8469,-50.6512],[-72.8307,-50.6529],[-72.8088,-50.6452],[-72.8042,-50.6396],[-72.7929,-50.6372],[-72.7885,-50.6321],[-72.7681,-50.6268],[-72.7578,-50.6309],[-72.7402,-50.6271],[-72.7337,-50.6163],[-72.7277,-50.6154],[-72.7138,-50.6354],[-72.6968,-50.6463],[-72.6811,-50.6428],[-72.6766,-50.6524],[-72.6682,-50.6594],[-72.6558,-50.6642],[-72.6414,-50.6539],[-72.6259,-50.6566],[-72.6135,-50.6675],[-72.6133,-50.6752],[-72.6023,-50.6762],[-72.5986,-50.6811],[-72.5844,-50.6818],[-72.5753,-50.6793],[-72.5811,-50.6692],[-72.5797,-50.6557],[-72.5563,-50.64],[-72.5467,-50.6208],[-72.5402,-50.6185],[-72.5242,-50.619],[-72.5178,-50.6153],[-72.5045,-50.6145],[-72.4972,-50.6038],[-72.4814,-50.602],[-72.4622,-50.6137],[-72.4517,-50.6175],[-72.4249,-50.6172],[-72.4146,-50.6225],[-72.4085,-50.6358],[-72.3902,-50.6299],[-72.3828,-50.6249],[-72.3585,-50.6159],[-72.3445,-50.6251],[-72.3382,-50.6498],[-72.3187,-50.6533],[-72.3057,-50.6512],[-72.2951,-50.6528],[-72.2862,-50.6592],[-72.2915,-50.6732],[-72.2984,-50.6821],[-72.1617,-50.6872],[-72.0199,-50.6924],[-71.5003,-50.7117],[-70.646,-50.7368],[-70.6301,-50.3745],[-70.6387,-50.3681],[-70.6311,-50.2193],[-70.6216,-50.2125],[-70.6056,-49.8233],[-70.6018,-49.7318],[-70.5808,-49.2039]]]},"properties":{"id":352,"departamento":"LAGO ARGENTINO","cabecera":"CALAFATE","provincia":"SANTA CRUZ"}},
{"type":"Feature","geometry":{"type":"Polygon","coordinates":[[[-69.6562,-45.9999],[-69.9007,-45.9999],[-71.4135,-46],[-71.6449,-46],[-71.6453,-46.0113],[-71.6626,-46.0254],[-71.6663,-46.0402],[-71.6744,-46.0481],[-71.695,-46.0606],[-71.6964,-46.0685],[-71.7063,-46.07],[-71.7106,-46.0764],[-71.7117,-46.0877],[-71.7307,-46.0947],[-71.7428,-46.0901],[-71.7588,-46.0995],[-71.7587,-46.1098],[-71.7798,-46.1181],[-71.8094,-46.1173],[-71.8175,-46.11],[-71.8263,-46.1107],[-71.8436,-46.1201],[-71.8595,-46.118],[-71.8623,-46.1226],[-71.8773,-46.1231],[-71.8903,-46.1281],[-71.8936,-46.1342],[-71.9117,-46.1398],[-71.9072,-46.1487],[-71.9076,-46.1569],[-71.8973,-46.1622],[-71.8754,-46.1605],[-71.8605,-46.1797],[-71.8634,-46.1863],[-71.8599,-46.1933],[-71.8431,-46.1897],[-71.8352,-46.1913],[-71.8225,-46.2011],[-71.8098,-46.1969],[-71.797,-46.1887],[-71.7864,-46.1909],[-71.7783,-46.1983],[-71.773,-46.2165],[-71.7664,-46.2149],[-71.7573,-46.2203],[-71.7492,-46.2438],[-71.7408,-46.2637],[-71.7276,-46.2709],[-71.7237,-46.2826],[-71.7239,-46.2954],[-71.7279,-46.3071],[-71.7427,-46.3274],[-71.7469,-46.3367],[-71.7544,-46.3402],[-71.7538,-46.3509],[-71.6688,-46.5283],[-71.6739,-46.5454],[-71.6651,-46.5511],[-71.6668,-46.5573],[-71.6626,-46.5669],[-71.6635,-46.5746],[-71.6601,-46.5842],[-71.665,-46.5925],[-71.6652,-46.6001],[-71.6596,-46.6101],[-71.661,-46.6206],[-71.6457,-46.6345],[-71.6493,-46.6529],[-71.6454,-46.6557],[-71.6463,-46.6713],[-71.6426,-46.6822],[-71.6476,-46.6881],[-71.6551,-46.6888],[-71.6696,-46.696],[-71.6773,-46.695],[-71.6894,-46.7016],[-71.6932,-46.7088],[-71.7061,-46.7128],[-71.718,-46.7235],[-71.7394,-46.7335],[-71.7493,-46.7425],[-71.7574,-46.7562],[-71.7729,-46.7673],[-71.7982,-46.7809],[-71.8162,-46.7834],[-71.82,-46.7886],[-71.8335,-46.7975],[-71.8443,-46.7976],[-71.8576,-46.8027],[-71.8953,-46.8005],[-71.9141,-46.7982],[-71.9288,-46.8058],[-71.9462,-46.8097],[-71.955,-46.8155],[-71.9417,-46.8283],[-71.9315,-46.8433],[-71.9359,-46.8522],[-71.9317,-46.8689],[-71.9445,-46.8779],[-71.9514,-46.8902],[-71.958,-46.8908],[-71.9591,-46.8987],[-71.9715,-46.9058],[-71.9698,-46.919],[-71.965,-46.9333],[-71.9589,-46.9367],[-71.9592,-46.9494],[-71.956,-46.9598],[-71.9592,-46.9708],[-71.9554,-46.9773],[-71.9372,-46.9763],[-71.9187,-46.9855],[-71.9329,-46.9946],[-71.9157,-46.9984],[-71.8967,-46.9966],[-71.891,-47.0042],[-71.8824,-47.0079],[-71.886,-47.0263],[-71.8969,-47.0387],[-71.9046,-47.0513],[-71.9161,-47.0595],[-71.9309,-47.0589],[-71.9523,-47.071],[-71.9502,-47.0865],[-71.9414,-47.0875],[-71.8806,-47.1073],[-71.8773,-47.1185],[-71.8648,-47.1255],[-71.8592,-47.1341],[-71.8641,-47.1401],[-71.8603,-47.1548],[-71.8503,-47.1631],[-71.87,-47.1709],[-71.8786,-47.1773],[-71.8896,-47.1793],[-71.8894,-47.1984],[-71.881,-47.2063],[-71.8935,-47.2104],[-71.8893,-47.2163],[-71.8643,-47.2243],[-71.8685,-47.2333],[-71.8928,-47.2268],[-71.875,-47.2348],[-71.5715,-47.3639],[-71.3766,-47.3532],[-70.7689,-47.3199],[-70.2498,-47.8453],[-69.783,-48.307],[-69.7344,-48.3221],[-69.7092,-47.3013],[-69.7076,-47.2347],[-69.6867,-47.1613],[-69.6737,-46.6724],[-69.6689,-46.4928],[-69.6641,-46.3059],[-69.6619,-46.2209],[-69.6562,-45.9999]]]},"properties":{"id":494,"departamento":"LAGO BUENOS AIRES","cabecera":"PERITO MORENO","provincia":"SANTA CRUZ"}},
{"type":"Feature","geometry":{"type":"Polygon","coordinates":[[[-70.646,-50.7368],[-71.5003,-50.7117],[-72.0199,-50.6924],[-72.1617,-50.6872],[-72.2984,-50.6821],[-72.3022,-50.707],[-72.3127,-50.709],[-72.3194,-50.7167],[-72.3383,-50.7199],[-72.3475,-50.7304],[-72.3509,-50.7403],[-72.3499,-50.7552],[-72.3461,-50.7598],[-72.3283,-50.765],[-72.3255,-50.7705],[-72.2976,-50.7901],[-72.2816,-50.8128],[-72.2687,-50.8262],[-72.2688,-50.8315],[-72.2603,-50.8373],[-72.2684,-50.8568],[-72.2675,-50.8637],[-72.2568,-50.8728],[-72.2477,-50.8756],[-72.2553,-50.8884],[-72.2459,-50.8995],[-72.2494,-50.9107],[-72.258,-50.9172],[-72.2578,-50.9282],[-72.2623,-50.938],[-72.264,-50.9567],[-72.2674,-50.9627],[-72.2648,-50.9989],[-72.2657,-51.0353],[-72.2742,-51.0353],[-72.2791,-51.0299],[-72.3016,-51.0321],[-72.332,-51.0252],[-72.3436,-51.0295],[-72.3559,-51.0292],[-72.3608,-51.0235],[-72.3742,-51.0232],[-72.3762,-51.08],[-72.3917,-51.0842],[-72.4031,-51.0918],[-72.4089,-51.1083],[-72.4025,-51.1246],[-72.4015,-51.135],[-72.3954,-51.1454],[-72.3903,-51.1472],[-72.3786,-51.1592],[-72.3619,-51.1664],[-72.3603,-51.18],[-72.3492,-51.1896],[-72.3476,-51.2041],[-72.3324,-51.2098],[-72.3138,-51.2092],[-72.3044,-51.2014],[-72.2871,-51.2253],[-72.2587,-51.2441],[-72.2601,-51.2557],[-72.2655,-51.2615],[-72.2648,-51.2775],[-72.2742,-51.2862],[-72.2946,-51.2876],[-72.3107,-51.2974],[-72.3077,-51.3073],[-72.3232,-51.3096],[-72.3349,-51.3154],[-72.3578,-51.318],[-72.3695,-51.3427],[-72.3522,-51.3435],[-72.3488,-51.35],[-72.3404,-51.3501],[-72.3323,-51.3447],[-72.3183,-51.3527],[-72.3083,-51.3783],[-72.3129,-51.395],[-72.3101,-51.4038],[-72.322,-51.4067],[-72.3369,-51.4218],[-72.341,-51.4482],[-72.337,-51.4591],[-72.3273,-51.4666],[-72.3242,-51.4757],[-72.3459,-51.4776],[-72.3537,-51.4937],[-72.3511,-51.5062],[-72.3448,-51.52],[-72.3613,-51.5258],[-72.3748,-51.5224],[-72.3885,-51.5158],[-72.4008,-51.513],[-72.4065,-51.5189],[-72.3925,-51.5249],[-72.4081,-51.5338],[-72.4186,-51.5439],[-72.4267,-51.5478],[-72.441,-51.5856],[-72.4007,-51.5881],[-72.3822,-51.5934],[-72.3605,-51.5863],[-72.3383,-51.5841],[-72.327,-51.5873],[-72.3228,-51.5941],[-72.3186,-51.6178],[-72.319,-51.6254],[-72.3061,-51.6304],[-72.2868,-51.6331],[-72.294,-51.6481],[-72.2877,-51.6528],[-72.2899,-51.6627],[-72.2875,-51.6689],[-72.2911,-51.678],[-72.3008,-51.6871],[-72.297,-51.6994],[-72.2789,-51.705],[-72.2672,-51.7053],[-72.2461,-51.7003],[-72.2449,-51.7054],[-72.23,-51.7029],[-72.2217,-51.7078],[-72.1995,-51.7132],[-72.186,-51.7223],[-72.1672,-51.7225],[-72.1607,-51.7256],[-72.1686,-51.7317],[-72.1844,-51.7353],[-72.1518,-51.746],[-72.1302,-51.7433],[-72.1173,-51.7566],[-72.1126,-51.7682],[-72.1043,-51.7714],[-72.0764,-51.7733],[-72.0781,-51.7829],[-72.0633,-51.7853],[-72.0466,-51.7977],[-72.0263,-51.8085],[-72.0097,-51.8216],[-71.9763,-51.8565],[-71.9664,-51.8653],[-71.9569,-51.8676],[-71.9479,-51.8745],[-71.9423,-51.8843],[-71.9427,-51.8953],[-71.9379,-51.9086],[-71.9301,-51.9126],[-71.9317,-51.9194],[-71.9453,-51.9148],[-71.9596,-51.9255],[-71.9682,-51.9264],[-71.9803,-51.9329],[-71.9893,-51.9413],[-72.0283,-51.9563],[-72.0336,-51.9604],[-72.0282,-51.9682],[-72.0186,-51.9702],[-72.0113,-51.977],[-71.9953,-51.9797],[-71.9713,-51.9718],[-71.9552,-51.9809],[-71.9482,-51.9903],[-71.9298,-51.9918],[-71.9225,-51.9999],[-71.7674,-52],[-71.4645,-51.9999],[-71.2243,-51.9999],[-71.0644,-51.9999],[-70.8349,-51.9998],[-70.6668,-51.9998],[-70.4926,-52.0004],[-70.3135,-52.0004],[-70.1218,-52.0006],[-69.9955,-52.0007],[-69.683,-52.0937],[-69.4863,-52.1516],[-69.1901,-52.1504],[-69.0786,-52.1851],[-68.9869,-52.2036],[-68.838,-52.2777],[-68.7097,-52.2855],[-68.586,-52.3067],[-68.5735,-52.3252],[-68.5135,-52.3295],[-68.4186,-52.3325],[-68.4184,-52.3864],[-68.4085,-52.382],[-68.3956,-52.3653],[-68.3819,-52.3521],[-68.3559,-52.3361],[-68.3507,-52.3236],[-68.3705,-52.3059],[-68.4202,-52.2547],[-68.5042,-52.18],[-68.516,-52.168],[-68.5504,-52.1403],[-68.5777,-52.1151],[-68.6067,-52.0838],[-68.6338,-52.0577],[-68.6441,-52.0461],[-68.6783,-52.0127],[-68.6983,-51.9916],[-68.7372,-51.9444],[-68.7578,-51.9172],[-68.7875,-51.8693],[-68.8131,-51.8337],[-68.816,-51.8272],[-68.8528,-51.7732],[-68.8715,-51.7486],[-68.9208,-51.6913],[-68.9341,-51.6687],[-68.9398,-51.6515],[-68.9485,-51.6413],[-68.9558,-51.6271],[-68.9793,-51.6135],[-69.0085,-51.6053],[-69.0252,-51.6129],[-69.0495,-51.6191],[-69.0645,-51.6256],[-69.0803,-51.635],[-69.1123,-51.6468],[-69.1183,-51.6411],[-69.1034,-51.6343],[-69.118,-51.6299],[-69.1367,-51.6336],[-69.1744,-51.6219],[-69.205,-51.615],[-69.2497,-51.6004],[-69.2686,-51.5998],[-69.3001,-51.5938],[-69.3218,-51.5871],[-69.346,-51.5859],[-69.3908,-51.5921],[-69.4542,-51.6068],[-69.4672,-51.6036],[-69.4908,-51.6013],[-69.5167,-51.6051],[-69.5236,-51.6083],[-69.5285,-51.6162],[-69.551,-51.616],[-69.5617,-51.6183],[-69.581,-51.6156],[-69.5638,-51.6097],[-69.5537,-51.6087],[-69.5469,-51.603],[-69.5328,-51.5987],[-69.5241,-51.599],[-69.5177,-51.593],[-69.4948,-51.5851],[-69.4847,-51.5846],[-69.4581,-51.5768],[-69.4481,-51.5765],[-69.4378,-51.5713],[-69.424,-51.5709],[-69.3905,-51.5577],[-69.3741,-51.5567],[-69.3441,-51.5516],[-69.3187,-51.5529],[-69.3067,-51.5573],[-69.2892,-51.5588],[-69.2524,-51.5708],[-69.2416,-51.579],[-69.2224,-51.5827],[-69.1812,-51.5947],[-69.1546,-51.6014],[-69.1261,-51.6026],[-69.1018,-51.5963],[-69.0899,-51.591],[-69.076,-51.5774],[-69.06,-51.5672],[-69.0373,-51.5607],[-69.0127,-51.5584],[-68.995,-51.5628],[-68.9837,-51.5749],[-68.9814,-51.5819],[-68.9688,-51.5793],[-68.9566,-51.5694],[-68.945,-51.5524],[-68.9527,-51.5295],[-68.9712,-51.4903],[-68.994,-51.4521],[-68.9976,-51.4248],[-69.0068,-51.4098],[-69.0181,-51.3854],[-69.0292,-51.3672],[-69.0297,-51.3557],[-69.0558,-51.2968],[-69.0567,-51.2905],[-69.0697,-51.2615],[-69.0743,-51.2378],[-69.0823,-51.2234],[-69.0854,-51.2098],[-69.0949,-51.1946],[-69.1139,-51.1697],[-69.1131,-51.1556],[-69.1187,-51.1413],[-69.128,-51.1326],[-69.1289,-51.1164],[-69.1355,-51.0926],[-69.1341,-51.0859],[-69.139,-51.0717],[-69.1465,-51.0669],[-69.1451,-51.0539],[-69.153,-51.0175],[-69.1545,-50.9999],[-69.1576,-50.9905],[-69.1686,-50.9778],[-69.197,-50.9739],[-69.2055,-50.9753],[-69.2079,-50.9848],[-69.2452,-50.9999],[-69.2649,-51.0102],[-69.2839,-51.0155],[-69.2976,-51.0222],[-69.3117,-51.0355],[-69.3313,-51.045],[-69.3409,-51.0523],[-69.3745,-51.0707],[-69.3827,-51.0827],[-69.3935,-51.0865],[-69.4055,-51.0977],[-69.4345,-51.1072],[-69.433,-51.1122],[-69.4552,-51.1086],[-69.4569,-51.1028],[-69.4413,-51.0898],[-69.4204,-51.0827],[-69.4046,-51.0844],[-69.3961,-51.0797],[-69.3882,-51.063],[-69.3745,-51.052],[-69.3716,-51.045],[-69.3803,-51.0431],[-69.3824,-51.0368],[-69.3614,-51.0251],[-69.3492,-51.0128],[-69.3366,-51.0064],[-69.3212,-50.9884],[-69.2922,-50.9782],[-69.2822,-50.9721],[-69.2613,-50.9637],[-69.2514,-50.9632],[-69.2401,-50.9578],[-69.2232,-50.9709],[-69.2223,-50.9565],[-69.2165,-50.9452],[-69.2028,-50.9385],[-69.1827,-50.9247],[-69.165,-50.9093],[-69.1538,-50.9114],[-69.1391,-50.9045],[-69.1338,-50.8987],[-69.1306,-50.8792],[-69.1292,-50.8396],[-69.1328,-50.8293],[-69.1337,-50.8131],[-69.1314,-50.7989],[-69.1384,-50.7656],[-69.4523,-50.7606],[-69.965,-50.7523],[-70.3999,-50.7428],[-70.646,-50.7368]]]},"properties":{"id":514,"departamento":"GÜER AIKE","cabecera":"RIO GALLEGOS","provincia":"SANTA CRUZ"}}
]}